{
"type": "FeatureCollection",
"name": "poi_小区_cleaned",
"crs": { "type": "name", "properties": { "name": "urn:ogc:def:crs:OGC:1.3:CRS84" } },
"features": [
{ "type": "Feature", "properties": { "类别": "小区", "名称": "1号大院", "经度": 118.023309, "纬度": 36.79285, "地址": "王舍路198号一号大院C1-2", "类型": "商务住宅;住宅区;住宅小区|商务住宅;楼宇;商务写字楼|餐饮服务;中餐厅;中餐厅", "省": "山东省", "市": "淄博市", "区县": "张店区", "经度_wgs84": 118.02277, "纬度_wgs84": 36.788024, "一级分类": "居住" }, "geometry": { "type": "Point", "coordinates": [ 118.02277, 36.788024 ] } },
{ "type": "Feature", "properties": { "类别": "小区", "名称": "里程花园商业C座", "经度": 118.072881, "纬度": 36.797004, "地址": "商场东街24号里程花园", "类型": "商务住宅;楼宇;商务写字楼", "省": "山东省", "市": "淄博市", "区县": "张店区", "经度_wgs84": 118.072209, "纬度_wgs84": 36.792096, "一级分类": "居住" }, "geometry": { "type": "Point", "coordinates": [ 118.072209, 36.792096 ] } },
{ "type": "Feature", "properties": { "类别": "小区", "名称": "益林企业公园1号楼A座", "经度": 118.012375, "纬度": 36.866225, "地址": "益林·企业公园", "类型": "商务住宅;楼宇;商务写字楼", "省": "山东省", "市": "淄博市", "区县": "张店区", "经度_wgs84": 118.01181, "纬度_wgs84": 36.861424, "一级分类": "居住" }, "geometry": { "type": "Point", "coordinates": [ 118.01181, 36.861424 ] } },
{ "type": "Feature", "properties": { "类别": "小区", "名称": "天行健大厦", "经度": 118.043139, "纬度": 36.839195, "地址": "淄博高新区张桓路77号", "类型": "商务住宅;楼宇;商务写字楼", "省": "山东省", "市": "淄博市", "区县": "张店区", "经度_wgs84": 118.042495, "纬度_wgs84": 36.834325, "一级分类": "居住" }, "geometry": { "type": "Point", "coordinates": [ 118.042495, 36.834325 ] } },
{ "type": "Feature", "properties": { "类别": "小区", "名称": "天府国际B座", "经度": 118.028479, "纬度": 36.80318, "地址": "新村西路186号天府国际", "类型": "商务住宅;楼宇;商务写字楼", "省": "山东省", "市": "淄博市", "区县": "张店区", "经度_wgs84": 118.027913, "纬度_wgs84": 36.798342, "一级分类": "居住" }, "geometry": { "type": "Point", "coordinates": [ 118.027913, 36.798342 ] } },
{ "type": "Feature", "properties": { "类别": "小区", "名称": "益林企业公园2号楼", "经度": 118.011675, "纬度": 36.866275, "地址": "益林·企业公园", "类型": "商务住宅;产业园区;产业园区|商务住宅;楼宇;商务写字楼", "省": "山东省", "市": "淄博市", "区县": "张店区", "经度_wgs84": 118.011113, "纬度_wgs84": 36.861476, "一级分类": "居住" }, "geometry": { "type": "Point", "coordinates": [ 118.011113, 36.861476 ] } },
{ "type": "Feature", "properties": { "类别": "小区", "名称": "阳光国际", "经度": 118.02419, "纬度": 36.842176, "地址": "西七路华侨城对过", "类型": "商务住宅;楼宇;商务写字楼", "省": "山东省", "市": "淄博市", "区县": "张店区", "经度_wgs84": 118.023604, "纬度_wgs84": 36.837346, "一级分类": "居住" }, "geometry": { "type": "Point", "coordinates": [ 118.023604, 36.837346 ] } },
{ "type": "Feature", "properties": { "类别": "小区", "名称": "火炬大厦", "经度": 118.05733, "纬度": 36.839273, "地址": "政通路与火炬公园绿道交叉口东北60米", "类型": "商务住宅;楼宇;商务写字楼", "省": "山东省", "市": "淄博市", "区县": "张店区", "经度_wgs84": 118.05665, "纬度_wgs84": 36.83438, "一级分类": "居住" }, "geometry": { "type": "Point", "coordinates": [ 118.05665, 36.83438 ] } },
{ "type": "Feature", "properties": { "类别": "小区", "名称": "颐和大厦", "经度": 118.067813, "纬度": 36.833471, "地址": "金晶大道265号颐和花园", "类型": "商务住宅;楼宇;商务写字楼", "省": "山东省", "市": "淄博市", "区县": "张店区", "经度_wgs84": 118.067117, "纬度_wgs84": 36.828566, "一级分类": "居住" }, "geometry": { "type": "Point", "coordinates": [ 118.067117, 36.828566 ] } },
{ "type": "Feature", "properties": { "类别": "小区", "名称": "齐新大厦", "经度": 118.066836, "纬度": 36.878385, "地址": "齐新花园23,28号楼", "类型": "商务住宅;楼宇;商务写字楼", "省": "山东省", "市": "淄博市", "区县": "张店区", "经度_wgs84": 118.066102, "纬度_wgs84": 36.87348, "一级分类": "居住" }, "geometry": { "type": "Point", "coordinates": [ 118.066102, 36.87348 ] } },
{ "type": "Feature", "properties": { "类别": "小区", "名称": "阳光国际A座", "经度": 118.024497, "纬度": 36.842463, "地址": "阳光花园路与世纪路交叉口西180米", "类型": "商务住宅;楼宇;商务写字楼", "省": "山东省", "市": "淄博市", "区县": "张店区", "经度_wgs84": 118.02391, "纬度_wgs84": 36.837633, "一级分类": "居住" }, "geometry": { "type": "Point", "coordinates": [ 118.02391, 36.837633 ] } },
{ "type": "Feature", "properties": { "类别": "小区", "名称": "阳光国际B座", "经度": 118.024442, "纬度": 36.841883, "地址": "阳光国际", "类型": "商务住宅;楼宇;商务写字楼", "省": "山东省", "市": "淄博市", "区县": "张店区", "经度_wgs84": 118.023855, "纬度_wgs84": 36.837053, "一级分类": "居住" }, "geometry": { "type": "Point", "coordinates": [ 118.023855, 36.837053 ] } },
{ "type": "Feature", "properties": { "类别": "小区", "名称": "傅山文化中心", "经度": 118.141293, "纬度": 36.876633, "地址": "傅山公园", "类型": "商务住宅;楼宇;商务写字楼", "省": "山东省", "市": "淄博市", "区县": "张店区", "经度_wgs84": 118.140577, "纬度_wgs84": 36.871773, "一级分类": "居住" }, "geometry": { "type": "Point", "coordinates": [ 118.140577, 36.871773 ] } },
{ "type": "Feature", "properties": { "类别": "小区", "名称": "民泰兴旺家园写字楼", "经度": 118.059675, "纬度": 36.819025, "地址": "华光路47号民泰·兴旺家园", "类型": "商务住宅;楼宇;商务写字楼", "省": "山东省", "市": "淄博市", "区县": "张店区", "经度_wgs84": 118.059008, "纬度_wgs84": 36.814129, "一级分类": "居住" }, "geometry": { "type": "Point", "coordinates": [ 118.059008, 36.814129 ] } },
{ "type": "Feature", "properties": { "类别": "小区", "名称": "金豪大厦", "经度": 118.058362, "纬度": 36.792043, "地址": "洪沟路2号甲4号", "类型": "商务住宅;楼宇;商务写字楼", "省": "山东省", "市": "淄博市", "区县": "张店区", "经度_wgs84": 118.057721, "纬度_wgs84": 36.78715, "一级分类": "居住" }, "geometry": { "type": "Point", "coordinates": [ 118.057721, 36.78715 ] } },
{ "type": "Feature", "properties": { "类别": "小区", "名称": "张店区淄博市金融中心大厦", "经度": 117.99053, "纬度": 36.81768, "地址": "人民西路321号东北方向100米", "类型": "商务住宅;楼宇;商务写字楼", "省": "山东省", "市": "淄博市", "区县": "张店区", "经度_wgs84": 117.99009, "纬度_wgs84": 36.812937, "一级分类": "居住" }, "geometry": { "type": "Point", "coordinates": [ 117.99009, 36.812937 ] } },
{ "type": "Feature", "properties": { "类别": "小区", "名称": "明发世贸中心-北区", "经度": 117.982403, "纬度": 36.822101, "地址": "明发世贸中心", "类型": "商务住宅;楼宇;商务写字楼", "省": "山东省", "市": "淄博市", "区县": "张店区", "经度_wgs84": 117.981989, "纬度_wgs84": 36.817378, "一级分类": "居住" }, "geometry": { "type": "Point", "coordinates": [ 117.981989, 36.817378 ] } },
{ "type": "Feature", "properties": { "类别": "小区", "名称": "张店区青年创业园C座", "经度": 118.016543, "纬度": 36.803111, "地址": "鑫城中心C座", "类型": "商务住宅;楼宇;商务写字楼", "省": "山东省", "市": "淄博市", "区县": "张店区", "经度_wgs84": 118.016019, "纬度_wgs84": 36.798301, "一级分类": "居住" }, "geometry": { "type": "Point", "coordinates": [ 118.016019, 36.798301 ] } },
{ "type": "Feature", "properties": { "类别": "小区", "名称": "张店区青年创业园B座", "经度": 118.014175, "纬度": 36.803374, "地址": "新村西路179号淄博市张店区大学生创业园", "类型": "商务住宅;楼宇;商务写字楼", "省": "山东省", "市": "淄博市", "区县": "张店区", "经度_wgs84": 118.013659, "纬度_wgs84": 36.79857, "一级分类": "居住" }, "geometry": { "type": "Point", "coordinates": [ 118.013659, 36.79857 ] } },
{ "type": "Feature", "properties": { "类别": "小区", "名称": "山东淄博市张店区四宝山街道医创中心总部", "经度": 118.028625, "纬度": 36.848475, "地址": "医创园", "类型": "商务住宅;楼宇;商务写字楼", "省": "山东省", "市": "淄博市", "区县": "张店区", "经度_wgs84": 118.028018, "纬度_wgs84": 36.843635, "一级分类": "居住" }, "geometry": { "type": "Point", "coordinates": [ 118.028018, 36.843635 ] } },
{ "type": "Feature", "properties": { "类别": "小区", "名称": "张店区工商银行大厦", "经度": 118.063357, "纬度": 36.810805, "地址": "体育场街道金晶大道146号中国工商银行(淄博张店支行)", "类型": "商务住宅;楼宇;商务写字楼", "省": "山东省", "市": "淄博市", "区县": "张店区", "经度_wgs84": 118.062689, "纬度_wgs84": 36.805905, "一级分类": "居住" }, "geometry": { "type": "Point", "coordinates": [ 118.062689, 36.805905 ] } },
{ "type": "Feature", "properties": { "类别": "小区", "名称": "张店区金晶大道外贸发展大厦", "经度": 118.057775, "纬度": 36.794225, "地址": "金晶大道辅路与兴学街交叉口北80米", "类型": "商务住宅;楼宇;商务写字楼", "省": "山东省", "市": "淄博市", "区县": "张店区", "经度_wgs84": 118.057133, "纬度_wgs84": 36.789333, "一级分类": "居住" }, "geometry": { "type": "Point", "coordinates": [ 118.057133, 36.789333 ] } },
{ "type": "Feature", "properties": { "类别": "小区", "名称": "双创中心南区", "经度": 118.202825, "纬度": 36.848625, "地址": "张店经济开发区双创中心", "类型": "商务住宅;楼宇;商务写字楼", "省": "山东省", "市": "淄博市", "区县": "张店区", "经度_wgs84": 118.202269, "纬度_wgs84": 36.843899, "一级分类": "居住" }, "geometry": { "type": "Point", "coordinates": [ 118.202269, 36.843899 ] } },
{ "type": "Feature", "properties": { "类别": "小区", "名称": "淄博创新谷A区A2座", "经度": 117.975711, "纬度": 36.826505, "地址": "华光路376号淄博创新谷", "类型": "商务住宅;楼宇;商务写字楼", "省": "山东省", "市": "淄博市", "区县": "张店区", "经度_wgs84": 117.975317, "纬度_wgs84": 36.821799, "一级分类": "居住" }, "geometry": { "type": "Point", "coordinates": [ 117.975317, 36.821799 ] } },
{ "type": "Feature", "properties": { "类别": "小区", "名称": "山东淄博市张店区天府置业办公楼", "经度": 118.050327, "纬度": 36.81629, "地址": "柳泉路西二巷6号甲1号", "类型": "商务住宅;楼宇;商务写字楼", "省": "山东省", "市": "淄博市", "区县": "张店区", "经度_wgs84": 118.049684, "纬度_wgs84": 36.811408, "一级分类": "居住" }, "geometry": { "type": "Point", "coordinates": [ 118.049684, 36.811408 ] } },
{ "type": "Feature", "properties": { "类别": "小区", "名称": "中央商务区", "经度": 118.068975, "纬度": 36.835575, "地址": "中润大道与金晶大道交叉口西140米", "类型": "商务住宅;楼宇;商务写字楼", "省": "山东省", "市": "淄博市", "区县": "张店区", "经度_wgs84": 118.068275, "纬度_wgs84": 36.830669, "一级分类": "居住" }, "geometry": { "type": "Point", "coordinates": [ 118.068275, 36.830669 ] } },
{ "type": "Feature", "properties": { "类别": "小区", "名称": "淄博张店区齐鲁电商谷A3座", "经度": 118.064575, "纬度": 36.868775, "地址": "四宝山街道开发区柳泉路139号齐鲁电商谷", "类型": "商务住宅;楼宇;商务写字楼|商务住宅;产业园区;产业园区", "省": "山东省", "市": "淄博市", "区县": "张店区", "经度_wgs84": 118.063853, "纬度_wgs84": 36.863872, "一级分类": "居住" }, "geometry": { "type": "Point", "coordinates": [ 118.063853, 36.863872 ] } },
{ "type": "Feature", "properties": { "类别": "小区", "名称": "西寨社区名仕城北区A座", "经度": 118.012075, "纬度": 36.803725, "地址": "马尚街道西寨社区名仕城", "类型": "商务住宅;楼宇;商务写字楼", "省": "山东省", "市": "淄博市", "区县": "张店区", "经度_wgs84": 118.011567, "纬度_wgs84": 36.798926, "一级分类": "居住" }, "geometry": { "type": "Point", "coordinates": [ 118.011567, 36.798926 ] } },
{ "type": "Feature", "properties": { "类别": "小区", "名称": "浮山驿东区综合楼", "经度": 118.008175, "纬度": 36.762225, "地址": "浮山驿小区东区", "类型": "商务住宅;楼宇;商务写字楼", "省": "山东省", "市": "淄博市", "区县": "张店区", "经度_wgs84": 118.007717, "纬度_wgs84": 36.757438, "一级分类": "居住" }, "geometry": { "type": "Point", "coordinates": [ 118.007717, 36.757438 ] } },
{ "type": "Feature", "properties": { "类别": "小区", "名称": "盛湖大厦", "经度": 117.997866, "纬度": 36.844389, "地址": "盛湖路与北京路交叉口东北角", "类型": "商务住宅;楼宇;商务写字楼", "省": "山东省", "市": "淄博市", "区县": "张店区", "经度_wgs84": 117.997375, "纬度_wgs84": 36.839626, "一级分类": "居住" }, "geometry": { "type": "Point", "coordinates": [ 117.997375, 36.839626 ] } },
{ "type": "Feature", "properties": { "类别": "小区", "名称": "润德大厦", "经度": 117.991625, "纬度": 36.821866, "地址": "心环东路与金一巷交叉口东南80米", "类型": "商务住宅;楼宇;商务写字楼", "省": "山东省", "市": "淄博市", "区县": "张店区", "经度_wgs84": 117.991178, "纬度_wgs84": 36.81712, "一级分类": "居住" }, "geometry": { "type": "Point", "coordinates": [ 117.991178, 36.81712 ] } },
{ "type": "Feature", "properties": { "类别": "小区", "名称": "中欧国际大厦", "经度": 117.993352, "纬度": 36.820721, "地址": "马尚镇北京路", "类型": "商务住宅;楼宇;商务写字楼", "省": "山东省", "市": "淄博市", "区县": "张店区", "经度_wgs84": 117.992899, "纬度_wgs84": 36.815971, "一级分类": "居住" }, "geometry": { "type": "Point", "coordinates": [ 117.992899, 36.815971 ] } },
{ "type": "Feature", "properties": { "类别": "小区", "名称": "华侨大厦", "经度": 117.993176, "纬度": 36.819572, "地址": "金三巷与银街交叉口东北80米", "类型": "商务住宅;楼宇;商务写字楼", "省": "山东省", "市": "淄博市", "区县": "张店区", "经度_wgs84": 117.992725, "纬度_wgs84": 36.814822, "一级分类": "居住" }, "geometry": { "type": "Point", "coordinates": [ 117.992725, 36.814822 ] } },
{ "type": "Feature", "properties": { "类别": "小区", "名称": "凯瑞时代大厦", "经度": 118.015915, "纬度": 36.814525, "地址": "人民西路239号", "类型": "商务住宅;楼宇;商务写字楼", "省": "山东省", "市": "淄博市", "区县": "张店区", "经度_wgs84": 118.015383, "纬度_wgs84": 36.809716, "一级分类": "居住" }, "geometry": { "type": "Point", "coordinates": [ 118.015383, 36.809716 ] } },
{ "type": "Feature", "properties": { "类别": "小区", "名称": "玉龙大厦", "经度": 118.024105, "纬度": 36.82274, "地址": "华光路188号", "类型": "商务住宅;楼宇;商务写字楼", "省": "山东省", "市": "淄博市", "区县": "张店区", "经度_wgs84": 118.023537, "纬度_wgs84": 36.817911, "一级分类": "居住" }, "geometry": { "type": "Point", "coordinates": [ 118.023537, 36.817911 ] } },
{ "type": "Feature", "properties": { "类别": "小区", "名称": "创业大厦(世纪路)", "经度": 118.026222, "纬度": 36.819417, "地址": "世纪路30号", "类型": "商务住宅;楼宇;商务写字楼", "省": "山东省", "市": "淄博市", "区县": "张店区", "经度_wgs84": 118.025649, "纬度_wgs84": 36.814583, "一级分类": "居住" }, "geometry": { "type": "Point", "coordinates": [ 118.025649, 36.814583 ] } },
{ "type": "Feature", "properties": { "类别": "小区", "名称": "智汇中心写字楼", "经度": 118.016011, "纬度": 36.791117, "地址": "王舍路461号附近", "类型": "商务住宅;楼宇;商务写字楼", "省": "山东省", "市": "淄博市", "区县": "张店区", "经度_wgs84": 118.015499, "纬度_wgs84": 36.786309, "一级分类": "居住" }, "geometry": { "type": "Point", "coordinates": [ 118.015499, 36.786309 ] } },
{ "type": "Feature", "properties": { "类别": "小区", "名称": "九宏大厦", "经度": 118.036178, "纬度": 36.837928, "地址": "北西五路与政通路交叉口西南120米", "类型": "商务住宅;楼宇;商务写字楼", "省": "山东省", "市": "淄博市", "区县": "张店区", "经度_wgs84": 118.035556, "纬度_wgs84": 36.833072, "一级分类": "居住" }, "geometry": { "type": "Point", "coordinates": [ 118.035556, 36.833072 ] } },
{ "type": "Feature", "properties": { "类别": "小区", "名称": "环齐大厦", "经度": 118.023464, "纬度": 36.802677, "地址": "世纪路31号南70米", "类型": "商务住宅;楼宇;商务写字楼", "省": "山东省", "市": "淄博市", "区县": "张店区", "经度_wgs84": 118.022915, "纬度_wgs84": 36.79785, "一级分类": "居住" }, "geometry": { "type": "Point", "coordinates": [ 118.022915, 36.79785 ] } },
{ "type": "Feature", "properties": { "类别": "小区", "名称": "黄金1号总部大厦", "经度": 118.031435, "纬度": 36.822091, "地址": "华光路108号", "类型": "商务住宅;楼宇;商务写字楼", "省": "山东省", "市": "淄博市", "区县": "张店区", "经度_wgs84": 118.030842, "纬度_wgs84": 36.817245, "一级分类": "居住" }, "geometry": { "type": "Point", "coordinates": [ 118.030842, 36.817245 ] } },
{ "type": "Feature", "properties": { "类别": "小区", "名称": "山东齐赛创意动漫科技大厦", "经度": 118.03216, "纬度": 36.810528, "地址": "北西六路5号甲5号", "类型": "商务住宅;楼宇;商务写字楼", "省": "山东省", "市": "淄博市", "区县": "张店区", "经度_wgs84": 118.031575, "纬度_wgs84": 36.805681, "一级分类": "居住" }, "geometry": { "type": "Point", "coordinates": [ 118.031575, 36.805681 ] } },
{ "type": "Feature", "properties": { "类别": "小区", "名称": "嘉美大厦", "经度": 118.024974, "纬度": 36.782553, "地址": "经济开发区傅家镇南世纪路1号", "类型": "商务住宅;楼宇;商务写字楼", "省": "山东省", "市": "淄博市", "区县": "张店区", "经度_wgs84": 118.024438, "纬度_wgs84": 36.777723, "一级分类": "居住" }, "geometry": { "type": "Point", "coordinates": [ 118.024438, 36.777723 ] } },
{ "type": "Feature", "properties": { "类别": "小区", "名称": "金奥大厦", "经度": 118.052377, "纬度": 36.846012, "地址": "鲁泰大道68号甲5号", "类型": "商务住宅;楼宇;商务写字楼", "省": "山东省", "市": "淄博市", "区县": "张店区", "经度_wgs84": 118.051702, "纬度_wgs84": 36.841126, "一级分类": "居住" }, "geometry": { "type": "Point", "coordinates": [ 118.051702, 36.841126 ] } },
{ "type": "Feature", "properties": { "类别": "小区", "名称": "创业火炬广场", "经度": 118.057241, "纬度": 36.841211, "地址": "柳泉路109号", "类型": "商务住宅;楼宇;商务写字楼", "省": "山东省", "市": "淄博市", "区县": "张店区", "经度_wgs84": 118.056559, "纬度_wgs84": 36.836318, "一级分类": "居住" }, "geometry": { "type": "Point", "coordinates": [ 118.056559, 36.836318 ] } },
{ "type": "Feature", "properties": { "类别": "小区", "名称": "凤阳大厦", "经度": 118.042694, "纬度": 36.80244, "地址": "新村西路", "类型": "商务住宅;楼宇;商务写字楼", "省": "山东省", "市": "淄博市", "区县": "张店区", "经度_wgs84": 118.042084, "纬度_wgs84": 36.797572, "一级分类": "居住" }, "geometry": { "type": "Point", "coordinates": [ 118.042084, 36.797572 ] } },
{ "type": "Feature", "properties": { "类别": "小区", "名称": "汇金大厦", "经度": 118.061302, "纬度": 36.847755, "地址": "鲁泰大道99号", "类型": "商务住宅;楼宇;商务写字楼", "省": "山东省", "市": "淄博市", "区县": "张店区", "经度_wgs84": 118.060606, "纬度_wgs84": 36.842857, "一级分类": "居住" }, "geometry": { "type": "Point", "coordinates": [ 118.060606, 36.842857 ] } },
{ "type": "Feature", "properties": { "类别": "小区", "名称": "颐鸿大厦", "经度": 118.05352, "纬度": 36.828179, "地址": "联通路26号乙2号", "类型": "商务住宅;楼宇;商务写字楼", "省": "山东省", "市": "淄博市", "区县": "张店区", "经度_wgs84": 118.052858, "纬度_wgs84": 36.823292, "一级分类": "居住" }, "geometry": { "type": "Point", "coordinates": [ 118.052858, 36.823292 ] } },
{ "type": "Feature", "properties": { "类别": "小区", "名称": "国贸大厦", "经度": 118.056242, "纬度": 36.834935, "地址": "柳泉路107号", "类型": "商务住宅;楼宇;商务写字楼", "省": "山东省", "市": "淄博市", "区县": "张店区", "经度_wgs84": 118.055568, "纬度_wgs84": 36.830044, "一级分类": "居住" }, "geometry": { "type": "Point", "coordinates": [ 118.055568, 36.830044 ] } },
{ "type": "Feature", "properties": { "类别": "小区", "名称": "九州大厦", "经度": 118.046646, "纬度": 36.807564, "地址": "共青团路84号", "类型": "商务住宅;楼宇;商务写字楼", "省": "山东省", "市": "淄博市", "区县": "张店区", "经度_wgs84": 118.04602, "纬度_wgs84": 36.802688, "一级分类": "居住" }, "geometry": { "type": "Point", "coordinates": [ 118.04602, 36.802688 ] } },
{ "type": "Feature", "properties": { "类别": "小区", "名称": "钻石商务大厦", "经度": 118.04781, "纬度": 36.806458, "地址": "共青团路95号", "类型": "商务住宅;楼宇;商务写字楼", "省": "山东省", "市": "淄博市", "区县": "张店区", "经度_wgs84": 118.047182, "纬度_wgs84": 36.80158, "一级分类": "居住" }, "geometry": { "type": "Point", "coordinates": [ 118.047182, 36.80158 ] } },
{ "type": "Feature", "properties": { "类别": "小区", "名称": "铂金大厦", "经度": 118.047693, "纬度": 36.801065, "地址": "新村西路42号", "类型": "商务住宅;楼宇;商务写字楼", "省": "山东省", "市": "淄博市", "区县": "张店区", "经度_wgs84": 118.04707, "纬度_wgs84": 36.796188, "一级分类": "居住" }, "geometry": { "type": "Point", "coordinates": [ 118.04707, 36.796188 ] } },
{ "type": "Feature", "properties": { "类别": "小区", "名称": "天健大厦", "经度": 118.050878, "纬度": 36.808615, "地址": "柳泉路156号", "类型": "商务住宅;楼宇;商务写字楼", "省": "山东省", "市": "淄博市", "区县": "张店区", "经度_wgs84": 118.05024, "纬度_wgs84": 36.803732, "一级分类": "居住" }, "geometry": { "type": "Point", "coordinates": [ 118.05024, 36.803732 ] } },
{ "type": "Feature", "properties": { "类别": "小区", "名称": "财富广场", "经度": 118.061161, "纬度": 36.804295, "地址": "金晶大道96号", "类型": "商务住宅;楼宇;商务写字楼", "省": "山东省", "市": "淄博市", "区县": "张店区", "经度_wgs84": 118.060503, "纬度_wgs84": 36.799398, "一级分类": "居住" }, "geometry": { "type": "Point", "coordinates": [ 118.060503, 36.799398 ] } },
{ "type": "Feature", "properties": { "类别": "小区", "名称": "华润大厦", "经度": 118.060889, "纬度": 36.803295, "地址": "金晶大道66号淄博万象汇L1层L189、L190", "类型": "商务住宅;楼宇;商务写字楼", "省": "山东省", "市": "淄博市", "区县": "张店区", "经度_wgs84": 118.060233, "纬度_wgs84": 36.798398, "一级分类": "居住" }, "geometry": { "type": "Point", "coordinates": [ 118.060233, 36.798398 ] } },
{ "type": "Feature", "properties": { "类别": "小区", "名称": "科创大厦", "经度": 117.979029, "纬度": 36.825497, "地址": "华光路366号", "类型": "商务住宅;楼宇;商务写字楼", "省": "山东省", "市": "淄博市", "区县": "张店区", "经度_wgs84": 117.978625, "纬度_wgs84": 36.820783, "一级分类": "居住" }, "geometry": { "type": "Point", "coordinates": [ 117.978625, 36.820783 ] } },
{ "type": "Feature", "properties": { "类别": "小区", "名称": "创业大厦", "经度": 117.991289, "纬度": 36.820906, "地址": "心环东路与金街交叉口东北100米", "类型": "商务住宅;楼宇;商务写字楼", "省": "山东省", "市": "淄博市", "区县": "张店区", "经度_wgs84": 117.990844, "纬度_wgs84": 36.816161, "一级分类": "居住" }, "geometry": { "type": "Point", "coordinates": [ 117.990844, 36.816161 ] } },
{ "type": "Feature", "properties": { "类别": "小区", "名称": "宏程金融中心", "经度": 117.990864, "纬度": 36.819729, "地址": "马尚镇北京路与人民路路口(体育中心对过)", "类型": "商务住宅;楼宇;商务写字楼", "省": "山东省", "市": "淄博市", "区县": "张店区", "经度_wgs84": 117.990421, "纬度_wgs84": 36.814985, "一级分类": "居住" }, "geometry": { "type": "Point", "coordinates": [ 117.990421, 36.814985 ] } },
{ "type": "Feature", "properties": { "类别": "小区", "名称": "淄博少儿棋院大厦", "经度": 118.004305, "纬度": 36.844094, "地址": "淄博少儿棋院", "类型": "商务住宅;楼宇;商务写字楼", "省": "山东省", "市": "淄博市", "区县": "张店区", "经度_wgs84": 118.00379, "纬度_wgs84": 36.839314, "一级分类": "居住" }, "geometry": { "type": "Point", "coordinates": [ 118.00379, 36.839314 ] } },
{ "type": "Feature", "properties": { "类别": "小区", "名称": "天乙大厦", "经度": 118.005023, "纬度": 36.844071, "地址": "房镇镇盛湖路天乙公建商务楼E座", "类型": "商务住宅;楼宇;商务写字楼", "省": "山东省", "市": "淄博市", "区县": "张店区", "经度_wgs84": 118.004505, "纬度_wgs84": 36.839289, "一级分类": "居住" }, "geometry": { "type": "Point", "coordinates": [ 118.004505, 36.839289 ] } },
{ "type": "Feature", "properties": { "类别": "小区", "名称": "亿丰大厦", "经度": 118.00209, "纬度": 36.816667, "地址": "山东理工大学北门亿丰大厦", "类型": "商务住宅;楼宇;商务写字楼", "省": "山东省", "市": "淄博市", "区县": "张店区", "经度_wgs84": 118.001608, "纬度_wgs84": 36.811894, "一级分类": "居住" }, "geometry": { "type": "Point", "coordinates": [ 118.001608, 36.811894 ] } },
{ "type": "Feature", "properties": { "类别": "小区", "名称": "宏程·智谷大厦", "经度": 118.010977, "纬度": 36.828681, "地址": "联通路169号锦尚购物中心3号楼", "类型": "商务住宅;楼宇;商务写字楼|商务住宅;产业园区;产业园区", "省": "山东省", "市": "淄博市", "区县": "张店区", "经度_wgs84": 118.010451, "纬度_wgs84": 36.823884, "一级分类": "居住" }, "geometry": { "type": "Point", "coordinates": [ 118.010451, 36.823884 ] } },
{ "type": "Feature", "properties": { "类别": "小区", "名称": "农广大厦", "经度": 118.014804, "纬度": 36.829073, "地址": "联通路147号甲2号", "类型": "商务住宅;楼宇;商务写字楼", "省": "山东省", "市": "淄博市", "区县": "张店区", "经度_wgs84": 118.014263, "纬度_wgs84": 36.824267, "一级分类": "居住" }, "geometry": { "type": "Point", "coordinates": [ 118.014263, 36.824267 ] } },
{ "type": "Feature", "properties": { "类别": "小区", "名称": "博大广场", "经度": 118.017407, "纬度": 36.823008, "地址": "华光路272号", "类型": "商务住宅;楼宇;商务写字楼", "省": "山东省", "市": "淄博市", "区县": "张店区", "经度_wgs84": 118.016862, "纬度_wgs84": 36.818195, "一级分类": "居住" }, "geometry": { "type": "Point", "coordinates": [ 118.016862, 36.818195 ] } },
{ "type": "Feature", "properties": { "类别": "小区", "名称": "金润·香榭大厦", "经度": 118.032045, "纬度": 36.85235, "地址": "西六路与兰雁大道交叉口西南角", "类型": "商务住宅;楼宇;商务写字楼", "省": "山东省", "市": "淄博市", "区县": "张店区", "经度_wgs84": 118.031423, "纬度_wgs84": 36.847502, "一级分类": "居住" }, "geometry": { "type": "Point", "coordinates": [ 118.031423, 36.847502 ] } },
{ "type": "Feature", "properties": { "类别": "小区", "名称": "龙御大厦", "经度": 118.024599, "纬度": 36.821236, "地址": "华光路143号甲1号", "类型": "商务住宅;楼宇;商务写字楼", "省": "山东省", "市": "淄博市", "区县": "张店区", "经度_wgs84": 118.02403, "纬度_wgs84": 36.816406, "一级分类": "居住" }, "geometry": { "type": "Point", "coordinates": [ 118.02403, 36.816406 ] } },
{ "type": "Feature", "properties": { "类别": "小区", "名称": "移动大厦", "经度": 118.026599, "纬度": 36.821127, "地址": "华光路139号", "类型": "商务住宅;楼宇;商务写字楼", "省": "山东省", "市": "淄博市", "区县": "张店区", "经度_wgs84": 118.026023, "纬度_wgs84": 36.816292, "一级分类": "居住" }, "geometry": { "type": "Point", "coordinates": [ 118.026023, 36.816292 ] } },
{ "type": "Feature", "properties": { "类别": "小区", "名称": "汇美大厦", "经度": 118.019774, "纬度": 36.803022, "地址": "新村西路177号", "类型": "商务住宅;楼宇;商务写字楼", "省": "山东省", "市": "淄博市", "区县": "张店区", "经度_wgs84": 118.019238, "纬度_wgs84": 36.798204, "一级分类": "居住" }, "geometry": { "type": "Point", "coordinates": [ 118.019238, 36.798204 ] } },
{ "type": "Feature", "properties": { "类别": "小区", "名称": "德泰堂国际商务大厦", "经度": 118.028088, "纬度": 36.82239, "地址": "华光路黄金国际附近", "类型": "商务住宅;楼宇;商务写字楼", "省": "山东省", "市": "淄博市", "区县": "张店区", "经度_wgs84": 118.027506, "纬度_wgs84": 36.817552, "一级分类": "居住" }, "geometry": { "type": "Point", "coordinates": [ 118.027506, 36.817552 ] } },
{ "type": "Feature", "properties": { "类别": "小区", "名称": "金茂大厦", "经度": 118.026499, "纬度": 36.809117, "地址": "共青团西路138号", "类型": "商务住宅;楼宇;商务写字楼", "省": "山东省", "市": "淄博市", "区县": "张店区", "经度_wgs84": 118.025934, "纬度_wgs84": 36.804283, "一级分类": "居住" }, "geometry": { "type": "Point", "coordinates": [ 118.025934, 36.804283 ] } },
{ "type": "Feature", "properties": { "类别": "小区", "名称": "金润商务大厦", "经度": 118.043429, "纬度": 36.838377, "地址": "张桓路71号甲10号", "类型": "商务住宅;楼宇;商务写字楼", "省": "山东省", "市": "淄博市", "区县": "张店区", "经度_wgs84": 118.042785, "纬度_wgs84": 36.833506, "一级分类": "居住" }, "geometry": { "type": "Point", "coordinates": [ 118.042785, 36.833506 ] } },
{ "type": "Feature", "properties": { "类别": "小区", "名称": "时代大厦(共青团西路)", "经度": 118.031801, "纬度": 36.808498, "地址": "共青团西路120号", "类型": "商务住宅;楼宇;商务写字楼", "省": "山东省", "市": "淄博市", "区县": "张店区", "经度_wgs84": 118.031219, "纬度_wgs84": 36.803652, "一级分类": "居住" }, "geometry": { "type": "Point", "coordinates": [ 118.031219, 36.803652 ] } },
{ "type": "Feature", "properties": { "类别": "小区", "名称": "乾盛大厦", "经度": 118.033294, "纬度": 36.811248, "地址": "北西六路20号甲4号", "类型": "商务住宅;楼宇;商务写字楼", "省": "山东省", "市": "淄博市", "区县": "张店区", "经度_wgs84": 118.032705, "纬度_wgs84": 36.806399, "一级分类": "居住" }, "geometry": { "type": "Point", "coordinates": [ 118.032705, 36.806399 ] } },
{ "type": "Feature", "properties": { "类别": "小区", "名称": "首丰大厦", "经度": 118.025473, "纬度": 36.786055, "地址": "昌国快速路出口与世纪路交叉口东120米", "类型": "商务住宅;楼宇;商务写字楼", "省": "山东省", "市": "淄博市", "区县": "张店区", "经度_wgs84": 118.024932, "纬度_wgs84": 36.781224, "一级分类": "居住" }, "geometry": { "type": "Point", "coordinates": [ 118.024932, 36.781224 ] } },
{ "type": "Feature", "properties": { "类别": "小区", "名称": "蓝钻国际", "经度": 118.035332, "纬度": 36.807576, "地址": "共青团西路119号", "类型": "商务住宅;楼宇;商务写字楼", "省": "山东省", "市": "淄博市", "区县": "张店区", "经度_wgs84": 118.03474, "纬度_wgs84": 36.802722, "一级分类": "居住" }, "geometry": { "type": "Point", "coordinates": [ 118.03474, 36.802722 ] } },
{ "type": "Feature", "properties": { "类别": "小区", "名称": "金丰大厦(太平路北二巷)", "经度": 118.034006, "纬度": 36.801815, "地址": "新村西路115号甲10号", "类型": "商务住宅;楼宇;商务写字楼", "省": "山东省", "市": "淄博市", "区县": "张店区", "经度_wgs84": 118.033423, "纬度_wgs84": 36.796964, "一级分类": "居住" }, "geometry": { "type": "Point", "coordinates": [ 118.033423, 36.796964 ] } },
{ "type": "Feature", "properties": { "类别": "小区", "名称": "利民大厦", "经度": 118.043316, "纬度": 36.81379, "地址": "人民西路29号甲2号", "类型": "商务住宅;楼宇;商务写字楼", "省": "山东省", "市": "淄博市", "区县": "张店区", "经度_wgs84": 118.042694, "纬度_wgs84": 36.80892, "一级分类": "居住" }, "geometry": { "type": "Point", "coordinates": [ 118.042694, 36.80892 ] } },
{ "type": "Feature", "properties": { "类别": "小区", "名称": "尚宜仕大厦", "经度": 118.038287, "纬度": 36.796436, "地址": "和平路与和平四路交叉口西南40米", "类型": "商务住宅;楼宇;商务写字楼", "省": "山东省", "市": "淄博市", "区县": "张店区", "经度_wgs84": 118.037695, "纬度_wgs84": 36.791577, "一级分类": "居住" }, "geometry": { "type": "Point", "coordinates": [ 118.037695, 36.791577 ] } },
{ "type": "Feature", "properties": { "类别": "小区", "名称": "金达大厦", "经度": 118.058149, "纬度": 36.842996, "地址": "万杰路与柳泉路交叉口西南150米", "类型": "商务住宅;楼宇;商务写字楼", "省": "山东省", "市": "淄博市", "区县": "张店区", "经度_wgs84": 118.057464, "纬度_wgs84": 36.838102, "一级分类": "居住" }, "geometry": { "type": "Point", "coordinates": [ 118.057464, 36.838102 ] } },
{ "type": "Feature", "properties": { "类别": "小区", "名称": "中房大厦(华光路)", "经度": 118.051455, "纬度": 36.821149, "地址": "华光路58号", "类型": "商务住宅;楼宇;商务写字楼", "省": "山东省", "市": "淄博市", "区县": "张店区", "经度_wgs84": 118.050805, "纬度_wgs84": 36.816265, "一级分类": "居住" }, "geometry": { "type": "Point", "coordinates": [ 118.050805, 36.816265 ] } },
{ "type": "Feature", "properties": { "类别": "小区", "名称": "晨报大厦", "经度": 118.058794, "纬度": 36.83791, "地址": "四宝山街道柳泉路286号鲁中大楼", "类型": "商务住宅;楼宇;商务写字楼", "省": "山东省", "市": "淄博市", "区县": "张店区", "经度_wgs84": 118.058112, "纬度_wgs84": 36.833015, "一级分类": "居住" }, "geometry": { "type": "Point", "coordinates": [ 118.058112, 36.833015 ] } },
{ "type": "Feature", "properties": { "类别": "小区", "名称": "荣宝斋大厦", "经度": 118.047358, "纬度": 36.807652, "地址": "共青团路", "类型": "商务住宅;楼宇;商务写字楼", "省": "山东省", "市": "淄博市", "区县": "张店区", "经度_wgs84": 118.04673, "纬度_wgs84": 36.802775, "一级分类": "居住" }, "geometry": { "type": "Point", "coordinates": [ 118.04673, 36.802775 ] } },
{ "type": "Feature", "properties": { "类别": "小区", "名称": "世纪商务中心(联通路)", "经度": 118.056115, "纬度": 36.829425, "地址": "柳泉路246号", "类型": "商务住宅;楼宇;商务写字楼", "省": "山东省", "市": "淄博市", "区县": "张店区", "经度_wgs84": 118.055446, "纬度_wgs84": 36.824534, "一级分类": "居住" }, "geometry": { "type": "Point", "coordinates": [ 118.055446, 36.824534 ] } },
{ "type": "Feature", "properties": { "类别": "小区", "名称": "傅山大厦", "经度": 118.059772, "纬度": 36.83707, "地址": "中润大道113号", "类型": "商务住宅;楼宇;商务写字楼", "省": "山东省", "市": "淄博市", "区县": "张店区", "经度_wgs84": 118.059088, "纬度_wgs84": 36.832174, "一级分类": "居住" }, "geometry": { "type": "Point", "coordinates": [ 118.059088, 36.832174 ] } },
{ "type": "Feature", "properties": { "类别": "小区", "名称": "太平洋保险大厦", "经度": 118.056305, "纬度": 36.828276, "地址": "联通路22号", "类型": "商务住宅;楼宇;商务写字楼", "省": "山东省", "市": "淄博市", "区县": "张店区", "经度_wgs84": 118.055637, "纬度_wgs84": 36.823385, "一级分类": "居住" }, "geometry": { "type": "Point", "coordinates": [ 118.055637, 36.823385 ] } },
{ "type": "Feature", "properties": { "类别": "小区", "名称": "中银大厦(柳泉路西二巷)", "经度": 118.051459, "纬度": 36.815699, "地址": "柳泉路49号", "类型": "商务住宅;楼宇;商务写字楼", "省": "山东省", "市": "淄博市", "区县": "张店区", "经度_wgs84": 118.050813, "纬度_wgs84": 36.810815, "一级分类": "居住" }, "geometry": { "type": "Point", "coordinates": [ 118.050813, 36.810815 ] } },
{ "type": "Feature", "properties": { "类别": "小区", "名称": "潘成国际大厦", "经度": 118.055545, "纬度": 36.825842, "地址": "柳泉路与迎春街交叉口东北100米", "类型": "商务住宅;楼宇;商务写字楼", "省": "山东省", "市": "淄博市", "区县": "张店区", "经度_wgs84": 118.054881, "纬度_wgs84": 36.820952, "一级分类": "居住" }, "geometry": { "type": "Point", "coordinates": [ 118.054881, 36.820952 ] } },
{ "type": "Feature", "properties": { "类别": "小区", "名称": "广电大厦", "经度": 118.054754, "纬度": 36.821111, "地址": "华光路52号", "类型": "商务住宅;楼宇;商务写字楼", "省": "山东省", "市": "淄博市", "区县": "张店区", "经度_wgs84": 118.054096, "纬度_wgs84": 36.816222, "一级分类": "居住" }, "geometry": { "type": "Point", "coordinates": [ 118.054096, 36.816222 ] } },
{ "type": "Feature", "properties": { "类别": "小区", "名称": "园林大厦(共青团西路)", "经度": 118.049061, "纬度": 36.806459, "地址": "共青团西路71号", "类型": "商务住宅;楼宇;商务写字楼", "省": "山东省", "市": "淄博市", "区县": "张店区", "经度_wgs84": 118.04843, "纬度_wgs84": 36.801579, "一级分类": "居住" }, "geometry": { "type": "Point", "coordinates": [ 118.04843, 36.801579 ] } },
{ "type": "Feature", "properties": { "类别": "小区", "名称": "金宝岛大厦", "经度": 118.048109, "纬度": 36.803527, "地址": "柳泉路37号", "类型": "商务住宅;楼宇;商务写字楼", "省": "山东省", "市": "淄博市", "区县": "张店区", "经度_wgs84": 118.047483, "纬度_wgs84": 36.798649, "一级分类": "居住" }, "geometry": { "type": "Point", "coordinates": [ 118.047483, 36.798649 ] } },
{ "type": "Feature", "properties": { "类别": "小区", "名称": "丰茂大厦", "经度": 118.051861, "纬度": 36.810881, "地址": "柳泉路162号", "类型": "商务住宅;楼宇;商务写字楼", "省": "山东省", "市": "淄博市", "区县": "张店区", "经度_wgs84": 118.051219, "纬度_wgs84": 36.805997, "一级分类": "居住" }, "geometry": { "type": "Point", "coordinates": [ 118.051219, 36.805997 ] } },
{ "type": "Feature", "properties": { "类别": "小区", "名称": "赢环商务大厦", "经度": 118.046225, "纬度": 36.795837, "地址": "和平路1号", "类型": "商务住宅;楼宇;商务写字楼", "省": "山东省", "市": "淄博市", "区县": "张店区", "经度_wgs84": 118.045611, "纬度_wgs84": 36.790963, "一级分类": "居住" }, "geometry": { "type": "Point", "coordinates": [ 118.045611, 36.790963 ] } },
{ "type": "Feature", "properties": { "类别": "小区", "名称": "丽阳大厦", "经度": 118.082176, "纬度": 36.881337, "地址": "晓月桥路与金晶大道交叉口西南", "类型": "商务住宅;楼宇;商务写字楼", "省": "山东省", "市": "淄博市", "区县": "张店区", "经度_wgs84": 118.081419, "纬度_wgs84": 36.876422, "一级分类": "居住" }, "geometry": { "type": "Point", "coordinates": [ 118.081419, 36.876422 ] } },
{ "type": "Feature", "properties": { "类别": "小区", "名称": "龙韵大厦", "经度": 118.050819, "纬度": 36.799475, "地址": "新村西路67号", "类型": "商务住宅;楼宇;商务写字楼", "省": "山东省", "市": "淄博市", "区县": "张店区", "经度_wgs84": 118.050189, "纬度_wgs84": 36.794593, "一级分类": "居住" }, "geometry": { "type": "Point", "coordinates": [ 118.050189, 36.794593 ] } },
{ "type": "Feature", "properties": { "类别": "小区", "名称": "颐和大厦", "经度": 118.068931, "纬度": 36.834735, "地址": "中润大道267号", "类型": "商务住宅;楼宇;商务写字楼", "省": "山东省", "市": "淄博市", "区县": "张店区", "经度_wgs84": 118.068232, "纬度_wgs84": 36.829829, "一级分类": "居住" }, "geometry": { "type": "Point", "coordinates": [ 118.068232, 36.829829 ] } },
{ "type": "Feature", "properties": { "类别": "小区", "名称": "尚品大厦", "经度": 118.066351, "纬度": 36.826314, "地址": "联通路潘成装饰材料城(联通路店)南侧约70米", "类型": "商务住宅;楼宇;商务写字楼", "省": "山东省", "市": "淄博市", "区县": "张店区", "经度_wgs84": 118.065664, "纬度_wgs84": 36.821411, "一级分类": "居住" }, "geometry": { "type": "Point", "coordinates": [ 118.065664, 36.821411 ] } },
{ "type": "Feature", "properties": { "类别": "小区", "名称": "云龙大厦", "经度": 118.064279, "纬度": 36.817884, "地址": "金晶大道207号", "类型": "商务住宅;楼宇;商务写字楼", "省": "山东省", "市": "淄博市", "区县": "张店区", "经度_wgs84": 118.063603, "纬度_wgs84": 36.812983, "一级分类": "居住" }, "geometry": { "type": "Point", "coordinates": [ 118.063603, 36.812983 ] } },
{ "type": "Feature", "properties": { "类别": "小区", "名称": "中联大厦", "经度": 118.064108, "纬度": 36.81703, "地址": "金晶大道205号甲10号", "类型": "商务住宅;楼宇;商务写字楼", "省": "山东省", "市": "淄博市", "区县": "张店区", "经度_wgs84": 118.063433, "纬度_wgs84": 36.812129, "一级分类": "居住" }, "geometry": { "type": "Point", "coordinates": [ 118.063433, 36.812129 ] } },
{ "type": "Feature", "properties": { "类别": "小区", "名称": "新达商务楼", "经度": 118.064119, "纬度": 36.81398, "地址": "金晶大道162号", "类型": "商务住宅;楼宇;商务写字楼", "省": "山东省", "市": "淄博市", "区县": "张店区", "经度_wgs84": 118.063447, "纬度_wgs84": 36.809079, "一级分类": "居住" }, "geometry": { "type": "Point", "coordinates": [ 118.063447, 36.809079 ] } },
{ "type": "Feature", "properties": { "类别": "小区", "名称": "金昌大厦", "经度": 118.061527, "纬度": 36.806303, "地址": "金晶大道106号甲6号", "类型": "商务住宅;楼宇;商务写字楼", "省": "山东省", "市": "淄博市", "区县": "张店区", "经度_wgs84": 118.060867, "纬度_wgs84": 36.801405, "一级分类": "居住" }, "geometry": { "type": "Point", "coordinates": [ 118.060867, 36.801405 ] } },
{ "type": "Feature", "properties": { "类别": "小区", "名称": "新华制药人才公寓", "经度": 118.060993, "纬度": 36.792644, "地址": "洪沟路15号", "类型": "商务住宅;楼宇;商务写字楼", "省": "山东省", "市": "淄博市", "区县": "张店区", "经度_wgs84": 118.060346, "纬度_wgs84": 36.787748, "一级分类": "居住" }, "geometry": { "type": "Point", "coordinates": [ 118.060346, 36.787748 ] } },
{ "type": "Feature", "properties": { "类别": "小区", "名称": "淄博煤气大厦", "经度": 118.069514, "纬度": 36.809434, "地址": "人民东路12号", "类型": "商务住宅;楼宇;商务写字楼", "省": "山东省", "市": "淄博市", "区县": "张店区", "经度_wgs84": 118.068837, "纬度_wgs84": 36.804528, "一级分类": "居住" }, "geometry": { "type": "Point", "coordinates": [ 118.068837, 36.804528 ] } },
{ "type": "Feature", "properties": { "类别": "小区", "名称": "盛世大厦", "经度": 118.08282, "纬度": 36.804015, "地址": "盛东中街与宝沣路交叉口西南40米", "类型": "商务住宅;楼宇;商务写字楼", "省": "山东省", "市": "淄博市", "区县": "张店区", "经度_wgs84": 118.082131, "纬度_wgs84": 36.799102, "一级分类": "居住" }, "geometry": { "type": "Point", "coordinates": [ 118.082131, 36.799102 ] } },
{ "type": "Feature", "properties": { "类别": "小区", "名称": "齐润大厦", "经度": 117.993862, "纬度": 36.824533, "地址": "华光路306号", "类型": "商务住宅;楼宇;商务写字楼", "省": "山东省", "市": "淄博市", "区县": "张店区", "经度_wgs84": 117.993404, "纬度_wgs84": 36.819781, "一级分类": "居住" }, "geometry": { "type": "Point", "coordinates": [ 117.993404, 36.819781 ] } },
{ "type": "Feature", "properties": { "类别": "小区", "名称": "世纪阳光商务中心", "经度": 118.033281, "纬度": 36.829184, "地址": "联通路84-4号附近", "类型": "商务住宅;楼宇;商务写字楼", "省": "山东省", "市": "淄博市", "区县": "张店区", "经度_wgs84": 118.032676, "纬度_wgs84": 36.824334, "一级分类": "居住" }, "geometry": { "type": "Point", "coordinates": [ 118.032676, 36.824334 ] } },
{ "type": "Feature", "properties": { "类别": "小区", "名称": "天府国际", "经度": 118.028809, "纬度": 36.803148, "地址": "新村西路186号", "类型": "商务住宅;楼宇;商务写字楼|商务住宅;住宅区;住宅区", "省": "山东省", "市": "淄博市", "区县": "张店区", "经度_wgs84": 118.028242, "纬度_wgs84": 36.798309, "一级分类": "居住" }, "geometry": { "type": "Point", "coordinates": [ 118.028242, 36.798309 ] } },
{ "type": "Feature", "properties": { "类别": "小区", "名称": "国华大厦", "经度": 118.029642, "纬度": 36.789548, "地址": "王舍路237号", "类型": "商务住宅;楼宇;商务写字楼", "省": "山东省", "市": "淄博市", "区县": "张店区", "经度_wgs84": 118.029084, "纬度_wgs84": 36.784707, "一级分类": "居住" }, "geometry": { "type": "Point", "coordinates": [ 118.029084, 36.784707 ] } },
{ "type": "Feature", "properties": { "类别": "小区", "名称": "金成大厦", "经度": 118.036496, "纬度": 36.785113, "地址": "昌国路辅路与南西五路交叉口东320米", "类型": "商务住宅;楼宇;商务写字楼", "省": "山东省", "市": "淄博市", "区县": "张店区", "经度_wgs84": 118.035919, "纬度_wgs84": 36.780258, "一级分类": "居住" }, "geometry": { "type": "Point", "coordinates": [ 118.035919, 36.780258 ] } },
{ "type": "Feature", "properties": { "类别": "小区", "名称": "汇银国际", "经度": 118.060076, "纬度": 36.840719, "地址": "英才路18号", "类型": "商务住宅;楼宇;商务写字楼", "省": "山东省", "市": "淄博市", "区县": "张店区", "经度_wgs84": 118.059388, "纬度_wgs84": 36.835822, "一级分类": "居住" }, "geometry": { "type": "Point", "coordinates": [ 118.059388, 36.835822 ] } },
{ "type": "Feature", "properties": { "类别": "小区", "名称": "中房大厦Ⅱ期", "经度": 118.052553, "纬度": 36.821075, "地址": "华光路58号", "类型": "商务住宅;楼宇;商务写字楼", "省": "山东省", "市": "淄博市", "区县": "张店区", "经度_wgs84": 118.0519, "纬度_wgs84": 36.816189, "一级分类": "居住" }, "geometry": { "type": "Point", "coordinates": [ 118.0519, 36.816189 ] } },
{ "type": "Feature", "properties": { "类别": "小区", "名称": "华瑞洲际中心", "经度": 118.055653, "纬度": 36.826423, "地址": "科苑街道柳泉路238号", "类型": "商务住宅;楼宇;商务写字楼", "省": "山东省", "市": "淄博市", "区县": "张店区", "经度_wgs84": 118.054988, "纬度_wgs84": 36.821533, "一级分类": "居住" }, "geometry": { "type": "Point", "coordinates": [ 118.054988, 36.821533 ] } },
{ "type": "Feature", "properties": { "类别": "小区", "名称": "中信大厦", "经度": 118.05493, "纬度": 36.8236, "地址": "柳泉路230号", "类型": "商务住宅;楼宇;商务写字楼", "省": "山东省", "市": "淄博市", "区县": "张店区", "经度_wgs84": 118.054269, "纬度_wgs84": 36.818711, "一级分类": "居住" }, "geometry": { "type": "Point", "coordinates": [ 118.054269, 36.818711 ] } },
{ "type": "Feature", "properties": { "类别": "小区", "名称": "恒泰商城", "经度": 118.047765, "纬度": 36.821162, "地址": "华光路68号", "类型": "商务住宅;楼宇;商务写字楼", "省": "山东省", "市": "淄博市", "区县": "张店区", "经度_wgs84": 118.047124, "纬度_wgs84": 36.816284, "一级分类": "居住" }, "geometry": { "type": "Point", "coordinates": [ 118.047124, 36.816284 ] } },
{ "type": "Feature", "properties": { "类别": "小区", "名称": "汇金大厦B座", "经度": 118.061634, "纬度": 36.848267, "地址": "鲁泰大道99号汇金大厦", "类型": "商务住宅;楼宇;商务写字楼", "省": "山东省", "市": "淄博市", "区县": "张店区", "经度_wgs84": 118.060937, "纬度_wgs84": 36.843368, "一级分类": "居住" }, "geometry": { "type": "Point", "coordinates": [ 118.060937, 36.843368 ] } },
{ "type": "Feature", "properties": { "类别": "小区", "名称": "先进陶瓷创新园A座", "经度": 118.061164, "纬度": 36.856261, "地址": "柳泉路125号先进陶瓷产业创新园", "类型": "商务住宅;楼宇;商务写字楼", "省": "山东省", "市": "淄博市", "区县": "张店区", "经度_wgs84": 118.06046, "纬度_wgs84": 36.851362, "一级分类": "居住" }, "geometry": { "type": "Point", "coordinates": [ 118.06046, 36.851362 ] } },
{ "type": "Feature", "properties": { "类别": "小区", "名称": "香榭大厦B座", "经度": 118.032559, "纬度": 36.852125, "地址": "西六路与兰雁大道交叉口西南140米", "类型": "商务住宅;楼宇;商务写字楼", "省": "山东省", "市": "淄博市", "区县": "张店区", "经度_wgs84": 118.031936, "纬度_wgs84": 36.847276, "一级分类": "居住" }, "geometry": { "type": "Point", "coordinates": [ 118.031936, 36.847276 ] } },
{ "type": "Feature", "properties": { "类别": "小区", "名称": "天府国际A座", "经度": 118.0292, "纬度": 36.803112, "地址": "新村西路186号甲2附近", "类型": "商务住宅;楼宇;商务写字楼", "省": "山东省", "市": "淄博市", "区县": "张店区", "经度_wgs84": 118.028631, "纬度_wgs84": 36.798272, "一级分类": "居住" }, "geometry": { "type": "Point", "coordinates": [ 118.028631, 36.798272 ] } },
{ "type": "Feature", "properties": { "类别": "小区", "名称": "高科技创业园A座", "经度": 118.053975, "纬度": 36.839124, "地址": "政通路135号高科技创业园", "类型": "商务住宅;楼宇;商务写字楼", "省": "山东省", "市": "淄博市", "区县": "张店区", "经度_wgs84": 118.053303, "纬度_wgs84": 36.834236, "一级分类": "居住" }, "geometry": { "type": "Point", "coordinates": [ 118.053303, 36.834236 ] } },
{ "type": "Feature", "properties": { "类别": "小区", "名称": "金茂大厦A座", "经度": 118.027423, "纬度": 36.808909, "地址": "共青团西路138号金茂大厦", "类型": "商务住宅;楼宇;商务写字楼", "省": "山东省", "市": "淄博市", "区县": "张店区", "经度_wgs84": 118.026855, "纬度_wgs84": 36.804073, "一级分类": "居住" }, "geometry": { "type": "Point", "coordinates": [ 118.026855, 36.804073 ] } },
{ "type": "Feature", "properties": { "类别": "小区", "名称": "玉龙大厦A座", "经度": 118.023571, "纬度": 36.822619, "地址": "东一街27号", "类型": "商务住宅;楼宇;商务写字楼", "省": "山东省", "市": "淄博市", "区县": "张店区", "经度_wgs84": 118.023005, "纬度_wgs84": 36.817791, "一级分类": "居住" }, "geometry": { "type": "Point", "coordinates": [ 118.023005, 36.817791 ] } },
{ "type": "Feature", "properties": { "类别": "小区", "名称": "银泰时代广场D座", "经度": 118.036546, "纬度": 36.849846, "地址": "石桥大道212号甲12号银泰时代广场", "类型": "商务住宅;楼宇;商务写字楼", "省": "山东省", "市": "淄博市", "区县": "张店区", "经度_wgs84": 118.035912, "纬度_wgs84": 36.844989, "一级分类": "居住" }, "geometry": { "type": "Point", "coordinates": [ 118.035912, 36.844989 ] } },
{ "type": "Feature", "properties": { "类别": "小区", "名称": "保税大楼", "经度": 118.125773, "纬度": 36.87906, "地址": "保税物流园", "类型": "商务住宅;楼宇;商务写字楼", "省": "山东省", "市": "淄博市", "区县": "张店区", "经度_wgs84": 118.125029, "纬度_wgs84": 36.874173, "一级分类": "居住" }, "geometry": { "type": "Point", "coordinates": [ 118.125029, 36.874173 ] } },
{ "type": "Feature", "properties": { "类别": "小区", "名称": "银泰时代广场C座", "经度": 118.035851, "纬度": 36.849919, "地址": "鲁泰大道7号", "类型": "商务住宅;楼宇;商务写字楼", "省": "山东省", "市": "淄博市", "区县": "张店区", "经度_wgs84": 118.035219, "纬度_wgs84": 36.845063, "一级分类": "居住" }, "geometry": { "type": "Point", "coordinates": [ 118.035219, 36.845063 ] } },
{ "type": "Feature", "properties": { "类别": "小区", "名称": "万通中心", "经度": 118.025748, "纬度": 36.805875, "地址": "世纪路和商场西路路口工地", "类型": "商务住宅;楼宇;商务写字楼", "省": "山东省", "市": "淄博市", "区县": "张店区", "经度_wgs84": 118.025189, "纬度_wgs84": 36.801043, "一级分类": "居住" }, "geometry": { "type": "Point", "coordinates": [ 118.025189, 36.801043 ] } },
{ "type": "Feature", "properties": { "类别": "小区", "名称": "颐和大厦B座", "经度": 118.068706, "纬度": 36.834268, "地址": "北郊镇中润大道2366号", "类型": "商务住宅;楼宇;商务写字楼", "省": "山东省", "市": "淄博市", "区县": "张店区", "经度_wgs84": 118.068008, "纬度_wgs84": 36.829362, "一级分类": "居住" }, "geometry": { "type": "Point", "coordinates": [ 118.068008, 36.829362 ] } },
{ "type": "Feature", "properties": { "类别": "小区", "名称": "财富广场A座", "经度": 118.061278, "纬度": 36.804019, "地址": "金晶大道96-01财富广场", "类型": "商务住宅;楼宇;商务写字楼", "省": "山东省", "市": "淄博市", "区县": "张店区", "经度_wgs84": 118.06062, "纬度_wgs84": 36.799122, "一级分类": "居住" }, "geometry": { "type": "Point", "coordinates": [ 118.06062, 36.799122 ] } },
{ "type": "Feature", "properties": { "类别": "小区", "名称": "金桥商务中心", "经度": 118.073379, "纬度": 36.817486, "地址": "华光路10号甲16号", "类型": "商务住宅;楼宇;商务写字楼", "省": "山东省", "市": "淄博市", "区县": "张店区", "经度_wgs84": 118.072689, "纬度_wgs84": 36.812577, "一级分类": "居住" }, "geometry": { "type": "Point", "coordinates": [ 118.072689, 36.812577 ] } },
{ "type": "Feature", "properties": { "类别": "小区", "名称": "晶城大厦", "经度": 118.007488, "纬度": 36.816059, "地址": "人民西路176号", "类型": "商务住宅;楼宇;商务写字楼", "省": "山东省", "市": "淄博市", "区县": "张店区", "经度_wgs84": 118.006986, "纬度_wgs84": 36.811272, "一级分类": "居住" }, "geometry": { "type": "Point", "coordinates": [ 118.006986, 36.811272 ] } },
{ "type": "Feature", "properties": { "类别": "小区", "名称": "光彩大厦(瑞安路)", "经度": 118.021198, "纬度": 36.814026, "地址": "人民西路165号", "类型": "商务住宅;楼宇;商务写字楼", "省": "山东省", "市": "淄博市", "区县": "张店区", "经度_wgs84": 118.020647, "纬度_wgs84": 36.809204, "一级分类": "居住" }, "geometry": { "type": "Point", "coordinates": [ 118.020647, 36.809204 ] } },
{ "type": "Feature", "properties": { "类别": "小区", "名称": "证券大厦", "经度": 118.032898, "纬度": 36.814894, "地址": "人民西路66号", "类型": "商务住宅;楼宇;商务写字楼", "省": "山东省", "市": "淄博市", "区县": "张店区", "经度_wgs84": 118.032307, "纬度_wgs84": 36.810045, "一级分类": "居住" }, "geometry": { "type": "Point", "coordinates": [ 118.032307, 36.810045 ] } },
{ "type": "Feature", "properties": { "类别": "小区", "名称": "天都商务中心", "经度": 118.024116, "纬度": 36.809264, "地址": "共青团西路146号", "类型": "商务住宅;楼宇;商务写字楼", "省": "山东省", "市": "淄博市", "区县": "张店区", "经度_wgs84": 118.023559, "纬度_wgs84": 36.804436, "一级分类": "居住" }, "geometry": { "type": "Point", "coordinates": [ 118.023559, 36.804436 ] } },
{ "type": "Feature", "properties": { "类别": "小区", "名称": "赋若望大厦", "经度": 118.060464, "纬度": 36.789416, "地址": "杏园东路10号", "类型": "商务住宅;楼宇;商务写字楼", "省": "山东省", "市": "淄博市", "区县": "张店区", "经度_wgs84": 118.059821, "纬度_wgs84": 36.78452, "一级分类": "居住" }, "geometry": { "type": "Point", "coordinates": [ 118.059821, 36.78452 ] } },
{ "type": "Feature", "properties": { "类别": "小区", "名称": "银领国际商务中心", "经度": 118.050764, "纬度": 36.820229, "地址": "银领国际居住社区", "类型": "商务住宅;楼宇;商务写字楼", "省": "山东省", "市": "淄博市", "区县": "张店区", "经度_wgs84": 118.050116, "纬度_wgs84": 36.815346, "一级分类": "居住" }, "geometry": { "type": "Point", "coordinates": [ 118.050116, 36.815346 ] } },
{ "type": "Feature", "properties": { "类别": "小区", "名称": "远景大厦", "经度": 118.045041, "纬度": 36.828788, "地址": "联通路60号甲6号", "类型": "商务住宅;楼宇;商务写字楼", "省": "山东省", "市": "淄博市", "区县": "张店区", "经度_wgs84": 118.044401, "纬度_wgs84": 36.823915, "一级分类": "居住" }, "geometry": { "type": "Point", "coordinates": [ 118.044401, 36.823915 ] } },
{ "type": "Feature", "properties": { "类别": "小区", "名称": "天鸿商务楼", "经度": 118.062762, "纬度": 36.79992, "地址": "东一路37号", "类型": "商务住宅;楼宇;商务写字楼", "省": "山东省", "市": "淄博市", "区县": "张店区", "经度_wgs84": 118.062105, "纬度_wgs84": 36.795021, "一级分类": "居住" }, "geometry": { "type": "Point", "coordinates": [ 118.062105, 36.795021 ] } },
{ "type": "Feature", "properties": { "类别": "小区", "名称": "淄博石油大厦", "经度": 118.019281, "纬度": 36.786858, "地址": "昌国西路68号", "类型": "商务住宅;楼宇;商务写字楼", "省": "山东省", "市": "淄博市", "区县": "张店区", "经度_wgs84": 118.018761, "纬度_wgs84": 36.782042, "一级分类": "居住" }, "geometry": { "type": "Point", "coordinates": [ 118.018761, 36.782042 ] } },
{ "type": "Feature", "properties": { "类别": "小区", "名称": "世星大厦", "经度": 118.040527, "纬度": 36.807648, "地址": "共青团西路107号甲11号", "类型": "商务住宅;楼宇;商务写字楼", "省": "山东省", "市": "淄博市", "区县": "张店区", "经度_wgs84": 118.039919, "纬度_wgs84": 36.802784, "一级分类": "居住" }, "geometry": { "type": "Point", "coordinates": [ 118.039919, 36.802784 ] } },
{ "type": "Feature", "properties": { "类别": "小区", "名称": "圣亚大厦", "经度": 118.054848, "纬度": 36.824464, "地址": "柳泉路232号", "类型": "商务住宅;楼宇;商务写字楼", "省": "山东省", "市": "淄博市", "区县": "张店区", "经度_wgs84": 118.054187, "纬度_wgs84": 36.819575, "一级分类": "居住" }, "geometry": { "type": "Point", "coordinates": [ 118.054187, 36.819575 ] } },
{ "type": "Feature", "properties": { "类别": "小区", "名称": "新时代商务中心", "经度": 118.06099, "纬度": 36.839277, "地址": "政通路145号", "类型": "商务住宅;楼宇;商务写字楼", "省": "山东省", "市": "淄博市", "区县": "张店区", "经度_wgs84": 118.060302, "纬度_wgs84": 36.834379, "一级分类": "居住" }, "geometry": { "type": "Point", "coordinates": [ 118.060302, 36.834379 ] } },
{ "type": "Feature", "properties": { "类别": "小区", "名称": "珑悦大厦", "经度": 118.062132, "纬度": 36.836997, "地址": "中润大道与魏家路西一巷交叉口东北80米", "类型": "商务住宅;楼宇;商务写字楼", "省": "山东省", "市": "淄博市", "区县": "张店区", "经度_wgs84": 118.061444, "纬度_wgs84": 36.832098, "一级分类": "居住" }, "geometry": { "type": "Point", "coordinates": [ 118.061444, 36.832098 ] } },
{ "type": "Feature", "properties": { "类别": "小区", "名称": "齐创大厦", "经度": 117.993185, "纬度": 36.807164, "地址": "新村西路237号", "类型": "商务住宅;楼宇;商务写字楼", "省": "山东省", "市": "淄博市", "区县": "张店区", "经度_wgs84": 117.992745, "纬度_wgs84": 36.802414, "一级分类": "居住" }, "geometry": { "type": "Point", "coordinates": [ 117.992745, 36.802414 ] } },
{ "type": "Feature", "properties": { "类别": "小区", "名称": "中欧国际大厦A座", "经度": 117.993272, "纬度": 36.820472, "地址": "金街与银街交叉口东60米", "类型": "商务住宅;楼宇;商务写字楼", "省": "山东省", "市": "淄博市", "区县": "张店区", "经度_wgs84": 117.99282, "纬度_wgs84": 36.815722, "一级分类": "居住" }, "geometry": { "type": "Point", "coordinates": [ 117.99282, 36.815722 ] } },
{ "type": "Feature", "properties": { "类别": "小区", "名称": "齐鲁颐仁城G1座", "经度": 118.005167, "纬度": 36.816238, "地址": "石村南巷1号石村居民小区齐鲁颐仁城", "类型": "商务住宅;楼宇;商务写字楼", "省": "山东省", "市": "淄博市", "区县": "张店区", "经度_wgs84": 118.004674, "纬度_wgs84": 36.811457, "一级分类": "居住" }, "geometry": { "type": "Point", "coordinates": [ 118.004674, 36.811457 ] } },
{ "type": "Feature", "properties": { "类别": "小区", "名称": "汇美领域B座", "经度": 117.990576, "纬度": 36.818555, "地址": "汇美领域", "类型": "商务住宅;楼宇;商务写字楼", "省": "山东省", "市": "淄博市", "区县": "张店区", "经度_wgs84": 117.990135, "纬度_wgs84": 36.813812, "一级分类": "居住" }, "geometry": { "type": "Point", "coordinates": [ 117.990135, 36.813812 ] } },
{ "type": "Feature", "properties": { "类别": "小区", "名称": "美力大厦", "经度": 118.056965, "纬度": 36.864816, "地址": "山东美力置业有限公司", "类型": "商务住宅;楼宇;商务写字楼", "省": "山东省", "市": "淄博市", "区县": "张店区", "经度_wgs84": 118.056263, "纬度_wgs84": 36.859923, "一级分类": "居住" }, "geometry": { "type": "Point", "coordinates": [ 118.056263, 36.859923 ] } },
{ "type": "Feature", "properties": { "类别": "小区", "名称": "创业火炬广场E座", "经度": 118.056461, "纬度": 36.841013, "地址": "柳泉路109号创业火炬广场", "类型": "商务住宅;楼宇;商务写字楼", "省": "山东省", "市": "淄博市", "区县": "张店区", "经度_wgs84": 118.055781, "纬度_wgs84": 36.836121, "一级分类": "居住" }, "geometry": { "type": "Point", "coordinates": [ 118.055781, 36.836121 ] } },
{ "type": "Feature", "properties": { "类别": "小区", "名称": "煜丽大厦", "经度": 118.026287, "纬度": 36.76865, "地址": "南西七路东小徐世纪嘉苑", "类型": "商务住宅;楼宇;商务写字楼", "省": "山东省", "市": "淄博市", "区县": "张店区", "经度_wgs84": 118.025758, "纬度_wgs84": 36.763818, "一级分类": "居住" }, "geometry": { "type": "Point", "coordinates": [ 118.025758, 36.763818 ] } },
{ "type": "Feature", "properties": { "类别": "小区", "名称": "淄博市新材料交易中心大厦", "经度": 117.991027, "纬度": 36.818724, "地址": "新材料交易中心大厦(北京路)", "类型": "商务住宅;楼宇;商务写字楼", "省": "山东省", "市": "淄博市", "区县": "张店区", "经度_wgs84": 117.990585, "纬度_wgs84": 36.81398, "一级分类": "居住" }, "geometry": { "type": "Point", "coordinates": [ 117.990585, 36.81398 ] } },
{ "type": "Feature", "properties": { "类别": "小区", "名称": "国贸大厦C座", "经度": 118.055824, "纬度": 36.834068, "地址": "柳泉路105号B座附近", "类型": "商务住宅;楼宇;商务写字楼", "省": "山东省", "市": "淄博市", "区县": "张店区", "经度_wgs84": 118.055152, "纬度_wgs84": 36.829177, "一级分类": "居住" }, "geometry": { "type": "Point", "coordinates": [ 118.055152, 36.829177 ] } },
{ "type": "Feature", "properties": { "类别": "小区", "名称": "柳泉路51号A座写字楼", "经度": 118.051578, "纬度": 36.81641, "地址": "柳泉路51号", "类型": "商务住宅;楼宇;商务写字楼", "省": "山东省", "市": "淄博市", "区县": "张店区", "经度_wgs84": 118.050932, "纬度_wgs84": 36.811526, "一级分类": "居住" }, "geometry": { "type": "Point", "coordinates": [ 118.050932, 36.811526 ] } },
{ "type": "Feature", "properties": { "类别": "小区", "名称": "财富广场B座", "经度": 118.061359, "纬度": 36.804162, "地址": "金晶大道96-01财富广场", "类型": "商务住宅;楼宇;商务写字楼", "省": "山东省", "市": "淄博市", "区县": "张店区", "经度_wgs84": 118.060701, "纬度_wgs84": 36.799265, "一级分类": "居住" }, "geometry": { "type": "Point", "coordinates": [ 118.060701, 36.799265 ] } },
{ "type": "Feature", "properties": { "类别": "小区", "名称": "鲁信商务楼", "经度": 118.029197, "纬度": 36.802141, "地址": "新村西路133-2号", "类型": "商务住宅;楼宇;商务写字楼", "省": "山东省", "市": "淄博市", "区县": "张店区", "经度_wgs84": 118.028629, "纬度_wgs84": 36.797301, "一级分类": "居住" }, "geometry": { "type": "Point", "coordinates": [ 118.028629, 36.797301 ] } },
{ "type": "Feature", "properties": { "类别": "小区", "名称": "云龙国际", "经度": 118.06361, "纬度": 36.819147, "地址": "华光路28号", "类型": "商务住宅;楼宇;商务写字楼", "省": "山东省", "市": "淄博市", "区县": "张店区", "经度_wgs84": 118.062935, "纬度_wgs84": 36.814247, "一级分类": "居住" }, "geometry": { "type": "Point", "coordinates": [ 118.062935, 36.814247 ] } },
{ "type": "Feature", "properties": { "类别": "小区", "名称": "高科技创业园E座", "经度": 118.054035, "纬度": 36.8406, "地址": "政通路135号高科技创业园", "类型": "商务住宅;楼宇;商务写字楼", "省": "山东省", "市": "淄博市", "区县": "张店区", "经度_wgs84": 118.053361, "纬度_wgs84": 36.835712, "一级分类": "居住" }, "geometry": { "type": "Point", "coordinates": [ 118.053361, 36.835712 ] } },
{ "type": "Feature", "properties": { "类别": "小区", "名称": "高科技创业园D座", "经度": 118.053379, "纬度": 36.840618, "地址": "政通路135号高科技创业园", "类型": "商务住宅;楼宇;商务写字楼", "省": "山东省", "市": "淄博市", "区县": "张店区", "经度_wgs84": 118.052707, "纬度_wgs84": 36.835731, "一级分类": "居住" }, "geometry": { "type": "Point", "coordinates": [ 118.052707, 36.835731 ] } },
{ "type": "Feature", "properties": { "类别": "小区", "名称": "新华商城", "经度": 118.059689, "纬度": 36.794598, "地址": "新华街9号", "类型": "商务住宅;楼宇;商务写字楼", "省": "山东省", "市": "淄博市", "区县": "张店区", "经度_wgs84": 118.059043, "纬度_wgs84": 36.789703, "一级分类": "居住" }, "geometry": { "type": "Point", "coordinates": [ 118.059043, 36.789703 ] } },
{ "type": "Feature", "properties": { "类别": "小区", "名称": "金鼎商城", "经度": 118.046282, "纬度": 36.806968, "地址": "共青团西路南六巷1号", "类型": "商务住宅;楼宇;商务写字楼", "省": "山东省", "市": "淄博市", "区县": "张店区", "经度_wgs84": 118.045658, "纬度_wgs84": 36.802093, "一级分类": "居住" }, "geometry": { "type": "Point", "coordinates": [ 118.045658, 36.802093 ] } },
{ "type": "Feature", "properties": { "类别": "小区", "名称": "中国商务港", "经度": 118.043366, "纬度": 36.845814, "地址": "鲁泰大道50号甲2号", "类型": "商务住宅;楼宇;商务写字楼", "省": "山东省", "市": "淄博市", "区县": "张店区", "经度_wgs84": 118.042716, "纬度_wgs84": 36.840943, "一级分类": "居住" }, "geometry": { "type": "Point", "coordinates": [ 118.042716, 36.840943 ] } },
{ "type": "Feature", "properties": { "类别": "小区", "名称": "金丰商务楼", "经度": 118.054713, "纬度": 36.80485, "地址": "西二路175号", "类型": "商务住宅;楼宇;商务写字楼", "省": "山东省", "市": "淄博市", "区县": "张店区", "经度_wgs84": 118.054069, "纬度_wgs84": 36.799962, "一级分类": "居住" }, "geometry": { "type": "Point", "coordinates": [ 118.054069, 36.799962 ] } },
{ "type": "Feature", "properties": { "类别": "小区", "名称": "创展大厦(南西五路)", "经度": 118.037301, "纬度": 36.801492, "地址": "新村西路109号", "类型": "商务住宅;楼宇;商务写字楼", "省": "山东省", "市": "淄博市", "区县": "张店区", "经度_wgs84": 118.036708, "纬度_wgs84": 36.796634, "一级分类": "居住" }, "geometry": { "type": "Point", "coordinates": [ 118.036708, 36.796634 ] } },
{ "type": "Feature", "properties": { "类别": "小区", "名称": "世纪商务中心(人民西路)", "经度": 118.025903, "纬度": 36.813763, "地址": "世纪路110号", "类型": "商务住宅;楼宇;商务写字楼", "省": "山东省", "市": "淄博市", "区县": "张店区", "经度_wgs84": 118.025336, "纬度_wgs84": 36.80893, "一级分类": "居住" }, "geometry": { "type": "Point", "coordinates": [ 118.025336, 36.80893 ] } },
{ "type": "Feature", "properties": { "类别": "小区", "名称": "发展大厦(潘南西路)", "经度": 118.063826, "纬度": 36.816395, "地址": "金晶大道203号甲4号", "类型": "商务住宅;楼宇;商务写字楼", "省": "山东省", "市": "淄博市", "区县": "张店区", "经度_wgs84": 118.063153, "纬度_wgs84": 36.811495, "一级分类": "居住" }, "geometry": { "type": "Point", "coordinates": [ 118.063153, 36.811495 ] } },
{ "type": "Feature", "properties": { "类别": "小区", "名称": "明发世贸中心31号楼", "经度": 117.983375, "纬度": 36.822475, "地址": "心环西路与荣一路交叉口北180米", "类型": "商务住宅;楼宇;商务写字楼", "省": "山东省", "市": "淄博市", "区县": "张店区", "经度_wgs84": 117.982958, "纬度_wgs84": 36.81775, "一级分类": "居住" }, "geometry": { "type": "Point", "coordinates": [ 117.982958, 36.81775 ] } },
{ "type": "Feature", "properties": { "类别": "小区", "名称": "市能源集团大厦", "经度": 117.985425, "纬度": 36.805325, "地址": "横一路与新和街交叉口西北60米", "类型": "商务住宅;楼宇;商务写字楼", "省": "山东省", "市": "淄博市", "区县": "张店区", "经度_wgs84": 117.985015, "纬度_wgs84": 36.800595, "一级分类": "居住" }, "geometry": { "type": "Point", "coordinates": [ 117.985015, 36.800595 ] } },
{ "type": "Feature", "properties": { "类别": "小区", "名称": "中濠大厦", "经度": 117.999175, "纬度": 36.844275, "地址": "盛湖路与丰泰路交叉口西200米", "类型": "商务住宅;楼宇;商务写字楼", "省": "山东省", "市": "淄博市", "区县": "张店区", "经度_wgs84": 117.998679, "纬度_wgs84": 36.839509, "一级分类": "居住" }, "geometry": { "type": "Point", "coordinates": [ 117.998679, 36.839509 ] } },
{ "type": "Feature", "properties": { "类别": "小区", "名称": "医药创新中心A综合楼", "经度": 118.028125, "纬度": 36.848275, "地址": "医创园", "类型": "商务住宅;楼宇;商务写字楼", "省": "山东省", "市": "淄博市", "区县": "张店区", "经度_wgs84": 118.02752, "纬度_wgs84": 36.843436, "一级分类": "居住" }, "geometry": { "type": "Point", "coordinates": [ 118.02752, 36.843436 ] } },
{ "type": "Feature", "properties": { "类别": "小区", "名称": "山东通广电子股份有限公司C座", "经度": 117.993975, "纬度": 36.867475, "地址": "三赢路与北京路交叉口西360米", "类型": "商务住宅;楼宇;商务写字楼", "省": "山东省", "市": "淄博市", "区县": "张店区", "经度_wgs84": 117.993478, "纬度_wgs84": 36.862722, "一级分类": "居住" }, "geometry": { "type": "Point", "coordinates": [ 117.993478, 36.862722 ] } },
{ "type": "Feature", "properties": { "类别": "小区", "名称": "创业·火炬广场C座", "经度": 118.057273, "纬度": 36.841204, "地址": "柳泉路与英才路交叉口西120米", "类型": "商务住宅;楼宇;商务写字楼", "省": "山东省", "市": "淄博市", "区县": "张店区", "经度_wgs84": 118.056591, "纬度_wgs84": 36.836311, "一级分类": "居住" }, "geometry": { "type": "Point", "coordinates": [ 118.056591, 36.836311 ] } },
{ "type": "Feature", "properties": { "类别": "小区", "名称": "华光路93号裕祥综合楼", "经度": 118.042625, "纬度": 36.820725, "地址": "华光路与新世界商业街交叉口东南40米", "类型": "商务住宅;楼宇;商务写字楼", "省": "山东省", "市": "淄博市", "区县": "张店区", "经度_wgs84": 118.041999, "纬度_wgs84": 36.815856, "一级分类": "居住" }, "geometry": { "type": "Point", "coordinates": [ 118.041999, 36.815856 ] } },
{ "type": "Feature", "properties": { "类别": "小区", "名称": "黄金城商业F座", "经度": 118.006925, "纬度": 36.846825, "地址": "黄金城商业", "类型": "商务住宅;楼宇;商务写字楼", "省": "山东省", "市": "淄博市", "区县": "张店区", "经度_wgs84": 118.006398, "纬度_wgs84": 36.842038, "一级分类": "居住" }, "geometry": { "type": "Point", "coordinates": [ 118.006398, 36.842038 ] } },
{ "type": "Feature", "properties": { "类别": "小区", "名称": "汇文大厦", "经度": 117.970169, "纬度": 36.820686, "地址": "汇文路9号", "类型": "商务住宅;楼宇;商务写字楼", "省": "山东省", "市": "淄博市", "区县": "张店区", "经度_wgs84": 117.969799, "纬度_wgs84": 36.815993, "一级分类": "居住" }, "geometry": { "type": "Point", "coordinates": [ 117.969799, 36.815993 ] } },
{ "type": "Feature", "properties": { "类别": "小区", "名称": "侨丰国际", "经度": 118.05527, "纬度": 36.845551, "地址": "鲁泰大道与天鸿路路口", "类型": "商务住宅;楼宇;商务写字楼", "省": "山东省", "市": "淄博市", "区县": "张店区", "经度_wgs84": 118.054589, "纬度_wgs84": 36.840661, "一级分类": "居住" }, "geometry": { "type": "Point", "coordinates": [ 118.054589, 36.840661 ] } },
{ "type": "Feature", "properties": { "类别": "小区", "名称": "环齐大厦B座", "经度": 118.022726, "纬度": 36.802696, "地址": "新村西路与世纪路交叉口西180米", "类型": "商务住宅;楼宇;商务写字楼", "省": "山东省", "市": "淄博市", "区县": "张店区", "经度_wgs84": 118.02218, "纬度_wgs84": 36.797871, "一级分类": "居住" }, "geometry": { "type": "Point", "coordinates": [ 118.02218, 36.797871 ] } },
{ "type": "Feature", "properties": { "类别": "小区", "名称": "齐赛大厦(齐赛三期)齐赛3期B座", "经度": 118.032164, "纬度": 36.809828, "地址": "北西六路5号甲5号山东齐赛创意动漫科技大厦", "类型": "商务住宅;楼宇;商务写字楼", "省": "山东省", "市": "淄博市", "区县": "张店区", "经度_wgs84": 118.03158, "纬度_wgs84": 36.804981, "一级分类": "居住" }, "geometry": { "type": "Point", "coordinates": [ 118.03158, 36.804981 ] } },
{ "type": "Feature", "properties": { "类别": "小区", "名称": "邮银大厦", "经度": 118.040512, "纬度": 36.821497, "地址": "华光路88号", "类型": "商务住宅;楼宇;商务写字楼", "省": "山东省", "市": "淄博市", "区县": "张店区", "经度_wgs84": 118.039891, "纬度_wgs84": 36.816632, "一级分类": "居住" }, "geometry": { "type": "Point", "coordinates": [ 118.039891, 36.816632 ] } },
{ "type": "Feature", "properties": { "类别": "小区", "名称": "忆江南大厦", "经度": 118.046417, "纬度": 36.796707, "地址": "柳泉路17号", "类型": "商务住宅;楼宇;商务写字楼", "省": "山东省", "市": "淄博市", "区县": "张店区", "经度_wgs84": 118.045801, "纬度_wgs84": 36.791832, "一级分类": "居住" }, "geometry": { "type": "Point", "coordinates": [ 118.045801, 36.791832 ] } },
{ "type": "Feature", "properties": { "类别": "小区", "名称": "风景华庭商务中心", "经度": 118.04985, "纬度": 36.821045, "地址": "科苑街道华光路62号风景华庭商务中心", "类型": "商务住宅;楼宇;商务写字楼", "省": "山东省", "市": "淄博市", "区县": "张店区", "经度_wgs84": 118.049204, "纬度_wgs84": 36.816164, "一级分类": "居住" }, "geometry": { "type": "Point", "coordinates": [ 118.049204, 36.816164 ] } },
{ "type": "Feature", "properties": { "类别": "小区", "名称": "东方之珠B座", "经度": 118.054413, "纬度": 36.828222, "地址": "联通路与柳泉路交叉口西北80米", "类型": "商务住宅;楼宇;商务写字楼", "省": "山东省", "市": "淄博市", "区县": "张店区", "经度_wgs84": 118.053749, "纬度_wgs84": 36.823333, "一级分类": "居住" }, "geometry": { "type": "Point", "coordinates": [ 118.053749, 36.823333 ] } },
{ "type": "Feature", "properties": { "类别": "小区", "名称": "金达大厦C座", "经度": 118.058189, "纬度": 36.842667, "地址": "金达大厦1号金达购物广场", "类型": "商务住宅;楼宇;商务写字楼", "省": "山东省", "市": "淄博市", "区县": "张店区", "经度_wgs84": 118.057504, "纬度_wgs84": 36.837773, "一级分类": "居住" }, "geometry": { "type": "Point", "coordinates": [ 118.057504, 36.837773 ] } },
{ "type": "Feature", "properties": { "类别": "小区", "名称": "保利大厦", "经度": 118.069795, "纬度": 36.787495, "地址": "杏园东路与洪沟西街交叉口西180米", "类型": "商务住宅;楼宇;商务写字楼", "省": "山东省", "市": "淄博市", "区县": "张店区", "经度_wgs84": 118.069136, "纬度_wgs84": 36.78259, "一级分类": "居住" }, "geometry": { "type": "Point", "coordinates": [ 118.069136, 36.78259 ] } },
{ "type": "Feature", "properties": { "类别": "小区", "名称": "三泰·温州大厦2号楼", "经度": 118.060055, "纬度": 36.798741, "地址": "金晶大道44甲21号院2号楼", "类型": "商务住宅;楼宇;商务写字楼", "省": "山东省", "市": "淄博市", "区县": "张店区", "经度_wgs84": 118.059405, "纬度_wgs84": 36.793845, "一级分类": "居住" }, "geometry": { "type": "Point", "coordinates": [ 118.059405, 36.793845 ] } },
{ "type": "Feature", "properties": { "类别": "小区", "名称": "淄博科技器材大楼", "经度": 118.059362, "纬度": 36.80108, "地址": "中心路", "类型": "商务住宅;楼宇;商务写字楼|公司企业;公司;公司", "省": "山东省", "市": "淄博市", "区县": "张店区", "经度_wgs84": 118.058711, "纬度_wgs84": 36.796185, "一级分类": "居住" }, "geometry": { "type": "Point", "coordinates": [ 118.058711, 36.796185 ] } },
{ "type": "Feature", "properties": { "类别": "小区", "名称": "活力大厦", "经度": 118.065094, "纬度": 36.870676, "地址": "柳泉路139号", "类型": "商务住宅;楼宇;商务写字楼", "省": "山东省", "市": "淄博市", "区县": "张店区", "经度_wgs84": 118.06437, "纬度_wgs84": 36.865773, "一级分类": "居住" }, "geometry": { "type": "Point", "coordinates": [ 118.06437, 36.865773 ] } },
{ "type": "Feature", "properties": { "类别": "小区", "名称": "创业写字楼D座", "经度": 118.057275, "纬度": 36.841925, "地址": "创业写字楼", "类型": "商务住宅;楼宇;商务写字楼", "省": "山东省", "市": "淄博市", "区县": "张店区", "经度_wgs84": 118.056592, "纬度_wgs84": 36.837032, "一级分类": "居住" }, "geometry": { "type": "Point", "coordinates": [ 118.056592, 36.837032 ] } },
{ "type": "Feature", "properties": { "类别": "小区", "名称": "九冶大厦", "经度": 117.994037, "纬度": 36.799157, "地址": "和平路与书香街交叉口西180米", "类型": "商务住宅;楼宇;商务写字楼", "省": "山东省", "市": "淄博市", "区县": "张店区", "经度_wgs84": 117.9936, "纬度_wgs84": 36.794405, "一级分类": "居住" }, "geometry": { "type": "Point", "coordinates": [ 117.9936, 36.794405 ] } },
{ "type": "Feature", "properties": { "类别": "小区", "名称": "大红炉众创空间A座", "经度": 118.009429, "纬度": 36.809509, "地址": "山东理工大学东门附近", "类型": "商务住宅;楼宇;商务写字楼", "省": "山东省", "市": "淄博市", "区县": "张店区", "经度_wgs84": 118.008925, "纬度_wgs84": 36.804717, "一级分类": "居住" }, "geometry": { "type": "Point", "coordinates": [ 118.008925, 36.804717 ] } },
{ "type": "Feature", "properties": { "类别": "小区", "名称": "金茂大厦B座", "经度": 118.026136, "纬度": 36.808961, "地址": "共青团西路138号金茂大厦", "类型": "商务住宅;楼宇;商务写字楼", "省": "山东省", "市": "淄博市", "区县": "张店区", "经度_wgs84": 118.025573, "纬度_wgs84": 36.804128, "一级分类": "居住" }, "geometry": { "type": "Point", "coordinates": [ 118.025573, 36.804128 ] } },
{ "type": "Feature", "properties": { "类别": "小区", "名称": "金茂大厦C座", "经度": 118.025767, "纬度": 36.809124, "地址": "共青团西路138号金茂大厦", "类型": "商务住宅;楼宇;商务写字楼", "省": "山东省", "市": "淄博市", "区县": "张店区", "经度_wgs84": 118.025205, "纬度_wgs84": 36.804292, "一级分类": "居住" }, "geometry": { "type": "Point", "coordinates": [ 118.025205, 36.804292 ] } },
{ "type": "Feature", "properties": { "类别": "小区", "名称": "慧商大厦", "经度": 118.064726, "纬度": 36.868875, "地址": "柳泉路358号", "类型": "商务住宅;楼宇;商务写字楼", "省": "山东省", "市": "淄博市", "区县": "张店区", "经度_wgs84": 118.064004, "纬度_wgs84": 36.863972, "一级分类": "居住" }, "geometry": { "type": "Point", "coordinates": [ 118.064004, 36.863972 ] } },
{ "type": "Feature", "properties": { "类别": "小区", "名称": "彩世界广场A座", "经度": 118.02867, "纬度": 36.82188, "地址": "华光路与世纪路交叉口东260米", "类型": "商务住宅;楼宇;商务写字楼", "省": "山东省", "市": "淄博市", "区县": "张店区", "经度_wgs84": 118.028087, "纬度_wgs84": 36.817041, "一级分类": "居住" }, "geometry": { "type": "Point", "coordinates": [ 118.028087, 36.817041 ] } },
{ "type": "Feature", "properties": { "类别": "小区", "名称": "国贸大厦B座", "经度": 118.05577, "纬度": 36.835, "地址": "柳泉路107号国贸大厦", "类型": "商务住宅;楼宇;商务写字楼", "省": "山东省", "市": "淄博市", "区县": "张店区", "经度_wgs84": 118.055097, "纬度_wgs84": 36.830109, "一级分类": "居住" }, "geometry": { "type": "Point", "coordinates": [ 118.055097, 36.830109 ] } },
{ "type": "Feature", "properties": { "类别": "小区", "名称": "玉龙大厦C座", "经度": 118.024374, "纬度": 36.823066, "地址": "华光路188号玉龙大厦", "类型": "商务住宅;楼宇;商务写字楼", "省": "山东省", "市": "淄博市", "区县": "张店区", "经度_wgs84": 118.023804, "纬度_wgs84": 36.818236, "一级分类": "居住" }, "geometry": { "type": "Point", "coordinates": [ 118.023804, 36.818236 ] } },
{ "type": "Feature", "properties": { "类别": "小区", "名称": "远通大厦", "经度": 118.040405, "纬度": 36.821756, "地址": "华光路88号(大润发西邻)", "类型": "商务住宅;楼宇;商务写字楼", "省": "山东省", "市": "淄博市", "区县": "张店区", "经度_wgs84": 118.039785, "纬度_wgs84": 36.816892, "一级分类": "居住" }, "geometry": { "type": "Point", "coordinates": [ 118.039785, 36.816892 ] } },
{ "type": "Feature", "properties": { "类别": "小区", "名称": "山东凯发商务楼B座", "经度": 118.060318, "纬度": 36.842713, "地址": "万杰路与柳泉路交叉口东南120米", "类型": "商务住宅;楼宇;商务写字楼", "省": "山东省", "市": "淄博市", "区县": "张店区", "经度_wgs84": 118.059628, "纬度_wgs84": 36.837816, "一级分类": "居住" }, "geometry": { "type": "Point", "coordinates": [ 118.059628, 36.837816 ] } },
{ "type": "Feature", "properties": { "类别": "小区", "名称": "高科技创业园C座", "经度": 118.052591, "纬度": 36.840495, "地址": "政通路135号", "类型": "商务住宅;楼宇;商务写字楼", "省": "山东省", "市": "淄博市", "区县": "张店区", "经度_wgs84": 118.051921, "纬度_wgs84": 36.835609, "一级分类": "居住" }, "geometry": { "type": "Point", "coordinates": [ 118.051921, 36.835609 ] } },
{ "type": "Feature", "properties": { "类别": "小区", "名称": "中房大厦C座", "经度": 118.051188, "纬度": 36.821065, "地址": "华光路58号", "类型": "商务住宅;楼宇;商务写字楼", "省": "山东省", "市": "淄博市", "区县": "张店区", "经度_wgs84": 118.050538, "纬度_wgs84": 36.816181, "一级分类": "居住" }, "geometry": { "type": "Point", "coordinates": [ 118.050538, 36.816181 ] } },
{ "type": "Feature", "properties": { "类别": "小区", "名称": "建筑大厦", "经度": 118.057091, "纬度": 36.816596, "地址": "潘南西路10号", "类型": "商务住宅;楼宇;商务写字楼", "省": "山东省", "市": "淄博市", "区县": "张店区", "经度_wgs84": 118.056431, "纬度_wgs84": 36.811704, "一级分类": "居住" }, "geometry": { "type": "Point", "coordinates": [ 118.056431, 36.811704 ] } },
{ "type": "Feature", "properties": { "类别": "小区", "名称": "淄博化工科贸中心", "经度": 118.062842, "纬度": 36.800444, "地址": "东一路39号", "类型": "商务住宅;楼宇;商务写字楼", "省": "山东省", "市": "淄博市", "区县": "张店区", "经度_wgs84": 118.062184, "纬度_wgs84": 36.795545, "一级分类": "居住" }, "geometry": { "type": "Point", "coordinates": [ 118.062184, 36.795545 ] } },
{ "type": "Feature", "properties": { "类别": "小区", "名称": "质量大厦(共青团西路)", "经度": 118.038292, "纬度": 36.808325, "地址": "共青团西路98号", "类型": "商务住宅;楼宇;商务写字楼", "省": "山东省", "市": "淄博市", "区县": "张店区", "经度_wgs84": 118.03769, "纬度_wgs84": 36.803465, "一级分类": "居住" }, "geometry": { "type": "Point", "coordinates": [ 118.03769, 36.803465 ] } },
{ "type": "Feature", "properties": { "类别": "小区", "名称": "金丽大厦", "经度": 118.036124, "纬度": 36.828457, "地址": "联通路", "类型": "商务住宅;楼宇;商务写字楼", "省": "山东省", "市": "淄博市", "区县": "张店区", "经度_wgs84": 118.035511, "纬度_wgs84": 36.823601, "一级分类": "居住" }, "geometry": { "type": "Point", "coordinates": [ 118.035511, 36.823601 ] } },
{ "type": "Feature", "properties": { "类别": "小区", "名称": "华侨城二号商业楼", "经度": 118.030725, "纬度": 36.837975, "地址": "中润大道1号新玛特购物广场(中润店)", "类型": "商务住宅;楼宇;商务写字楼", "省": "山东省", "市": "淄博市", "区县": "张店区", "经度_wgs84": 118.030121, "纬度_wgs84": 36.83313, "一级分类": "居住" }, "geometry": { "type": "Point", "coordinates": [ 118.030121, 36.83313 ] } },
{ "type": "Feature", "properties": { "类别": "小区", "名称": "名仕城大厦", "经度": 118.012775, "纬度": 36.803525, "地址": "马尚街道西寨社区名仕城", "类型": "商务住宅;楼宇;商务写字楼", "省": "山东省", "市": "淄博市", "区县": "张店区", "经度_wgs84": 118.012264, "纬度_wgs84": 36.798725, "一级分类": "居住" }, "geometry": { "type": "Point", "coordinates": [ 118.012264, 36.798725 ] } },
{ "type": "Feature", "properties": { "类别": "小区", "名称": "天乙大厦B座", "经度": 118.004725, "纬度": 36.844025, "地址": "天乙大厦", "类型": "商务住宅;楼宇;商务写字楼", "省": "山东省", "市": "淄博市", "区县": "张店区", "经度_wgs84": 118.004209, "纬度_wgs84": 36.839244, "一级分类": "居住" }, "geometry": { "type": "Point", "coordinates": [ 118.004209, 36.839244 ] } },
{ "type": "Feature", "properties": { "类别": "小区", "名称": "嘉美大厦17号楼", "经度": 118.024925, "纬度": 36.782475, "地址": "经济开发区傅家镇南世纪路1号嘉美大厦", "类型": "商务住宅;楼宇;商务写字楼", "省": "山东省", "市": "淄博市", "区县": "张店区", "经度_wgs84": 118.024389, "纬度_wgs84": 36.777645, "一级分类": "居住" }, "geometry": { "type": "Point", "coordinates": [ 118.024389, 36.777645 ] } },
{ "type": "Feature", "properties": { "类别": "小区", "名称": "鑫城中心E座", "经度": 118.018148, "纬度": 36.803048, "地址": "鑫城公寓东区", "类型": "商务住宅;楼宇;商务写字楼", "省": "山东省", "市": "淄博市", "区县": "张店区", "经度_wgs84": 118.017618, "纬度_wgs84": 36.798234, "一级分类": "居住" }, "geometry": { "type": "Point", "coordinates": [ 118.017618, 36.798234 ] } },
{ "type": "Feature", "properties": { "类别": "小区", "名称": "天府国际营销中心A座", "经度": 118.029155, "纬度": 36.803058, "地址": "新村西路186号天府国际", "类型": "商务住宅;楼宇;商务写字楼", "省": "山东省", "市": "淄博市", "区县": "张店区", "经度_wgs84": 118.028587, "纬度_wgs84": 36.798218, "一级分类": "居住" }, "geometry": { "type": "Point", "coordinates": [ 118.028587, 36.798218 ] } },
{ "type": "Feature", "properties": { "类别": "小区", "名称": "电商谷东园B座", "经度": 118.066025, "纬度": 36.864125, "地址": "高新区电商谷东园", "类型": "商务住宅;楼宇;商务写字楼|商务住宅;产业园区;产业园区", "省": "山东省", "市": "淄博市", "区县": "张店区", "经度_wgs84": 118.065305, "纬度_wgs84": 36.859221, "一级分类": "居住" }, "geometry": { "type": "Point", "coordinates": [ 118.065305, 36.859221 ] } }
]
}
