{
"type": "FeatureCollection",
"name": "poi_医院_cleaned",
"crs": { "type": "name", "properties": { "name": "urn:ogc:def:crs:OGC:1.3:CRS84" } },
"features": [
{ "type": "Feature", "properties": { "类别": "医院", "名称": "淄博市中心医院", "经度": 118.053088, "纬度": 36.807533, "地址": "共青团西路54号", "类型": "医疗保健服务;综合医院;三级甲等医院", "省": "山东省", "市": "淄博市", "区县": "张店区", "经度_wgs84": 118.052446, "纬度_wgs84": 36.802647, "一级分类": "医疗" }, "geometry": { "type": "Point", "coordinates": [ 118.052446, 36.802647 ] } },
{ "type": "Feature", "properties": { "类别": "医院", "名称": "张店区中医院", "经度": 118.049972, "纬度": 36.800925, "地址": "新村西路28号", "类型": "医疗保健服务;综合医院;综合医院", "省": "山东省", "市": "淄博市", "区县": "张店区", "经度_wgs84": 118.049343, "纬度_wgs84": 36.796044, "一级分类": "医疗" }, "geometry": { "type": "Point", "coordinates": [ 118.049343, 36.796044 ] } },
{ "type": "Feature", "properties": { "类别": "医院", "名称": "张店区人民医院(主院区)", "经度": 118.057745, "纬度": 36.795784, "地址": "金晶大道63号(淄博火车站北行300米路西)", "类型": "医疗保健服务;综合医院;综合医院", "省": "山东省", "市": "淄博市", "区县": "张店区", "经度_wgs84": 118.057102, "纬度_wgs84": 36.790892, "一级分类": "医疗" }, "geometry": { "type": "Point", "coordinates": [ 118.057102, 36.790892 ] } },
{ "type": "Feature", "properties": { "类别": "医院", "名称": "淄博张店中鲁中医院", "经度": 118.063233, "纬度": 36.811867, "地址": "金晶大道148号院内办公楼南楼一层102号", "类型": "医疗保健服务;综合医院;综合医院", "省": "山东省", "市": "淄博市", "区县": "张店区", "经度_wgs84": 118.062565, "纬度_wgs84": 36.806967, "一级分类": "医疗" }, "geometry": { "type": "Point", "coordinates": [ 118.062565, 36.806967 ] } },
{ "type": "Feature", "properties": { "类别": "医院", "名称": "淄博市中西医结合医院", "经度": 118.058868, "纬度": 36.79356, "地址": "金晶大道8号(市第八人民医院)", "类型": "医疗保健服务;综合医院;三级甲等医院", "省": "山东省", "市": "淄博市", "区县": "张店区", "经度_wgs84": 118.058225, "纬度_wgs84": 36.788666, "一级分类": "医疗" }, "geometry": { "type": "Point", "coordinates": [ 118.058225, 36.788666 ] } },
{ "type": "Feature", "properties": { "类别": "医院", "名称": "淄博市中医医院柳泉路院区", "经度": 118.053223, "纬度": 36.827182, "地址": "柳泉路85号", "类型": "医疗保健服务;专科医院;骨科医院", "省": "山东省", "市": "淄博市", "区县": "张店区", "经度_wgs84": 118.052563, "纬度_wgs84": 36.822295, "一级分类": "医疗" }, "geometry": { "type": "Point", "coordinates": [ 118.052563, 36.822295 ] } },
{ "type": "Feature", "properties": { "类别": "医院", "名称": "淄建集团医院", "经度": 118.064021, "纬度": 36.801248, "地址": "东一路36号", "类型": "医疗保健服务;综合医院;综合医院", "省": "山东省", "市": "淄博市", "区县": "张店区", "经度_wgs84": 118.06336, "纬度_wgs84": 36.796348, "一级分类": "医疗" }, "geometry": { "type": "Point", "coordinates": [ 118.06336, 36.796348 ] } },
{ "type": "Feature", "properties": { "类别": "医院", "名称": "淄博市妇幼保健院东院区", "经度": 118.060376, "纬度": 36.790092, "地址": "杏园东路11号", "类型": "医疗保健服务;专科医院;专科医院|医疗保健服务;综合医院;综合医院", "省": "山东省", "市": "淄博市", "区县": "张店区", "经度_wgs84": 118.059732, "纬度_wgs84": 36.785196, "一级分类": "医疗" }, "geometry": { "type": "Point", "coordinates": [ 118.059732, 36.785196 ] } },
{ "type": "Feature", "properties": { "类别": "医院", "名称": "淄博广电医院", "经度": 118.048349, "纬度": 36.815733, "地址": "柳泉路西二巷10号", "类型": "医疗保健服务;综合医院;综合医院", "省": "山东省", "市": "淄博市", "区县": "张店区", "经度_wgs84": 118.047711, "纬度_wgs84": 36.810854, "一级分类": "医疗" }, "geometry": { "type": "Point", "coordinates": [ 118.047711, 36.810854 ] } },
{ "type": "Feature", "properties": { "类别": "医院", "名称": "华仁中医医院", "经度": 118.042517, "纬度": 36.807609, "地址": "新世界商业街南段103号", "类型": "医疗保健服务;综合医院;综合医院", "省": "山东省", "市": "淄博市", "区县": "张店区", "经度_wgs84": 118.041903, "纬度_wgs84": 36.802741, "一级分类": "医疗" }, "geometry": { "type": "Point", "coordinates": [ 118.041903, 36.802741 ] } },
{ "type": "Feature", "properties": { "类别": "医院", "名称": "淄博市中医医院柳泉路院区", "经度": 118.054453, "纬度": 36.82669, "地址": "柳泉路85号", "类型": "医疗保健服务;综合医院;综合医院", "省": "山东省", "市": "淄博市", "区县": "张店区", "经度_wgs84": 118.05379, "纬度_wgs84": 36.821801, "一级分类": "医疗" }, "geometry": { "type": "Point", "coordinates": [ 118.05379, 36.821801 ] } },
{ "type": "Feature", "properties": { "类别": "医院", "名称": "淄博市市级机关医院", "经度": 118.055697, "纬度": 36.811686, "地址": "西二路265号", "类型": "医疗保健服务;综合医院;综合医院", "省": "山东省", "市": "淄博市", "区县": "张店区", "经度_wgs84": 118.055045, "纬度_wgs84": 36.806796, "一级分类": "医疗" }, "geometry": { "type": "Point", "coordinates": [ 118.055045, 36.806796 ] } },
{ "type": "Feature", "properties": { "类别": "医院", "名称": "淄博张店瑞生医院", "经度": 118.040721, "纬度": 36.828731, "地址": "联通路76号", "类型": "医疗保健服务;综合医院;综合医院", "省": "山东省", "市": "淄博市", "区县": "张店区", "经度_wgs84": 118.040093, "纬度_wgs84": 36.823866, "一级分类": "医疗" }, "geometry": { "type": "Point", "coordinates": [ 118.040093, 36.823866 ] } },
{ "type": "Feature", "properties": { "类别": "医院", "名称": "淄博四季青医院", "经度": 118.041428, "纬度": 36.828633, "地址": "联通路74甲8-1号", "类型": "医疗保健服务;综合医院;综合医院", "省": "山东省", "市": "淄博市", "区县": "张店区", "经度_wgs84": 118.040798, "纬度_wgs84": 36.823766, "一级分类": "医疗" }, "geometry": { "type": "Point", "coordinates": [ 118.040798, 36.823766 ] } },
{ "type": "Feature", "properties": { "类别": "医院", "名称": "淄博市市级机关医院(人民西路)", "经度": 118.047769, "纬度": 36.814238, "地址": "人民西路24号甲3号", "类型": "医疗保健服务;综合医院;综合医院", "省": "山东省", "市": "淄博市", "区县": "张店区", "经度_wgs84": 118.047134, "纬度_wgs84": 36.80936, "一级分类": "医疗" }, "geometry": { "type": "Point", "coordinates": [ 118.047134, 36.80936 ] } },
{ "type": "Feature", "properties": { "类别": "医院", "名称": "张店区人民医院(南院区)", "经度": 118.059541, "纬度": 36.791552, "地址": "洪沟路2号", "类型": "医疗保健服务;综合医院;综合医院", "省": "山东省", "市": "淄博市", "区县": "张店区", "经度_wgs84": 118.058898, "纬度_wgs84": 36.786657, "一级分类": "医疗" }, "geometry": { "type": "Point", "coordinates": [ 118.058898, 36.786657 ] } },
{ "type": "Feature", "properties": { "类别": "医院", "名称": "淄博高新区机关医院", "经度": 118.052056, "纬度": 36.840245, "地址": "高创西路", "类型": "医疗保健服务;综合医院;综合医院", "省": "山东省", "市": "淄博市", "区县": "张店区", "经度_wgs84": 118.051387, "纬度_wgs84": 36.83536, "一级分类": "医疗" }, "geometry": { "type": "Point", "coordinates": [ 118.051387, 36.83536 ] } },
{ "type": "Feature", "properties": { "类别": "医院", "名称": "淄博张店圣诺医院", "经度": 118.042855, "纬度": 36.813897, "地址": "人民西路29号", "类型": "医疗保健服务;综合医院;综合医院", "省": "山东省", "市": "淄博市", "区县": "张店区", "经度_wgs84": 118.042234, "纬度_wgs84": 36.809028, "一级分类": "医疗" }, "geometry": { "type": "Point", "coordinates": [ 118.042234, 36.809028 ] } },
{ "type": "Feature", "properties": { "类别": "医院", "名称": "淄博高新四季青医院", "经度": 118.033077, "纬度": 36.8359, "地址": "中润大道20号", "类型": "医疗保健服务;综合医院;综合医院", "省": "山东省", "市": "淄博市", "区县": "张店区", "经度_wgs84": 118.032467, "纬度_wgs84": 36.83105, "一级分类": "医疗" }, "geometry": { "type": "Point", "coordinates": [ 118.032467, 36.83105 ] } },
{ "type": "Feature", "properties": { "类别": "医院", "名称": "淄博市中医医院(和平路院区)", "经度": 118.037682, "纬度": 36.797434, "地址": [ ], "类型": "医疗保健服务;综合医院;三级甲等医院", "省": "山东省", "市": "淄博市", "区县": "张店区", "经度_wgs84": 118.037091, "纬度_wgs84": 36.792576, "一级分类": "医疗" }, "geometry": { "type": "Point", "coordinates": [ 118.037091, 36.792576 ] } },
{ "type": "Feature", "properties": { "类别": "医院", "名称": "沁园社区卫生服务站", "经度": 118.045357, "纬度": 36.814004, "地址": "人民路25号宏程名座B座一层东一号", "类型": "医疗保健服务;综合医院;卫生院", "省": "山东省", "市": "淄博市", "区县": "张店区", "经度_wgs84": 118.044729, "纬度_wgs84": 36.809131, "一级分类": "医疗" }, "geometry": { "type": "Point", "coordinates": [ 118.044729, 36.809131 ] } },
{ "type": "Feature", "properties": { "类别": "医院", "名称": "淄博昌国医院", "经度": 118.027822, "纬度": 36.784534, "地址": "昌国西路59号", "类型": "医疗保健服务;综合医院;综合医院", "省": "山东省", "市": "淄博市", "区县": "张店区", "经度_wgs84": 118.027274, "纬度_wgs84": 36.779698, "一级分类": "医疗" }, "geometry": { "type": "Point", "coordinates": [ 118.027274, 36.779698 ] } },
{ "type": "Feature", "properties": { "类别": "医院", "名称": "淄博市第一医院张店院区", "经度": 118.011185, "纬度": 36.835737, "地址": "南京路121号", "类型": "医疗保健服务;综合医院;综合医院", "省": "山东省", "市": "淄博市", "区县": "张店区", "经度_wgs84": 118.010652, "纬度_wgs84": 36.83094, "一级分类": "医疗" }, "geometry": { "type": "Point", "coordinates": [ 118.010652, 36.83094 ] } },
{ "type": "Feature", "properties": { "类别": "医院", "名称": "淄博益宁医院", "经度": 118.077527, "纬度": 36.816858, "地址": "华光路6号", "类型": "医疗保健服务;医疗保健服务场所;医疗保健服务场所", "省": "山东省", "市": "淄博市", "区县": "张店区", "经度_wgs84": 118.076832, "纬度_wgs84": 36.811947, "一级分类": "医疗" }, "geometry": { "type": "Point", "coordinates": [ 118.076832, 36.811947 ] } },
{ "type": "Feature", "properties": { "类别": "医院", "名称": "世博高新医院", "经度": 118.105384, "纬度": 36.829265, "地址": "中润大道", "类型": "医疗保健服务;综合医院;综合医院", "省": "山东省", "市": "淄博市", "区县": "张店区", "经度_wgs84": 118.104667, "纬度_wgs84": 36.824357, "一级分类": "医疗" }, "geometry": { "type": "Point", "coordinates": [ 118.104667, 36.824357 ] } },
{ "type": "Feature", "properties": { "类别": "医院", "名称": "科技苑社区卫生服务站", "经度": 118.051755, "纬度": 36.833748, "地址": "环翠路4号", "类型": "医疗保健服务;综合医院;卫生院", "省": "山东省", "市": "淄博市", "区县": "张店区", "经度_wgs84": 118.051093, "纬度_wgs84": 36.828863, "一级分类": "医疗" }, "geometry": { "type": "Point", "coordinates": [ 118.051093, 36.828863 ] } },
{ "type": "Feature", "properties": { "类别": "医院", "名称": "淄博诺锋医院(骨科医院)", "经度": 118.035342, "纬度": 36.801729, "地址": "新村西路111号甲1号(金恒家园北门东90米)", "类型": "医疗保健服务;综合医院;综合医院", "省": "山东省", "市": "淄博市", "区县": "张店区", "经度_wgs84": 118.034755, "纬度_wgs84": 36.796876, "一级分类": "医疗" }, "geometry": { "type": "Point", "coordinates": [ 118.034755, 36.796876 ] } },
{ "type": "Feature", "properties": { "类别": "医院", "名称": "淄博高新华庚医院", "经度": 118.06279, "纬度": 36.843618, "地址": "万杰路123-1号", "类型": "医疗保健服务;综合医院;综合医院", "省": "山东省", "市": "淄博市", "区县": "张店区", "经度_wgs84": 118.062094, "纬度_wgs84": 36.838718, "一级分类": "医疗" }, "geometry": { "type": "Point", "coordinates": [ 118.062094, 36.838718 ] } },
{ "type": "Feature", "properties": { "类别": "医院", "名称": "张店区体育场街道河滨好好社区卫生服务站", "经度": 118.061476, "纬度": 36.810171, "地址": "金晶大道189号甲14号", "类型": "医疗保健服务;综合医院;卫生院", "省": "山东省", "市": "淄博市", "区县": "张店区", "经度_wgs84": 118.060813, "纬度_wgs84": 36.805273, "一级分类": "医疗" }, "geometry": { "type": "Point", "coordinates": [ 118.060813, 36.805273 ] } },
{ "type": "Feature", "properties": { "类别": "医院", "名称": "山东省淄博市张店区体育场街道东方社区卫生服务站", "经度": 118.069816, "纬度": 36.820335, "地址": "东二路沿街房12号", "类型": "医疗保健服务;综合医院;卫生院", "省": "山东省", "市": "淄博市", "区县": "张店区", "经度_wgs84": 118.069129, "纬度_wgs84": 36.815429, "一级分类": "医疗" }, "geometry": { "type": "Point", "coordinates": [ 118.069129, 36.815429 ] } },
{ "type": "Feature", "properties": { "类别": "医院", "名称": "春之光医院", "经度": 118.073479, "纬度": 36.806474, "地址": "东三路35号", "类型": "医疗保健服务;综合医院;综合医院", "省": "山东省", "市": "淄博市", "区县": "张店区", "经度_wgs84": 118.072798, "纬度_wgs84": 36.801565, "一级分类": "医疗" }, "geometry": { "type": "Point", "coordinates": [ 118.072798, 36.801565 ] } },
{ "type": "Feature", "properties": { "类别": "医院", "名称": "张店区公园街道西苑社区卫生服务站", "经度": 118.045411, "纬度": 36.807188, "地址": "共青团西路与共青团西路南八巷交叉路口东5米", "类型": "医疗保健服务;综合医院;卫生院", "省": "山东省", "市": "淄博市", "区县": "张店区", "经度_wgs84": 118.044789, "纬度_wgs84": 36.802315, "一级分类": "医疗" }, "geometry": { "type": "Point", "coordinates": [ 118.044789, 36.802315 ] } },
{ "type": "Feature", "properties": { "类别": "医院", "名称": "张店区北西六路社区卫生服务中心", "经度": 118.033307, "纬度": 36.812594, "地址": "北西六路26号", "类型": "医疗保健服务;综合医院;卫生院", "省": "山东省", "市": "淄博市", "区县": "张店区", "经度_wgs84": 118.032717, "纬度_wgs84": 36.807745, "一级分类": "医疗" }, "geometry": { "type": "Point", "coordinates": [ 118.032717, 36.807745 ] } },
{ "type": "Feature", "properties": { "类别": "医院", "名称": "张店区公园街道王府井社区卫生服务站", "经度": 118.052647, "纬度": 36.805341, "地址": "柳泉路110号银座中心店二期F1", "类型": "医疗保健服务;综合医院;卫生院", "省": "山东省", "市": "淄博市", "区县": "张店区", "经度_wgs84": 118.052008, "纬度_wgs84": 36.800456, "一级分类": "医疗" }, "geometry": { "type": "Point", "coordinates": [ 118.052008, 36.800456 ] } },
{ "type": "Feature", "properties": { "类别": "医院", "名称": "淄博世纪长城医院", "经度": 118.030906, "纬度": 36.797646, "地址": "南西六路66号", "类型": "医疗保健服务;综合医院;综合医院", "省": "山东省", "市": "淄博市", "区县": "张店区", "经度_wgs84": 118.030336, "纬度_wgs84": 36.792802, "一级分类": "医疗" }, "geometry": { "type": "Point", "coordinates": [ 118.030336, 36.792802 ] } },
{ "type": "Feature", "properties": { "类别": "医院", "名称": "淄博市政府三宿舍社区卫生服务站", "经度": 118.036064, "纬度": 36.824608, "地址": "北西五路莲池公园北淄博市政府", "类型": "医疗保健服务;综合医院;卫生院", "省": "山东省", "市": "淄博市", "区县": "张店区", "经度_wgs84": 118.035454, "纬度_wgs84": 36.819752, "一级分类": "医疗" }, "geometry": { "type": "Point", "coordinates": [ 118.035454, 36.819752 ] } },
{ "type": "Feature", "properties": { "类别": "医院", "名称": "张店科苑街道欣苑社区卫生服务站", "经度": 118.054401, "纬度": 36.816606, "地址": "市府西一街7号甲2号", "类型": "医疗保健服务;综合医院;卫生院", "省": "山东省", "市": "淄博市", "区县": "张店区", "经度_wgs84": 118.053748, "纬度_wgs84": 36.811718, "一级分类": "医疗" }, "geometry": { "type": "Point", "coordinates": [ 118.053748, 36.811718 ] } },
{ "type": "Feature", "properties": { "类别": "医院", "名称": "东苑社区卫生服务站(东二路)", "经度": 118.068146, "纬度": 36.809449, "地址": "体育场街道东二路东苑社区旁", "类型": "医疗保健服务;综合医院;卫生院", "省": "山东省", "市": "淄博市", "区县": "张店区", "经度_wgs84": 118.067471, "纬度_wgs84": 36.804544, "一级分类": "医疗" }, "geometry": { "type": "Point", "coordinates": [ 118.067471, 36.804544 ] } },
{ "type": "Feature", "properties": { "类别": "医院", "名称": "张店区中医院康复楼", "经度": 118.052783, "纬度": 36.800109, "地址": "新村西路28号张店区中医院", "类型": "医疗保健服务;综合医院;综合医院", "省": "山东省", "市": "淄博市", "区县": "张店区", "经度_wgs84": 118.052148, "纬度_wgs84": 36.795224, "一级分类": "医疗" }, "geometry": { "type": "Point", "coordinates": [ 118.052148, 36.795224 ] } },
{ "type": "Feature", "properties": { "类别": "医院", "名称": "张店区科苑街道迎春苑社区卫生服务站", "经度": 118.060609, "纬度": 36.825658, "地址": "迎春苑东一巷2号甲7号", "类型": "医疗保健服务;综合医院;卫生院", "省": "山东省", "市": "淄博市", "区县": "张店区", "经度_wgs84": 118.059934, "纬度_wgs84": 36.820761, "一级分类": "医疗" }, "geometry": { "type": "Point", "coordinates": [ 118.059934, 36.820761 ] } },
{ "type": "Feature", "properties": { "类别": "医院", "名称": "体育场街道金乔社区卫生服务站", "经度": 118.073523, "纬度": 36.813127, "地址": "潘南东路15甲8-9", "类型": "医疗保健服务;综合医院;卫生院", "省": "山东省", "市": "淄博市", "区县": "张店区", "经度_wgs84": 118.072836, "纬度_wgs84": 36.808218, "一级分类": "医疗" }, "geometry": { "type": "Point", "coordinates": [ 118.072836, 36.808218 ] } },
{ "type": "Feature", "properties": { "类别": "医院", "名称": "淄博市第四人民医院", "经度": 118.043297, "纬度": 36.76628, "地址": "山泉路210号", "类型": "医疗保健服务;专科医院;肿瘤医院|医疗保健服务;专科医院;传染病医院|医疗保健服务;综合医院;综合医院", "省": "山东省", "市": "淄博市", "区县": "张店区", "经度_wgs84": 118.042716, "纬度_wgs84": 36.761412, "一级分类": "医疗" }, "geometry": { "type": "Point", "coordinates": [ 118.042716, 36.761412 ] } },
{ "type": "Feature", "properties": { "类别": "医院", "名称": "张店区科苑街道五里桥社区卫生服务站", "经度": 118.027802, "纬度": 36.814601, "地址": "人民西路116号甲9号", "类型": "医疗保健服务;综合医院;卫生院", "省": "山东省", "市": "淄博市", "区县": "张店区", "经度_wgs84": 118.027228, "纬度_wgs84": 36.809764, "一级分类": "医疗" }, "geometry": { "type": "Point", "coordinates": [ 118.027228, 36.809764 ] } },
{ "type": "Feature", "properties": { "类别": "医院", "名称": "淄博宝华中医医院", "经度": 118.02428, "纬度": 36.816938, "地址": "世纪路39号", "类型": "医疗保健服务;综合医院;综合医院", "省": "山东省", "市": "淄博市", "区县": "张店区", "经度_wgs84": 118.023716, "纬度_wgs84": 36.812109, "一级分类": "医疗" }, "geometry": { "type": "Point", "coordinates": [ 118.023716, 36.812109 ] } },
{ "type": "Feature", "properties": { "类别": "医院", "名称": "淄博名鲁中医医院", "经度": 118.05982, "纬度": 36.797687, "地址": "金晶大道42号", "类型": "医疗保健服务;综合医院;综合医院", "省": "山东省", "市": "淄博市", "区县": "张店区", "经度_wgs84": 118.059171, "纬度_wgs84": 36.792792, "一级分类": "医疗" }, "geometry": { "type": "Point", "coordinates": [ 118.059171, 36.792792 ] } },
{ "type": "Feature", "properties": { "类别": "医院", "名称": "高新区四宝山卫生院", "经度": 118.099801, "纬度": 36.821775, "地址": "宝鑫路37号", "类型": "医疗保健服务;综合医院;卫生院", "省": "山东省", "市": "淄博市", "区县": "张店区", "经度_wgs84": 118.09909, "纬度_wgs84": 36.816863, "一级分类": "医疗" }, "geometry": { "type": "Point", "coordinates": [ 118.09909, 36.816863 ] } },
{ "type": "Feature", "properties": { "类别": "医院", "名称": "淄博张店和济医院", "经度": 118.042596, "纬度": 36.802696, "地址": "新村西路158号(原凤阳大厦附楼6楼)", "类型": "医疗保健服务;医疗保健服务场所;医疗保健服务场所", "省": "山东省", "市": "淄博市", "区县": "张店区", "经度_wgs84": 118.041986, "纬度_wgs84": 36.797828, "一级分类": "医疗" }, "geometry": { "type": "Point", "coordinates": [ 118.041986, 36.797828 ] } },
{ "type": "Feature", "properties": { "类别": "医院", "名称": "张店区体育场街道东苑春萌社区卫生服务站", "经度": 118.066761, "纬度": 36.804339, "地址": "共青团东路25号", "类型": "医疗保健服务;综合医院;卫生院", "省": "山东省", "市": "淄博市", "区县": "张店区", "经度_wgs84": 118.066093, "纬度_wgs84": 36.799436, "一级分类": "医疗" }, "geometry": { "type": "Point", "coordinates": [ 118.066093, 36.799436 ] } },
{ "type": "Feature", "properties": { "类别": "医院", "名称": "张店区凯瑞园社区卫生服务中心", "经度": 118.020489, "纬度": 36.813996, "地址": "人民西路167号(凯瑞碧园东门北60米)", "类型": "医疗保健服务;综合医院;卫生院", "省": "山东省", "市": "淄博市", "区县": "张店区", "经度_wgs84": 118.019941, "纬度_wgs84": 36.809176, "一级分类": "医疗" }, "geometry": { "type": "Point", "coordinates": [ 118.019941, 36.809176 ] } },
{ "type": "Feature", "properties": { "类别": "医院", "名称": "牵电医院", "经度": 118.077809, "纬度": 36.802433, "地址": "共青团东路34号", "类型": "医疗保健服务;综合医院;综合医院", "省": "山东省", "市": "淄博市", "区县": "张店区", "经度_wgs84": 118.077126, "纬度_wgs84": 36.797522, "一级分类": "医疗" }, "geometry": { "type": "Point", "coordinates": [ 118.077126, 36.797522 ] } },
{ "type": "Feature", "properties": { "类别": "医院", "名称": "张店区体育场街道银都花园社区卫生服务站", "经度": 118.07251, "纬度": 36.804737, "地址": "东三路3-17-18号", "类型": "医疗保健服务;综合医院;卫生院", "省": "山东省", "市": "淄博市", "区县": "张店区", "经度_wgs84": 118.071832, "纬度_wgs84": 36.799829, "一级分类": "医疗" }, "geometry": { "type": "Point", "coordinates": [ 118.071832, 36.799829 ] } },
{ "type": "Feature", "properties": { "类别": "医院", "名称": "淄博大众医院", "经度": 118.042193, "纬度": 36.798303, "地址": "南西四路12号", "类型": "医疗保健服务;综合医院;综合医院", "省": "山东省", "市": "淄博市", "区县": "张店区", "经度_wgs84": 118.041588, "纬度_wgs84": 36.793436, "一级分类": "医疗" }, "geometry": { "type": "Point", "coordinates": [ 118.041588, 36.793436 ] } },
{ "type": "Feature", "properties": { "类别": "医院", "名称": "张店区科苑街道梅苑社区卫生服务站", "经度": 118.044618, "纬度": 36.82588, "地址": "张桓路6-27号", "类型": "医疗保健服务;综合医院;卫生院", "省": "山东省", "市": "淄博市", "区县": "张店区", "经度_wgs84": 118.043982, "纬度_wgs84": 36.821008, "一级分类": "医疗" }, "geometry": { "type": "Point", "coordinates": [ 118.043982, 36.821008 ] } },
{ "type": "Feature", "properties": { "类别": "医院", "名称": "淄博市中医医院和平路院区明医堂", "经度": 118.03769, "纬度": 36.797474, "地址": [ ], "类型": "医疗保健服务;综合医院;三级甲等医院", "省": "山东省", "市": "淄博市", "区县": "张店区", "经度_wgs84": 118.037099, "纬度_wgs84": 36.792616, "一级分类": "医疗" }, "geometry": { "type": "Point", "coordinates": [ 118.037099, 36.792616 ] } },
{ "type": "Feature", "properties": { "类别": "医院", "名称": "张店区科苑街道丰苑社区卫生服务站", "经度": 118.043632, "纬度": 36.830451, "地址": "科苑街道莲池中心街2甲号", "类型": "医疗保健服务;综合医院;卫生院", "省": "山东省", "市": "淄博市", "区县": "张店区", "经度_wgs84": 118.042994, "纬度_wgs84": 36.82558, "一级分类": "医疗" }, "geometry": { "type": "Point", "coordinates": [ 118.042994, 36.82558 ] } },
{ "type": "Feature", "properties": { "类别": "医院", "名称": "张店区车站街道兴西社区卫生服务站", "经度": 118.052207, "纬度": 36.796248, "地址": "西二路西一街20号", "类型": "医疗保健服务;综合医院;卫生院", "省": "山东省", "市": "淄博市", "区县": "张店区", "经度_wgs84": 118.051577, "纬度_wgs84": 36.791364, "一级分类": "医疗" }, "geometry": { "type": "Point", "coordinates": [ 118.051577, 36.791364 ] } },
{ "type": "Feature", "properties": { "类别": "医院", "名称": "东大医院", "经度": 118.070963, "纬度": 36.79947, "地址": "商场东街22-18号", "类型": "医疗保健服务;综合医院;综合医院", "省": "山东省", "市": "淄博市", "区县": "张店区", "经度_wgs84": 118.070292, "纬度_wgs84": 36.794563, "一级分类": "医疗" }, "geometry": { "type": "Point", "coordinates": [ 118.070292, 36.794563 ] } },
{ "type": "Feature", "properties": { "类别": "医院", "名称": "张店区科苑街道黄金国际社区卫生服务站", "经度": 118.029946, "纬度": 36.82267, "地址": "华光路116号彩世界皮草广场F1", "类型": "医疗保健服务;综合医院;卫生院", "省": "山东省", "市": "淄博市", "区县": "张店区", "经度_wgs84": 118.029358, "纬度_wgs84": 36.817828, "一级分类": "医疗" }, "geometry": { "type": "Point", "coordinates": [ 118.029358, 36.817828 ] } },
{ "type": "Feature", "properties": { "类别": "医院", "名称": "人东社区卫生服务站", "经度": 118.063251, "纬度": 36.812016, "地址": "人民东路1号", "类型": "医疗保健服务;综合医院;卫生院", "省": "山东省", "市": "淄博市", "区县": "张店区", "经度_wgs84": 118.062582, "纬度_wgs84": 36.807116, "一级分类": "医疗" }, "geometry": { "type": "Point", "coordinates": [ 118.062582, 36.807116 ] } },
{ "type": "Feature", "properties": { "类别": "医院", "名称": "常青园社区卫生服务站", "经度": 118.037839, "纬度": 36.807755, "地址": "共青团西路115号", "类型": "医疗保健服务;综合医院;卫生院", "省": "山东省", "市": "淄博市", "区县": "张店区", "经度_wgs84": 118.037239, "纬度_wgs84": 36.802896, "一级分类": "医疗" }, "geometry": { "type": "Point", "coordinates": [ 118.037239, 36.802896 ] } },
{ "type": "Feature", "properties": { "类别": "医院", "名称": "齐赛园社区卫生服务站", "经度": 118.026971, "纬度": 36.813954, "地址": "人民西路61甲12(富尔玛家具城斜对面三楼)", "类型": "医疗保健服务;综合医院;卫生院", "省": "山东省", "市": "淄博市", "区县": "张店区", "经度_wgs84": 118.0264, "纬度_wgs84": 36.809119, "一级分类": "医疗" }, "geometry": { "type": "Point", "coordinates": [ 118.0264, 36.809119 ] } },
{ "type": "Feature", "properties": { "类别": "医院", "名称": "丽景苑社区卫生服务站", "经度": 118.03782, "纬度": 36.825231, "地址": "北西五路", "类型": "医疗保健服务;综合医院;卫生院", "省": "山东省", "市": "淄博市", "区县": "张店区", "经度_wgs84": 118.037204, "纬度_wgs84": 36.820372, "一级分类": "医疗" }, "geometry": { "type": "Point", "coordinates": [ 118.037204, 36.820372 ] } },
{ "type": "Feature", "properties": { "类别": "医院", "名称": "张店区世纪花园社区卫生服务中心", "经度": 118.020039, "纬度": 36.834179, "地址": "世纪花园中心公园1号机关医院", "类型": "医疗保健服务;综合医院;卫生院", "省": "山东省", "市": "淄博市", "区县": "张店区", "经度_wgs84": 118.019475, "纬度_wgs84": 36.82936, "一级分类": "医疗" }, "geometry": { "type": "Point", "coordinates": [ 118.019475, 36.82936 ] } },
{ "type": "Feature", "properties": { "类别": "医院", "名称": "张店区湖田街道杏园社区卫生服务站", "经度": 118.06692, "纬度": 36.790243, "地址": "东二路吉庆家园", "类型": "医疗保健服务;综合医院;卫生院", "省": "山东省", "市": "淄博市", "区县": "张店区", "经度_wgs84": 118.066264, "纬度_wgs84": 36.78534, "一级分类": "医疗" }, "geometry": { "type": "Point", "coordinates": [ 118.066264, 36.78534 ] } },
{ "type": "Feature", "properties": { "类别": "医院", "名称": "高新区华瑞园社区卫生服务站", "经度": 118.060433, "纬度": 36.83306, "地址": "魏北路39号", "类型": "医疗保健服务;综合医院;卫生院", "省": "山东省", "市": "淄博市", "区县": "张店区", "经度_wgs84": 118.059752, "纬度_wgs84": 36.828163, "一级分类": "医疗" }, "geometry": { "type": "Point", "coordinates": [ 118.059752, 36.828163 ] } },
{ "type": "Feature", "properties": { "类别": "医院", "名称": "张店区湖田街道杏园社区卫生服务中心", "经度": 118.07977, "纬度": 36.784988, "地址": "宝丰路41号", "类型": "医疗保健服务;综合医院;卫生院", "省": "山东省", "市": "淄博市", "区县": "张店区", "经度_wgs84": 118.0791, "纬度_wgs84": 36.780076, "一级分类": "医疗" }, "geometry": { "type": "Point", "coordinates": [ 118.0791, 36.780076 ] } },
{ "type": "Feature", "properties": { "类别": "医院", "名称": "科苑街道瑞景苑社区卫生服务站", "经度": 118.0358, "纬度": 36.832894, "地址": "北西六路莲泽苑17号楼", "类型": "医疗保健服务;诊所;诊所", "省": "山东省", "市": "淄博市", "区县": "张店区", "经度_wgs84": 118.035184, "纬度_wgs84": 36.828039, "一级分类": "医疗" }, "geometry": { "type": "Point", "coordinates": [ 118.035184, 36.828039 ] } },
{ "type": "Feature", "properties": { "类别": "医院", "名称": "瑞苑社区卫生服务站", "经度": 118.049638, "纬度": 36.818966, "地址": "柳泉路西三巷58号", "类型": "医疗保健服务;综合医院;卫生院", "省": "山东省", "市": "淄博市", "区县": "张店区", "经度_wgs84": 118.048994, "纬度_wgs84": 36.814085, "一级分类": "医疗" }, "geometry": { "type": "Point", "coordinates": [ 118.048994, 36.814085 ] } },
{ "type": "Feature", "properties": { "类别": "医院", "名称": "机关医院", "经度": 118.020029, "纬度": 36.83421, "地址": "世纪花园幼儿园南门北270米", "类型": "医疗保健服务;综合医院;综合医院", "省": "山东省", "市": "淄博市", "区县": "张店区", "经度_wgs84": 118.019465, "纬度_wgs84": 36.829391, "一级分类": "医疗" }, "geometry": { "type": "Point", "coordinates": [ 118.019465, 36.829391 ] } },
{ "type": "Feature", "properties": { "类别": "医院", "名称": "淄博市中心医院(西院区)", "经度": 117.975134, "纬度": 36.810239, "地址": "上海路10号", "类型": "医疗保健服务;综合医院;三级甲等医院", "省": "山东省", "市": "淄博市", "区县": "张店区", "经度_wgs84": 117.974757, "纬度_wgs84": 36.805534, "一级分类": "医疗" }, "geometry": { "type": "Point", "coordinates": [ 117.974757, 36.805534 ] } },
{ "type": "Feature", "properties": { "类别": "医院", "名称": "张店区公园街道小西湖社区卫生服务站", "经度": 118.030799, "纬度": 36.808573, "地址": "共青团西路122号甲3号", "类型": "医疗保健服务;综合医院;卫生院", "省": "山东省", "市": "淄博市", "区县": "张店区", "经度_wgs84": 118.03022, "纬度_wgs84": 36.803729, "一级分类": "医疗" }, "geometry": { "type": "Point", "coordinates": [ 118.03022, 36.803729 ] } },
{ "type": "Feature", "properties": { "类别": "医院", "名称": "马尚中心卫生院", "经度": 117.995696, "纬度": 36.81971, "地址": "林泽花园南门东南50米", "类型": "医疗保健服务;综合医院;卫生院", "省": "山东省", "市": "淄博市", "区县": "张店区", "经度_wgs84": 117.995235, "纬度_wgs84": 36.814953, "一级分类": "医疗" }, "geometry": { "type": "Point", "coordinates": [ 117.995235, 36.814953 ] } },
{ "type": "Feature", "properties": { "类别": "医院", "名称": "张店区车站街道新华社区卫生服务站", "经度": 118.0324, "纬度": 36.79621, "地址": "和平路27-5号", "类型": "医疗保健服务;综合医院;卫生院", "省": "山东省", "市": "淄博市", "区县": "张店区", "经度_wgs84": 118.031827, "纬度_wgs84": 36.791363, "一级分类": "医疗" }, "geometry": { "type": "Point", "coordinates": [ 118.031827, 36.791363 ] } },
{ "type": "Feature", "properties": { "类别": "医院", "名称": "和平街道体坛社区卫生服务站", "经度": 118.029184, "纬度": 36.80013, "地址": "体坛小区花园1号", "类型": "医疗保健服务;综合医院;卫生院", "省": "山东省", "市": "淄博市", "区县": "张店区", "经度_wgs84": 118.028618, "纬度_wgs84": 36.79529, "一级分类": "医疗" }, "geometry": { "type": "Point", "coordinates": [ 118.028618, 36.79529 ] } },
{ "type": "Feature", "properties": { "类别": "医院", "名称": "淄博市张店民康医院", "经度": 118.081918, "纬度": 36.790369, "地址": "洪沟路37号", "类型": "医疗保健服务;综合医院;综合医院", "省": "山东省", "市": "淄博市", "区县": "张店区", "经度_wgs84": 118.081242, "纬度_wgs84": 36.785457, "一级分类": "医疗" }, "geometry": { "type": "Point", "coordinates": [ 118.081242, 36.785457 ] } },
{ "type": "Feature", "properties": { "类别": "医院", "名称": "北大医疗淄博医院", "经度": 118.041309, "纬度": 36.755311, "地址": "南定镇西山五街2号", "类型": "医疗保健服务;综合医院;综合医院", "省": "山东省", "市": "淄博市", "区县": "张店区", "经度_wgs84": 118.040743, "纬度_wgs84": 36.750447, "一级分类": "医疗" }, "geometry": { "type": "Point", "coordinates": [ 118.040743, 36.750447 ] } },
{ "type": "Feature", "properties": { "类别": "医院", "名称": "张店区马尚镇江南豪庭恒生社区卫生服务站", "经度": 118.017833, "纬度": 36.829203, "地址": "联通路145号甲11号", "类型": "医疗保健服务;综合医院;卫生院", "省": "山东省", "市": "淄博市", "区县": "张店区", "经度_wgs84": 118.017281, "纬度_wgs84": 36.824389, "一级分类": "医疗" }, "geometry": { "type": "Point", "coordinates": [ 118.017281, 36.824389 ] } },
{ "type": "Feature", "properties": { "类别": "医院", "名称": "张店区湖田街道洪沟一居社区卫生服务站", "经度": 118.072083, "纬度": 36.786836, "地址": "杏园东路58号1号楼20号", "类型": "医疗保健服务;综合医院;卫生院", "省": "山东省", "市": "淄博市", "区县": "张店区", "经度_wgs84": 118.071421, "纬度_wgs84": 36.781929, "一级分类": "医疗" }, "geometry": { "type": "Point", "coordinates": [ 118.071421, 36.781929 ] } },
{ "type": "Feature", "properties": { "类别": "医院", "名称": "王舍社区卫生服务站", "经度": 118.039162, "纬度": 36.788861, "地址": "王舍路70号", "类型": "医疗保健服务;综合医院;卫生院", "省": "山东省", "市": "淄博市", "区县": "张店区", "经度_wgs84": 118.038574, "纬度_wgs84": 36.784, "一级分类": "医疗" }, "geometry": { "type": "Point", "coordinates": [ 118.038574, 36.784 ] } },
{ "type": "Feature", "properties": { "类别": "医院", "名称": "张钢社区卫生服务站", "经度": 118.067075, "纬度": 36.815875, "地址": "金晶大道168号甲34号", "类型": "医疗保健服务;综合医院;卫生院", "省": "山东省", "市": "淄博市", "区县": "张店区", "经度_wgs84": 118.066396, "纬度_wgs84": 36.810971, "一级分类": "医疗" }, "geometry": { "type": "Point", "coordinates": [ 118.066396, 36.810971 ] } },
{ "type": "Feature", "properties": { "类别": "医院", "名称": "马尚镇九级村卫生室", "经度": 118.020915, "纬度": 36.818852, "地址": [ ], "类型": "医疗保健服务;诊所;诊所", "省": "山东省", "市": "淄博市", "区县": "张店区", "经度_wgs84": 118.020361, "纬度_wgs84": 36.814031, "一级分类": "医疗" }, "geometry": { "type": "Point", "coordinates": [ 118.020361, 36.814031 ] } },
{ "type": "Feature", "properties": { "类别": "医院", "名称": "张店区科苑街道社区卫生服务中心", "经度": 118.05986, "纬度": 36.823073, "地址": "朝阳街淄博市张店区潘南小学(北校区)", "类型": "医疗保健服务;综合医院;卫生院", "省": "山东省", "市": "淄博市", "区县": "张店区", "经度_wgs84": 118.059189, "纬度_wgs84": 36.818177, "一级分类": "医疗" }, "geometry": { "type": "Point", "coordinates": [ 118.059189, 36.818177 ] } },
{ "type": "Feature", "properties": { "类别": "医院", "名称": "淄博市第三人民医院华侨城社区卫生服务中心", "经度": 118.031746, "纬度": 36.845182, "地址": "鲁泰大道3号", "类型": "医疗保健服务;综合医院;卫生院", "省": "山东省", "市": "淄博市", "区县": "张店区", "经度_wgs84": 118.031132, "纬度_wgs84": 36.840335, "一级分类": "医疗" }, "geometry": { "type": "Point", "coordinates": [ 118.031132, 36.840335 ] } },
{ "type": "Feature", "properties": { "类别": "医院", "名称": "张店区城中社区卫生服务中心", "经度": 118.052492, "纬度": 36.800012, "地址": "新村西路14号", "类型": "医疗保健服务;综合医院;卫生院", "省": "山东省", "市": "淄博市", "区县": "张店区", "经度_wgs84": 118.051858, "纬度_wgs84": 36.795127, "一级分类": "医疗" }, "geometry": { "type": "Point", "coordinates": [ 118.051858, 36.795127 ] } },
{ "type": "Feature", "properties": { "类别": "医院", "名称": "福园社区卫生服务站", "经度": 118.028275, "纬度": 36.806175, "地址": "温馨家园A1-5小区", "类型": "医疗保健服务;综合医院;卫生院", "省": "山东省", "市": "淄博市", "区县": "张店区", "经度_wgs84": 118.027707, "纬度_wgs84": 36.801337, "一级分类": "医疗" }, "geometry": { "type": "Point", "coordinates": [ 118.027707, 36.801337 ] } },
{ "type": "Feature", "properties": { "类别": "医院", "名称": "新青年社区卫生服务站", "经度": 118.061655, "纬度": 36.841696, "地址": "新青年公寓综合楼北10号", "类型": "医疗保健服务;综合医院;卫生院|医疗保健服务;诊所;诊所", "省": "山东省", "市": "淄博市", "区县": "张店区", "经度_wgs84": 118.060963, "纬度_wgs84": 36.836797, "一级分类": "医疗" }, "geometry": { "type": "Point", "coordinates": [ 118.060963, 36.836797 ] } },
{ "type": "Feature", "properties": { "类别": "医院", "名称": "张店区湖田街道福昇社区卫生服务站", "经度": 118.071007, "纬度": 36.788078, "地址": "杏园东路77号", "类型": "医疗保健服务;综合医院;卫生院", "省": "山东省", "市": "淄博市", "区县": "张店区", "经度_wgs84": 118.070346, "纬度_wgs84": 36.783172, "一级分类": "医疗" }, "geometry": { "type": "Point", "coordinates": [ 118.070346, 36.783172 ] } },
{ "type": "Feature", "properties": { "类别": "医院", "名称": "张店区和平街道和平社区卫生服务站", "经度": 118.039465, "纬度": 36.798486, "地址": "和平路和平街道办事处和平社区居委会", "类型": "医疗保健服务;综合医院;卫生院", "省": "山东省", "市": "淄博市", "区县": "张店区", "经度_wgs84": 118.038868, "纬度_wgs84": 36.793624, "一级分类": "医疗" }, "geometry": { "type": "Point", "coordinates": [ 118.038868, 36.793624 ] } },
{ "type": "Feature", "properties": { "类别": "医院", "名称": "凯瑞安园社区卫生服务站", "经度": 118.022849, "纬度": 36.812451, "地址": "凯瑞安园生活区13号楼西", "类型": "医疗保健服务;综合医院;卫生院", "省": "山东省", "市": "淄博市", "区县": "张店区", "经度_wgs84": 118.022294, "纬度_wgs84": 36.807625, "一级分类": "医疗" }, "geometry": { "type": "Point", "coordinates": [ 118.022294, 36.807625 ] } },
{ "type": "Feature", "properties": { "类别": "医院", "名称": "淄博高新区四宝山街道时代名都社区卫生服务站", "经度": 118.043368, "纬度": 36.839213, "地址": "张桓路77号", "类型": "医疗保健服务;综合医院;卫生院|医疗保健服务;诊所;诊所", "省": "山东省", "市": "淄博市", "区县": "张店区", "经度_wgs84": 118.042723, "纬度_wgs84": 36.834342, "一级分类": "医疗" }, "geometry": { "type": "Point", "coordinates": [ 118.042723, 36.834342 ] } },
{ "type": "Feature", "properties": { "类别": "医院", "名称": "齐林家园社区卫生服务站", "经度": 118.030609, "纬度": 36.789588, "地址": "王舍路229号1楼", "类型": "医疗保健服务;综合医院;卫生院", "省": "山东省", "市": "淄博市", "区县": "张店区", "经度_wgs84": 118.030047, "纬度_wgs84": 36.784745, "一级分类": "医疗" }, "geometry": { "type": "Point", "coordinates": [ 118.030047, 36.784745 ] } },
{ "type": "Feature", "properties": { "类别": "医院", "名称": "淄博高新区四宝山街道盛世名苑社区卫生服务站", "经度": 118.037414, "纬度": 36.842974, "地址": "裕桥花园西门北220米", "类型": "医疗保健服务;综合医院;卫生院", "省": "山东省", "市": "淄博市", "区县": "张店区", "经度_wgs84": 118.036784, "纬度_wgs84": 36.838115, "一级分类": "医疗" }, "geometry": { "type": "Point", "coordinates": [ 118.036784, 36.838115 ] } },
{ "type": "Feature", "properties": { "类别": "医院", "名称": "张店区房镇镇卫生院", "经度": 118.000737, "纬度": 36.846624, "地址": "天乙路66-2号", "类型": "医疗保健服务;综合医院;卫生院", "省": "山东省", "市": "淄博市", "区县": "张店区", "经度_wgs84": 118.000233, "纬度_wgs84": 36.841854, "一级分类": "医疗" }, "geometry": { "type": "Point", "coordinates": [ 118.000233, 36.841854 ] } },
{ "type": "Feature", "properties": { "类别": "医院", "名称": "恒兴花园社区卫生服务站", "经度": 118.017824, "纬度": 36.820004, "地址": "恒兴花园东门旁", "类型": "医疗保健服务;综合医院;卫生院", "省": "山东省", "市": "淄博市", "区县": "张店区", "经度_wgs84": 118.01728, "纬度_wgs84": 36.81519, "一级分类": "医疗" }, "geometry": { "type": "Point", "coordinates": [ 118.01728, 36.81519 ] } },
{ "type": "Feature", "properties": { "类别": "医院", "名称": "淄博市中医医院柳泉路院区扁鹊国医堂", "经度": 118.053393, "纬度": 36.827665, "地址": "科苑街道柳泉路85号淄博市第七人民医院", "类型": "医疗保健服务;医疗保健服务场所;医疗保健服务场所", "省": "山东省", "市": "淄博市", "区县": "张店区", "经度_wgs84": 118.052732, "纬度_wgs84": 36.822778, "一级分类": "医疗" }, "geometry": { "type": "Point", "coordinates": [ 118.052732, 36.822778 ] } },
{ "type": "Feature", "properties": { "类别": "医院", "名称": "湖田医院", "经度": 118.117309, "纬度": 36.790442, "地址": "湖光路7号", "类型": "医疗保健服务;综合医院;卫生院", "省": "山东省", "市": "淄博市", "区县": "张店区", "经度_wgs84": 118.116634, "纬度_wgs84": 36.785546, "一级分类": "医疗" }, "geometry": { "type": "Point", "coordinates": [ 118.116634, 36.785546 ] } },
{ "type": "Feature", "properties": { "类别": "医院", "名称": "张店区体育场街道兴乔社区卫生服务站", "经度": 118.076705, "纬度": 36.808956, "地址": "体育场街道人民东路33甲24号东城华府1号楼", "类型": "医疗保健服务;综合医院;卫生院", "省": "山东省", "市": "淄博市", "区县": "张店区", "经度_wgs84": 118.076018, "纬度_wgs84": 36.804045, "一级分类": "医疗" }, "geometry": { "type": "Point", "coordinates": [ 118.076018, 36.804045 ] } },
{ "type": "Feature", "properties": { "类别": "医院", "名称": "车站街道工盛社区卫生服务站", "经度": 118.052959, "纬度": 36.787561, "地址": "工盛社区锦园小区9号楼北侧", "类型": "医疗保健服务;综合医院;卫生院", "省": "山东省", "市": "淄博市", "区县": "张店区", "经度_wgs84": 118.052334, "纬度_wgs84": 36.782676, "一级分类": "医疗" }, "geometry": { "type": "Point", "coordinates": [ 118.052334, 36.782676 ] } },
{ "type": "Feature", "properties": { "类别": "医院", "名称": "小西湖社区卫生服务站门诊部", "经度": 118.030819, "纬度": 36.808564, "地址": "共青团西路122号甲3号张店区公园街道小西湖社区卫生服务站", "类型": "医疗保健服务;综合医院;卫生院", "省": "山东省", "市": "淄博市", "区县": "张店区", "经度_wgs84": 118.03024, "纬度_wgs84": 36.80372, "一级分类": "医疗" }, "geometry": { "type": "Point", "coordinates": [ 118.03024, 36.80372 ] } },
{ "type": "Feature", "properties": { "类别": "医院", "名称": "淄博市张店区南定镇白家村卫生室", "经度": 118.057868, "纬度": 36.777145, "地址": "安康佳园南区东2门东北50米", "类型": "医疗保健服务;诊所;诊所", "省": "山东省", "市": "淄博市", "区县": "张店区", "经度_wgs84": 118.057241, "纬度_wgs84": 36.772253, "一级分类": "医疗" }, "geometry": { "type": "Point", "coordinates": [ 118.057241, 36.772253 ] } },
{ "type": "Feature", "properties": { "类别": "医院", "名称": "太平社区卫生服务站(淄博市国土资源局张店分局南)", "经度": 118.044005, "纬度": 36.799622, "地址": "西四路和平街道", "类型": "医疗保健服务;综合医院;卫生院", "省": "山东省", "市": "淄博市", "区县": "张店区", "经度_wgs84": 118.043393, "纬度_wgs84": 36.794751, "一级分类": "医疗" }, "geometry": { "type": "Point", "coordinates": [ 118.043393, 36.794751 ] } },
{ "type": "Feature", "properties": { "类别": "医院", "名称": "张辛社区卫生所", "经度": 118.05739, "纬度": 36.808764, "地址": "金晶大道西四巷与西二路交叉口东140米", "类型": "医疗保健服务;诊所;诊所", "省": "山东省", "市": "淄博市", "区县": "张店区", "经度_wgs84": 118.056737, "纬度_wgs84": 36.803872, "一级分类": "医疗" }, "geometry": { "type": "Point", "coordinates": [ 118.056737, 36.803872 ] } },
{ "type": "Feature", "properties": { "类别": "医院", "名称": "张店区马尚镇紫园社区卫生服务站", "经度": 118.01395, "纬度": 36.798024, "地址": "紫馨园北1门旁", "类型": "医疗保健服务;综合医院;卫生院", "省": "山东省", "市": "淄博市", "区县": "张店区", "经度_wgs84": 118.01344, "纬度_wgs84": 36.793221, "一级分类": "医疗" }, "geometry": { "type": "Point", "coordinates": [ 118.01344, 36.793221 ] } },
{ "type": "Feature", "properties": { "类别": "医院", "名称": "淄博广电医院(急救站)", "经度": 118.048024, "纬度": 36.815648, "地址": "柳泉路西二巷10号", "类型": "医疗保健服务;综合医院;综合医院", "省": "山东省", "市": "淄博市", "区县": "张店区", "经度_wgs84": 118.047387, "纬度_wgs84": 36.81077, "一级分类": "医疗" }, "geometry": { "type": "Point", "coordinates": [ 118.047387, 36.81077 ] } },
{ "type": "Feature", "properties": { "类别": "医院", "名称": "张店区和平街道桃园社区卫生服务站", "经度": 118.043055, "纬度": 36.796257, "地址": "和平路9号甲1号", "类型": "医疗保健服务;综合医院;卫生院", "省": "山东省", "市": "淄博市", "区县": "张店区", "经度_wgs84": 118.042449, "纬度_wgs84": 36.791388, "一级分类": "医疗" }, "geometry": { "type": "Point", "coordinates": [ 118.042449, 36.791388 ] } },
{ "type": "Feature", "properties": { "类别": "医院", "名称": "张店区马尚镇尚文苑社区卫生服务站", "经度": 118.003204, "纬度": 36.804574, "地址": "新村路尚文苑", "类型": "医疗保健服务;综合医院;卫生院", "省": "山东省", "市": "淄博市", "区县": "张店区", "经度_wgs84": 118.002728, "纬度_wgs84": 36.799798, "一级分类": "医疗" }, "geometry": { "type": "Point", "coordinates": [ 118.002728, 36.799798 ] } },
{ "type": "Feature", "properties": { "类别": "医院", "名称": "淄博市龙砂中医研究院", "经度": 118.014552, "纬度": 36.821961, "地址": "华光路159号甲12号", "类型": "医疗保健服务;诊所;诊所", "省": "山东省", "市": "淄博市", "区县": "张店区", "经度_wgs84": 118.014019, "纬度_wgs84": 36.817156, "一级分类": "医疗" }, "geometry": { "type": "Point", "coordinates": [ 118.014019, 36.817156 ] } },
{ "type": "Feature", "properties": { "类别": "医院", "名称": "龙凤苑社区卫生服务站", "经度": 118.008381, "纬度": 36.832252, "地址": "联通路", "类型": "医疗保健服务;综合医院;卫生院", "省": "山东省", "市": "淄博市", "区县": "张店区", "经度_wgs84": 118.007861, "纬度_wgs84": 36.827462, "一级分类": "医疗" }, "geometry": { "type": "Point", "coordinates": [ 118.007861, 36.827462 ] } },
{ "type": "Feature", "properties": { "类别": "医院", "名称": "张店盛康医院", "经度": 118.044141, "纬度": 36.826444, "地址": "明清街北首", "类型": "医疗保健服务;综合医院;综合医院", "省": "山东省", "市": "淄博市", "区县": "张店区", "经度_wgs84": 118.043506, "纬度_wgs84": 36.821572, "一级分类": "医疗" }, "geometry": { "type": "Point", "coordinates": [ 118.043506, 36.821572 ] } },
{ "type": "Feature", "properties": { "类别": "医院", "名称": "马尚街道西寨社区卫生室", "经度": 118.011488, "纬度": 36.800726, "地址": "名仕城-南区西门旁", "类型": "医疗保健服务;诊所;诊所", "省": "山东省", "市": "淄博市", "区县": "张店区", "经度_wgs84": 118.010984, "纬度_wgs84": 36.795929, "一级分类": "医疗" }, "geometry": { "type": "Point", "coordinates": [ 118.010984, 36.795929 ] } },
{ "type": "Feature", "properties": { "类别": "医院", "名称": "淄博震中中医院", "经度": 118.032777, "纬度": 36.755912, "地址": "山泉路133号", "类型": "医疗保健服务;综合医院;综合医院", "省": "山东省", "市": "淄博市", "区县": "张店区", "经度_wgs84": 118.032237, "纬度_wgs84": 36.751065, "一级分类": "医疗" }, "geometry": { "type": "Point", "coordinates": [ 118.032237, 36.751065 ] } },
{ "type": "Feature", "properties": { "类别": "医院", "名称": "淄博经开区南定镇马庄村卫生室", "经度": 118.045816, "纬度": 36.773697, "地址": "南定镇马庄村", "类型": "医疗保健服务;诊所;诊所", "省": "山东省", "市": "淄博市", "区县": "张店区", "经度_wgs84": 118.045222, "纬度_wgs84": 36.768824, "一级分类": "医疗" }, "geometry": { "type": "Point", "coordinates": [ 118.045222, 36.768824 ] } },
{ "type": "Feature", "properties": { "类别": "医院", "名称": "淄博市中西医结合医院新王舍卫生所", "经度": 118.036268, "纬度": 36.789587, "地址": "新王舍铁路小区南门20米", "类型": "医疗保健服务;诊所;诊所", "省": "山东省", "市": "淄博市", "区县": "张店区", "经度_wgs84": 118.035688, "纬度_wgs84": 36.784732, "一级分类": "医疗" }, "geometry": { "type": "Point", "coordinates": [ 118.035688, 36.784732 ] } },
{ "type": "Feature", "properties": { "类别": "医院", "名称": "中德亚运村社区卫生服务站", "经度": 118.062684, "纬度": 36.855087, "地址": "柳泉路四宝山街道", "类型": "医疗保健服务;综合医院;卫生院", "省": "山东省", "市": "淄博市", "区县": "张店区", "经度_wgs84": 118.061978, "纬度_wgs84": 36.850187, "一级分类": "医疗" }, "geometry": { "type": "Point", "coordinates": [ 118.061978, 36.850187 ] } },
{ "type": "Feature", "properties": { "类别": "医院", "名称": "淄博高新区四宝山街道华侨城南社区卫生服务站", "经度": 118.030823, "纬度": 36.836324, "地址": "中润华侨城", "类型": "医疗保健服务;综合医院;卫生院", "省": "山东省", "市": "淄博市", "区县": "张店区", "经度_wgs84": 118.03022, "纬度_wgs84": 36.831479, "一级分类": "医疗" }, "geometry": { "type": "Point", "coordinates": [ 118.03022, 36.831479 ] } },
{ "type": "Feature", "properties": { "类别": "医院", "名称": "张店区房镇镇橡树湾社区卫生服务站", "经度": 118.00097, "纬度": 36.837615, "地址": "丰泰路凤凰国际15-8", "类型": "医疗保健服务;诊所;诊所", "省": "山东省", "市": "淄博市", "区县": "张店区", "经度_wgs84": 118.000473, "纬度_wgs84": 36.832844, "一级分类": "医疗" }, "geometry": { "type": "Point", "coordinates": [ 118.000473, 36.832844 ] } },
{ "type": "Feature", "properties": { "类别": "医院", "名称": "张店区公园街道社区卫生服务中心", "经度": 118.056015, "纬度": 36.811647, "地址": "西二路265号", "类型": "医疗保健服务;综合医院;卫生院", "省": "山东省", "市": "淄博市", "区县": "张店区", "经度_wgs84": 118.055362, "纬度_wgs84": 36.806756, "一级分类": "医疗" }, "geometry": { "type": "Point", "coordinates": [ 118.055362, 36.806756 ] } },
{ "type": "Feature", "properties": { "类别": "医院", "名称": "祥瑞花园社区卫生服务站", "经度": 118.008778, "纬度": 36.824836, "地址": "马尚镇", "类型": "医疗保健服务;综合医院;卫生院", "省": "山东省", "市": "淄博市", "区县": "张店区", "经度_wgs84": 118.008263, "纬度_wgs84": 36.820045, "一级分类": "医疗" }, "geometry": { "type": "Point", "coordinates": [ 118.008263, 36.820045 ] } },
{ "type": "Feature", "properties": { "类别": "医院", "名称": "湖田街道福兴社区卫生服务站", "经度": 118.078077, "纬度": 36.788465, "地址": "洪沟社区东南门东北90米", "类型": "医疗保健服务;综合医院;卫生院", "省": "山东省", "市": "淄博市", "区县": "张店区", "经度_wgs84": 118.077406, "纬度_wgs84": 36.783554, "一级分类": "医疗" }, "geometry": { "type": "Point", "coordinates": [ 118.077406, 36.783554 ] } },
{ "type": "Feature", "properties": { "类别": "医院", "名称": "潘苑社区卫生服务站", "经度": 118.061647, "纬度": 36.818785, "地址": "淄博市妇幼保健院华光路院区西北侧", "类型": "医疗保健服务;综合医院;卫生院", "省": "山东省", "市": "淄博市", "区县": "张店区", "经度_wgs84": 118.060976, "纬度_wgs84": 36.813887, "一级分类": "医疗" }, "geometry": { "type": "Point", "coordinates": [ 118.060976, 36.813887 ] } },
{ "type": "Feature", "properties": { "类别": "医院", "名称": "杜科村卫生所", "经度": 118.073058, "纬度": 36.804682, "地址": "东三路6号甲5号", "类型": "医疗保健服务;诊所;诊所", "省": "山东省", "市": "淄博市", "区县": "张店区", "经度_wgs84": 118.07238, "纬度_wgs84": 36.799774, "一级分类": "医疗" }, "geometry": { "type": "Point", "coordinates": [ 118.07238, 36.799774 ] } },
{ "type": "Feature", "properties": { "类别": "医院", "名称": "张二村卫生室", "经度": 118.095516, "纬度": 36.770176, "地址": "昌国路沣水一小北200米", "类型": "医疗保健服务;诊所;诊所", "省": "山东省", "市": "淄博市", "区县": "张店区", "经度_wgs84": 118.09485, "纬度_wgs84": 36.765264, "一级分类": "医疗" }, "geometry": { "type": "Point", "coordinates": [ 118.09485, 36.765264 ] } },
{ "type": "Feature", "properties": { "类别": "医院", "名称": "淄博经济开发区盛世康城社区卫生服务站", "经度": 118.02205, "纬度": 36.780628, "地址": "复兴路盛世康城", "类型": "医疗保健服务;综合医院;卫生院", "省": "山东省", "市": "淄博市", "区县": "张店区", "经度_wgs84": 118.021525, "纬度_wgs84": 36.775805, "一级分类": "医疗" }, "geometry": { "type": "Point", "coordinates": [ 118.021525, 36.775805 ] } },
{ "type": "Feature", "properties": { "类别": "医院", "名称": "淄博心康医院", "经度": 118.056193, "纬度": 36.853944, "地址": "兰雁大道27号", "类型": "医疗保健服务;医疗保健服务场所;医疗保健服务场所", "省": "山东省", "市": "淄博市", "区县": "张店区", "经度_wgs84": 118.055502, "纬度_wgs84": 36.849052, "一级分类": "医疗" }, "geometry": { "type": "Point", "coordinates": [ 118.055502, 36.849052 ] } },
{ "type": "Feature", "properties": { "类别": "医院", "名称": "张店区中医院体育场社区", "经度": 118.075946, "纬度": 36.814713, "地址": "东三路与潘南路交叉口北260米", "类型": "医疗保健服务;综合医院;综合医院", "省": "山东省", "市": "淄博市", "区县": "张店区", "经度_wgs84": 118.075255, "纬度_wgs84": 36.809802, "一级分类": "医疗" }, "geometry": { "type": "Point", "coordinates": [ 118.075255, 36.809802 ] } },
{ "type": "Feature", "properties": { "类别": "医院", "名称": "马尚镇西南村卫生室", "经度": 117.994427, "纬度": 36.799658, "地址": "创业学府花园南门东70米", "类型": "医疗保健服务;诊所;诊所", "省": "山东省", "市": "淄博市", "区县": "张店区", "经度_wgs84": 117.993989, "纬度_wgs84": 36.794905, "一级分类": "医疗" }, "geometry": { "type": "Point", "coordinates": [ 117.993989, 36.794905 ] } },
{ "type": "Feature", "properties": { "类别": "医院", "名称": "西寨社区第二卫生室", "经度": 118.015262, "纬度": 36.797987, "地址": "和平路与西寨街交叉口东100米", "类型": "医疗保健服务;诊所;诊所", "省": "山东省", "市": "淄博市", "区县": "张店区", "经度_wgs84": 118.014747, "纬度_wgs84": 36.793181, "一级分类": "医疗" }, "geometry": { "type": "Point", "coordinates": [ 118.014747, 36.793181 ] } },
{ "type": "Feature", "properties": { "类别": "医院", "名称": "远景花园社区卫生服务站", "经度": 118.014394, "纬度": 36.840682, "地址": "南京路与丰安路交叉口东140米", "类型": "医疗保健服务;综合医院;卫生院", "省": "山东省", "市": "淄博市", "区县": "张店区", "经度_wgs84": 118.013845, "纬度_wgs84": 36.835876, "一级分类": "医疗" }, "geometry": { "type": "Point", "coordinates": [ 118.013845, 36.835876 ] } },
{ "type": "Feature", "properties": { "类别": "医院", "名称": "张店区中医院住院处", "经度": 118.049775, "纬度": 36.801025, "地址": "淄博市张店区中医院", "类型": "医疗保健服务;综合医院;综合医院", "省": "山东省", "市": "淄博市", "区县": "张店区", "经度_wgs84": 118.049147, "纬度_wgs84": 36.796144, "一级分类": "医疗" }, "geometry": { "type": "Point", "coordinates": [ 118.049147, 36.796144 ] } },
{ "type": "Feature", "properties": { "类别": "医院", "名称": "张店区公园街道商园社区卫生服务站", "经度": 118.058148, "纬度": 36.803294, "地址": "城中西内环路与美食街交叉口东北180米", "类型": "医疗保健服务;综合医院;卫生院", "省": "山东省", "市": "淄博市", "区县": "张店区", "经度_wgs84": 118.057498, "纬度_wgs84": 36.798401, "一级分类": "医疗" }, "geometry": { "type": "Point", "coordinates": [ 118.057498, 36.798401 ] } },
{ "type": "Feature", "properties": { "类别": "医院", "名称": "经开区南定朝阳社区卫生服务站", "经度": 118.050456, "纬度": 36.77042, "地址": "朝阳路1号院附近", "类型": "医疗保健服务;诊所;诊所", "省": "山东省", "市": "淄博市", "区县": "张店区", "经度_wgs84": 118.049852, "纬度_wgs84": 36.765539, "一级分类": "医疗" }, "geometry": { "type": "Point", "coordinates": [ 118.049852, 36.765539 ] } },
{ "type": "Feature", "properties": { "类别": "医院", "名称": "齐鲁医药学院教学医院", "经度": 118.049804, "纬度": 36.820264, "地址": "华光路79号银领国际", "类型": "医疗保健服务;综合医院;综合医院", "省": "山东省", "市": "淄博市", "区县": "张店区", "经度_wgs84": 118.049159, "纬度_wgs84": 36.815383, "一级分类": "医疗" }, "geometry": { "type": "Point", "coordinates": [ 118.049159, 36.815383 ] } },
{ "type": "Feature", "properties": { "类别": "医院", "名称": "四季青医院西院区", "经度": 117.972697, "纬度": 36.835747, "地址": "房镇镇房东新村齐盛路天津路路口西北角", "类型": "医疗保健服务;综合医院;综合医院", "省": "山东省", "市": "淄博市", "区县": "张店区", "经度_wgs84": 117.972306, "纬度_wgs84": 36.831047, "一级分类": "医疗" }, "geometry": { "type": "Point", "coordinates": [ 117.972306, 36.831047 ] } },
{ "type": "Feature", "properties": { "类别": "医院", "名称": "张店区湖田街道新苑社区卫生服务站", "经度": 118.070125, "纬度": 36.778975, "地址": "昌国路163号", "类型": "医疗保健服务;医疗保健服务场所;医疗保健服务场所", "省": "山东省", "市": "淄博市", "区县": "张店区", "经度_wgs84": 118.069473, "纬度_wgs84": 36.77407, "一级分类": "医疗" }, "geometry": { "type": "Point", "coordinates": [ 118.069473, 36.77407 ] } },
{ "type": "Feature", "properties": { "类别": "医院", "名称": "淄博轴承厂卫生所", "经度": 118.060303, "纬度": 36.769222, "地址": "朝阳路11号", "类型": "医疗保健服务;诊所;诊所", "省": "山东省", "市": "淄博市", "区县": "张店区", "经度_wgs84": 118.059677, "纬度_wgs84": 36.764327, "一级分类": "医疗" }, "geometry": { "type": "Point", "coordinates": [ 118.059677, 36.764327 ] } },
{ "type": "Feature", "properties": { "类别": "医院", "名称": "淄博市张店区傅家镇卫生院", "经度": 118.000376, "纬度": 36.761537, "地址": "华福大道傅家镇政府斜对面", "类型": "医疗保健服务;综合医院;卫生院", "省": "山东省", "市": "淄博市", "区县": "张店区", "经度_wgs84": 117.999948, "纬度_wgs84": 36.75677, "一级分类": "医疗" }, "geometry": { "type": "Point", "coordinates": [ 117.999948, 36.75677 ] } },
{ "type": "Feature", "properties": { "类别": "医院", "名称": "通济花园社区卫生服务站", "经度": 118.026865, "纬度": 36.797581, "地址": "和平街道和平路39-6号", "类型": "医疗保健服务;综合医院;卫生院", "省": "山东省", "市": "淄博市", "区县": "张店区", "经度_wgs84": 118.026309, "纬度_wgs84": 36.792746, "一级分类": "医疗" }, "geometry": { "type": "Point", "coordinates": [ 118.026309, 36.792746 ] } },
{ "type": "Feature", "properties": { "类别": "医院", "名称": "张店区马尚街道学府花园社区卫生服务站", "经度": 117.997322, "纬度": 36.799025, "地址": "和平路19甲15号16号", "类型": "医疗保健服务;综合医院;卫生院", "省": "山东省", "市": "淄博市", "区县": "张店区", "经度_wgs84": 117.996873, "纬度_wgs84": 36.794265, "一级分类": "医疗" }, "geometry": { "type": "Point", "coordinates": [ 117.996873, 36.794265 ] } },
{ "type": "Feature", "properties": { "类别": "医院", "名称": "张店区商品街卫生所", "经度": 118.046171, "纬度": 36.804602, "地址": "公园新村小学东南门旁", "类型": "医疗保健服务;诊所;诊所", "省": "山东省", "市": "淄博市", "区县": "张店区", "经度_wgs84": 118.045549, "纬度_wgs84": 36.799727, "一级分类": "医疗" }, "geometry": { "type": "Point", "coordinates": [ 118.045549, 36.799727 ] } },
{ "type": "Feature", "properties": { "类别": "医院", "名称": "张店区南定镇卫生院", "经度": 118.04596, "纬度": 36.745646, "地址": "张南路", "类型": "医疗保健服务;综合医院;卫生院", "省": "山东省", "市": "淄博市", "区县": "张店区", "经度_wgs84": 118.045389, "纬度_wgs84": 36.740773, "一级分类": "医疗" }, "geometry": { "type": "Point", "coordinates": [ 118.045389, 36.740773 ] } },
{ "type": "Feature", "properties": { "类别": "医院", "名称": "瑞景苑美达花园社区卫生服务站", "经度": 118.031217, "纬度": 36.83122, "地址": "莲池村中心路美达花园", "类型": "医疗保健服务;综合医院;卫生院", "省": "山东省", "市": "淄博市", "区县": "张店区", "经度_wgs84": 118.030617, "纬度_wgs84": 36.826375, "一级分类": "医疗" }, "geometry": { "type": "Point", "coordinates": [ 118.030617, 36.826375 ] } },
{ "type": "Feature", "properties": { "类别": "医院", "名称": "中润华侨城世纪路社区卫生服务站", "经度": 118.027294, "纬度": 36.841908, "地址": "世纪路中润华侨城", "类型": "医疗保健服务;综合医院;卫生院", "省": "山东省", "市": "淄博市", "区县": "张店区", "经度_wgs84": 118.026698, "纬度_wgs84": 36.837071, "一级分类": "医疗" }, "geometry": { "type": "Point", "coordinates": [ 118.026698, 36.837071 ] } },
{ "type": "Feature", "properties": { "类别": "医院", "名称": "张店区傅家镇小徐村卫生室", "经度": 118.022719, "纬度": 36.768723, "地址": "傅家镇世纪路南首", "类型": "医疗保健服务;诊所;诊所", "省": "山东省", "市": "淄博市", "区县": "张店区", "经度_wgs84": 118.022202, "纬度_wgs84": 36.763899, "一级分类": "医疗" }, "geometry": { "type": "Point", "coordinates": [ 118.022202, 36.763899 ] } },
{ "type": "Feature", "properties": { "类别": "医院", "名称": "银泰城社区卫生服务站", "经度": 118.036052, "纬度": 36.850396, "地址": "名尚国际南门旁", "类型": "医疗保健服务;综合医院;卫生院", "省": "山东省", "市": "淄博市", "区县": "张店区", "经度_wgs84": 118.035419, "纬度_wgs84": 36.84554, "一级分类": "医疗" }, "geometry": { "type": "Point", "coordinates": [ 118.035419, 36.84554 ] } },
{ "type": "Feature", "properties": { "类别": "医院", "名称": "体育场街道广场社区卫生服务站", "经度": 118.067145, "纬度": 36.801805, "地址": "东一路东二巷27号", "类型": "医疗保健服务;综合医院;卫生院", "省": "山东省", "市": "淄博市", "区县": "张店区", "经度_wgs84": 118.066478, "纬度_wgs84": 36.796902, "一级分类": "医疗" }, "geometry": { "type": "Point", "coordinates": [ 118.066478, 36.796902 ] } },
{ "type": "Feature", "properties": { "类别": "医院", "名称": "淄博烟草金建工贸有限公司卫生所", "经度": 118.084896, "纬度": 36.789511, "地址": "洪沟路24号", "类型": "医疗保健服务;诊所;诊所", "省": "山东省", "市": "淄博市", "区县": "张店区", "经度_wgs84": 118.084218, "纬度_wgs84": 36.784598, "一级分类": "医疗" }, "geometry": { "type": "Point", "coordinates": [ 118.084218, 36.784598 ] } },
{ "type": "Feature", "properties": { "类别": "医院", "名称": "张店区中医院发热门诊", "经度": 118.050272, "纬度": 36.80086, "地址": "新村西路28号张店区中医院", "类型": "医疗保健服务;综合医院;综合医院", "省": "山东省", "市": "淄博市", "区县": "张店区", "经度_wgs84": 118.049642, "纬度_wgs84": 36.795979, "一级分类": "医疗" }, "geometry": { "type": "Point", "coordinates": [ 118.049642, 36.795979 ] } },
{ "type": "Feature", "properties": { "类别": "医院", "名称": "北马庄卫生室", "经度": 118.099654, "纬度": 36.84993, "地址": "民祥路与宝山路交叉口西160米", "类型": "医疗保健服务;诊所;诊所", "省": "山东省", "市": "淄博市", "区县": "张店区", "经度_wgs84": 118.098918, "纬度_wgs84": 36.845017, "一级分类": "医疗" }, "geometry": { "type": "Point", "coordinates": [ 118.098918, 36.845017 ] } },
{ "type": "Feature", "properties": { "类别": "医院", "名称": "张店区中医院煎药中心", "经度": 118.050825, "纬度": 36.799425, "地址": "龙韵大厦西门旁", "类型": "医疗保健服务;医疗保健服务场所;医疗保健服务场所", "省": "山东省", "市": "淄博市", "区县": "张店区", "经度_wgs84": 118.050195, "纬度_wgs84": 36.794543, "一级分类": "医疗" }, "geometry": { "type": "Point", "coordinates": [ 118.050195, 36.794543 ] } },
{ "type": "Feature", "properties": { "类别": "医院", "名称": "淄博高新康宁医院", "经度": 118.06959, "纬度": 36.857734, "地址": "北营金鑫园(青银高速公路南)", "类型": "医疗保健服务;综合医院;综合医院", "省": "山东省", "市": "淄博市", "区县": "张店区", "经度_wgs84": 118.06887, "纬度_wgs84": 36.852827, "一级分类": "医疗" }, "geometry": { "type": "Point", "coordinates": [ 118.06887, 36.852827 ] } },
{ "type": "Feature", "properties": { "类别": "医院", "名称": "张店区马尚镇龙泰苑社区卫生服务站", "经度": 118.000838, "纬度": 36.833344, "地址": "民泰·龙泰苑A区北门西220米", "类型": "医疗保健服务;综合医院;卫生院", "省": "山东省", "市": "淄博市", "区县": "张店区", "经度_wgs84": 118.000346, "纬度_wgs84": 36.828574, "一级分类": "医疗" }, "geometry": { "type": "Point", "coordinates": [ 118.000346, 36.828574 ] } },
{ "type": "Feature", "properties": { "类别": "医院", "名称": "淄博高新区石桥中心医院", "经度": 118.045962, "纬度": 36.886421, "地址": "石桥镇北石村", "类型": "医疗保健服务;综合医院;综合医院", "省": "山东省", "市": "淄博市", "区县": "张店区", "经度_wgs84": 118.045268, "纬度_wgs84": 36.881544, "一级分类": "医疗" }, "geometry": { "type": "Point", "coordinates": [ 118.045268, 36.881544 ] } },
{ "type": "Feature", "properties": { "类别": "医院", "名称": "颐丰花园社区卫生服务站", "经度": 118.000528, "纬度": 36.840121, "地址": "丰泰路颐丰花园", "类型": "医疗保健服务;综合医院;卫生院", "省": "山东省", "市": "淄博市", "区县": "张店区", "经度_wgs84": 118.000031, "纬度_wgs84": 36.835351, "一级分类": "医疗" }, "geometry": { "type": "Point", "coordinates": [ 118.000031, 36.835351 ] } },
{ "type": "Feature", "properties": { "类别": "医院", "名称": "柳毅社区卫生服务站", "经度": 118.083995, "纬度": 36.810659, "地址": "和山苑13号楼2", "类型": "医疗保健服务;综合医院;卫生院", "省": "山东省", "市": "淄博市", "区县": "张店区", "经度_wgs84": 118.083299, "纬度_wgs84": 36.805745, "一级分类": "医疗" }, "geometry": { "type": "Point", "coordinates": [ 118.083299, 36.805745 ] } },
{ "type": "Feature", "properties": { "类别": "医院", "名称": "张店区沣水中心卫生院", "经度": 118.091631, "纬度": 36.752094, "地址": "汇沣路2号", "类型": "医疗保健服务;综合医院;卫生院", "省": "山东省", "市": "淄博市", "区县": "张店区", "经度_wgs84": 118.090981, "纬度_wgs84": 36.747182, "一级分类": "医疗" }, "geometry": { "type": "Point", "coordinates": [ 118.090981, 36.747182 ] } },
{ "type": "Feature", "properties": { "类别": "医院", "名称": "山东省手足外科医院(淄博分院)", "经度": 118.059496, "纬度": 36.793906, "地址": "金晶大道8号", "类型": "医疗保健服务;综合医院;三级甲等医院", "省": "山东省", "市": "淄博市", "区县": "张店区", "经度_wgs84": 118.058851, "纬度_wgs84": 36.789011, "一级分类": "医疗" }, "geometry": { "type": "Point", "coordinates": [ 118.058851, 36.789011 ] } },
{ "type": "Feature", "properties": { "类别": "医院", "名称": "张店区马尚镇冢子坡村卫生所", "经度": 118.015304, "纬度": 36.811371, "地址": "祥和路164号", "类型": "医疗保健服务;诊所;诊所", "省": "山东省", "市": "淄博市", "区县": "张店区", "经度_wgs84": 118.014777, "纬度_wgs84": 36.806564, "一级分类": "医疗" }, "geometry": { "type": "Point", "coordinates": [ 118.014777, 36.806564 ] } },
{ "type": "Feature", "properties": { "类别": "医院", "名称": "山东省中医药预防保健中心", "经度": 118.058473, "纬度": 36.793695, "地址": "淄博市中西医结合医院西门南50米", "类型": "医疗保健服务;医疗保健服务场所;医疗保健服务场所", "省": "山东省", "市": "淄博市", "区县": "张店区", "经度_wgs84": 118.05783, "纬度_wgs84": 36.788802, "一级分类": "医疗" }, "geometry": { "type": "Point", "coordinates": [ 118.05783, 36.788802 ] } },
{ "type": "Feature", "properties": { "类别": "医院", "名称": "东南村卫生室", "经度": 118.000527, "纬度": 36.800535, "地址": "马尚东南村南苑东南门旁", "类型": "医疗保健服务;诊所;诊所", "省": "山东省", "市": "淄博市", "区县": "张店区", "经度_wgs84": 118.000065, "纬度_wgs84": 36.795766, "一级分类": "医疗" }, "geometry": { "type": "Point", "coordinates": [ 118.000065, 36.795766 ] } },
{ "type": "Feature", "properties": { "类别": "医院", "名称": "城南社区卫生服务站", "经度": 118.038066, "纬度": 36.790917, "地址": "一区西路58号", "类型": "医疗保健服务;综合医院;卫生院", "省": "山东省", "市": "淄博市", "区县": "张店区", "经度_wgs84": 118.03748, "纬度_wgs84": 36.786058, "一级分类": "医疗" }, "geometry": { "type": "Point", "coordinates": [ 118.03748, 36.786058 ] } },
{ "type": "Feature", "properties": { "类别": "医院", "名称": "世纪花园夏溪园社区卫生服务站", "经度": 118.022025, "纬度": 36.834625, "地址": "世纪花园小区", "类型": "医疗保健服务;综合医院;卫生院", "省": "山东省", "市": "淄博市", "区县": "张店区", "经度_wgs84": 118.021453, "纬度_wgs84": 36.829801, "一级分类": "医疗" }, "geometry": { "type": "Point", "coordinates": [ 118.021453, 36.829801 ] } },
{ "type": "Feature", "properties": { "类别": "医院", "名称": "淄博张店铝城医院", "经度": 118.047854, "纬度": 36.749114, "地址": "南定镇南宿舍三街20号", "类型": "医疗保健服务;综合医院;综合医院", "省": "山东省", "市": "淄博市", "区县": "张店区", "经度_wgs84": 118.047275, "纬度_wgs84": 36.744238, "一级分类": "医疗" }, "geometry": { "type": "Point", "coordinates": [ 118.047275, 36.744238 ] } },
{ "type": "Feature", "properties": { "类别": "医院", "名称": "张店区南定镇山铝西山社区卫生服务站", "经度": 118.036777, "纬度": 36.752923, "地址": "西山五街与矿机路交叉口东140米", "类型": "医疗保健服务;综合医院;卫生院", "省": "山东省", "市": "淄博市", "区县": "张店区", "经度_wgs84": 118.036227, "纬度_wgs84": 36.748068, "一级分类": "医疗" }, "geometry": { "type": "Point", "coordinates": [ 118.036227, 36.748068 ] } },
{ "type": "Feature", "properties": { "类别": "医院", "名称": "山东理工大学校医院", "经度": 117.996788, "纬度": 36.813316, "地址": "新村西路266号山东理工大学", "类型": "医疗保健服务;诊所;诊所", "省": "山东省", "市": "淄博市", "区县": "张店区", "经度_wgs84": 117.996329, "纬度_wgs84": 36.808557, "一级分类": "医疗" }, "geometry": { "type": "Point", "coordinates": [ 117.996329, 36.808557 ] } },
{ "type": "Feature", "properties": { "类别": "医院", "名称": "张店区曹营村卫生室", "经度": 118.008808, "纬度": 36.87194, "地址": "淄博市张店区纳奇路北50米", "类型": "医疗保健服务;综合医院;卫生院|医疗保健服务;诊所;诊所", "省": "山东省", "市": "淄博市", "区县": "张店区", "经度_wgs84": 118.008251, "纬度_wgs84": 36.867148, "一级分类": "医疗" }, "geometry": { "type": "Point", "coordinates": [ 118.008251, 36.867148 ] } },
{ "type": "Feature", "properties": { "类别": "医院", "名称": "高新区中医医院", "经度": 118.09991, "纬度": 36.82184, "地址": "联通路与宝山路交叉口东200米", "类型": "医疗保健服务;综合医院;综合医院", "省": "山东省", "市": "淄博市", "区县": "张店区", "经度_wgs84": 118.099199, "纬度_wgs84": 36.816928, "一级分类": "医疗" }, "geometry": { "type": "Point", "coordinates": [ 118.099199, 36.816928 ] } },
{ "type": "Feature", "properties": { "类别": "医院", "名称": "傅家镇石家村卫生室", "经度": 118.016326, "纬度": 36.788745, "地址": "昌国路72号", "类型": "医疗保健服务;诊所;诊所", "省": "山东省", "市": "淄博市", "区县": "张店区", "经度_wgs84": 118.015815, "纬度_wgs84": 36.783936, "一级分类": "医疗" }, "geometry": { "type": "Point", "coordinates": [ 118.015815, 36.783936 ] } },
{ "type": "Feature", "properties": { "类别": "医院", "名称": "张店区沣水镇张三村卫生室", "经度": 118.097148, "纬度": 36.764167, "地址": "沣水镇张三村", "类型": "医疗保健服务;综合医院;卫生院|医疗保健服务;诊所;诊所", "省": "山东省", "市": "淄博市", "区县": "张店区", "经度_wgs84": 118.096487, "纬度_wgs84": 36.759256, "一级分类": "医疗" }, "geometry": { "type": "Point", "coordinates": [ 118.096487, 36.759256 ] } },
{ "type": "Feature", "properties": { "类别": "医院", "名称": "百合花园社区卫生服务站", "经度": 117.994157, "纬度": 36.847233, "地址": "北京路77号", "类型": "医疗保健服务;综合医院;卫生院", "省": "山东省", "市": "淄博市", "区县": "张店区", "经度_wgs84": 117.993678, "纬度_wgs84": 36.84248, "一级分类": "医疗" }, "geometry": { "type": "Point", "coordinates": [ 117.993678, 36.84248 ] } },
{ "type": "Feature", "properties": { "类别": "医院", "名称": "齐盛实业公司卫生室", "经度": 118.035323, "纬度": 36.789571, "地址": "东华园1号楼", "类型": "医疗保健服务;诊所;诊所", "省": "山东省", "市": "淄博市", "区县": "张店区", "经度_wgs84": 118.034746, "纬度_wgs84": 36.784718, "一级分类": "医疗" }, "geometry": { "type": "Point", "coordinates": [ 118.034746, 36.784718 ] } },
{ "type": "Feature", "properties": { "类别": "医院", "名称": "张店区房镇镇璀璨珑府社区卫生服务站", "经度": 117.983888, "纬度": 36.827522, "地址": "文西街29号", "类型": "医疗保健服务;综合医院;卫生院", "省": "山东省", "市": "淄博市", "区县": "张店区", "经度_wgs84": 117.983464, "纬度_wgs84": 36.822796, "一级分类": "医疗" }, "geometry": { "type": "Point", "coordinates": [ 117.983464, 36.822796 ] } },
{ "type": "Feature", "properties": { "类别": "医院", "名称": "张店区马尚街道金石苑社区卫生服务站", "经度": 118.006624, "纬度": 36.819708, "地址": "马尚镇人民西路金石苑小区", "类型": "医疗保健服务;诊所;诊所", "省": "山东省", "市": "淄博市", "区县": "张店区", "经度_wgs84": 118.006122, "纬度_wgs84": 36.814923, "一级分类": "医疗" }, "geometry": { "type": "Point", "coordinates": [ 118.006122, 36.814923 ] } },
{ "type": "Feature", "properties": { "类别": "医院", "名称": "张店区中医院", "经度": 118.033325, "纬度": 36.812475, "地址": "北西六路与十七中北街交叉口东北120米", "类型": "医疗保健服务;医疗保健服务场所;医疗保健服务场所", "省": "山东省", "市": "淄博市", "区县": "张店区", "经度_wgs84": 118.032735, "纬度_wgs84": 36.807626, "一级分类": "医疗" }, "geometry": { "type": "Point", "coordinates": [ 118.032735, 36.807626 ] } },
{ "type": "Feature", "properties": { "类别": "医院", "名称": "张店区傅家镇泉山卫生室", "经度": 118.017375, "纬度": 36.78865, "地址": "鑫盛嘉园32号", "类型": "医疗保健服务;诊所;诊所", "省": "山东省", "市": "淄博市", "区县": "张店区", "经度_wgs84": 118.01686, "纬度_wgs84": 36.783838, "一级分类": "医疗" }, "geometry": { "type": "Point", "coordinates": [ 118.01686, 36.783838 ] } },
{ "type": "Feature", "properties": { "类别": "医院", "名称": "四宝山街道社区卫生服务中心", "经度": 118.099801, "纬度": 36.821774, "地址": "宝鑫路37号", "类型": "医疗保健服务;综合医院;卫生院", "省": "山东省", "市": "淄博市", "区县": "张店区", "经度_wgs84": 118.09909, "纬度_wgs84": 36.816862, "一级分类": "医疗" }, "geometry": { "type": "Point", "coordinates": [ 118.09909, 36.816862 ] } },
{ "type": "Feature", "properties": { "类别": "医院", "名称": "淄博经开区沣水镇张一村卫生室", "经度": 118.100688, "纬度": 36.769609, "地址": "工业南路3号", "类型": "医疗保健服务;诊所;诊所", "省": "山东省", "市": "淄博市", "区县": "张店区", "经度_wgs84": 118.100022, "纬度_wgs84": 36.764699, "一级分类": "医疗" }, "geometry": { "type": "Point", "coordinates": [ 118.100022, 36.764699 ] } },
{ "type": "Feature", "properties": { "类别": "医院", "名称": "山东冶金机械厂有限公司职工医院", "经度": 118.036262, "纬度": 36.750231, "地址": "南定镇新村路1号", "类型": "医疗保健服务;综合医院;综合医院", "省": "山东省", "市": "淄博市", "区县": "张店区", "经度_wgs84": 118.035716, "纬度_wgs84": 36.745377, "一级分类": "医疗" }, "geometry": { "type": "Point", "coordinates": [ 118.035716, 36.745377 ] } },
{ "type": "Feature", "properties": { "类别": "医院", "名称": "南家村卫生室", "经度": 118.023225, "纬度": 36.786675, "地址": "昌国路辅路与世纪路交叉口西北120米", "类型": "医疗保健服务;诊所;诊所", "省": "山东省", "市": "淄博市", "区县": "张店区", "经度_wgs84": 118.022691, "纬度_wgs84": 36.781849, "一级分类": "医疗" }, "geometry": { "type": "Point", "coordinates": [ 118.022691, 36.781849 ] } },
{ "type": "Feature", "properties": { "类别": "医院", "名称": "张店区房镇镇解营村卫生室", "经度": 118.003289, "纬度": 36.865487, "地址": "三赢路49号", "类型": "医疗保健服务;诊所;诊所", "省": "山东省", "市": "淄博市", "区县": "张店区", "经度_wgs84": 118.002759, "纬度_wgs84": 36.860709, "一级分类": "医疗" }, "geometry": { "type": "Point", "coordinates": [ 118.002759, 36.860709 ] } },
{ "type": "Feature", "properties": { "类别": "医院", "名称": "南营社区卫生计生服务站", "经度": 118.069448, "纬度": 36.848376, "地址": "鲁泰大道南营双营园", "类型": "医疗保健服务;综合医院;卫生院", "省": "山东省", "市": "淄博市", "区县": "张店区", "经度_wgs84": 118.068736, "纬度_wgs84": 36.843469, "一级分类": "医疗" }, "geometry": { "type": "Point", "coordinates": [ 118.068736, 36.843469 ] } },
{ "type": "Feature", "properties": { "类别": "医院", "名称": "淄博张店稷下中医医院有限公司张店营南路诊所", "经度": 118.004035, "纬度": 36.777542, "地址": "南京路60号富康嘉苑综合办公楼1楼", "类型": "医疗保健服务;诊所;诊所", "省": "山东省", "市": "淄博市", "区县": "张店区", "经度_wgs84": 118.003579, "纬度_wgs84": 36.772765, "一级分类": "医疗" }, "geometry": { "type": "Point", "coordinates": [ 118.003579, 36.772765 ] } },
{ "type": "Feature", "properties": { "类别": "医院", "名称": "新兴社区卫生室", "经度": 118.01529, "纬度": 36.79815, "地址": [ ], "类型": "医疗保健服务;诊所;诊所", "省": "山东省", "市": "淄博市", "区县": "张店区", "经度_wgs84": 118.014775, "纬度_wgs84": 36.793343, "一级分类": "医疗" }, "geometry": { "type": "Point", "coordinates": [ 118.014775, 36.793343 ] } },
{ "type": "Feature", "properties": { "类别": "医院", "名称": "北大医疗淄博医院社区卫生服务中心", "经度": 118.045382, "纬度": 36.747566, "地址": "南定镇山铝南宿舍一街三巷5号", "类型": "医疗保健服务;综合医院;卫生院", "省": "山东省", "市": "淄博市", "区县": "张店区", "经度_wgs84": 118.044811, "纬度_wgs84": 36.742694, "一级分类": "医疗" }, "geometry": { "type": "Point", "coordinates": [ 118.044811, 36.742694 ] } },
{ "type": "Feature", "properties": { "类别": "医院", "名称": "刘西社区卫生计生服务站", "经度": 118.023936, "纬度": 36.842539, "地址": "阳光国际", "类型": "医疗保健服务;综合医院;卫生院", "省": "山东省", "市": "淄博市", "区县": "张店区", "经度_wgs84": 118.023351, "纬度_wgs84": 36.83771, "一级分类": "医疗" }, "geometry": { "type": "Point", "coordinates": [ 118.023351, 36.83771 ] } },
{ "type": "Feature", "properties": { "类别": "医院", "名称": "紫云集社区卫生服务站", "经度": 118.092442, "纬度": 36.785464, "地址": "烟厂东路2号", "类型": "医疗保健服务;综合医院;卫生院", "省": "山东省", "市": "淄博市", "区县": "张店区", "经度_wgs84": 118.091763, "纬度_wgs84": 36.780551, "一级分类": "医疗" }, "geometry": { "type": "Point", "coordinates": [ 118.091763, 36.780551 ] } },
{ "type": "Feature", "properties": { "类别": "医院", "名称": "恒景绿洲社区卫生服务站", "经度": 118.038933, "纬度": 36.854951, "地址": "北西五路与兰雁大道交叉口北100米", "类型": "医疗保健服务;综合医院;卫生院", "省": "山东省", "市": "淄博市", "区县": "张店区", "经度_wgs84": 118.038287, "纬度_wgs84": 36.850089, "一级分类": "医疗" }, "geometry": { "type": "Point", "coordinates": [ 118.038287, 36.850089 ] } },
{ "type": "Feature", "properties": { "类别": "医院", "名称": "张店区大张村卫生室", "经度": 118.01869, "纬度": 36.848682, "地址": "鲁泰大道大张村1#沿街房", "类型": "医疗保健服务;诊所;诊所", "省": "山东省", "市": "淄博市", "区县": "张店区", "经度_wgs84": 118.018118, "纬度_wgs84": 36.843865, "一级分类": "医疗" }, "geometry": { "type": "Point", "coordinates": [ 118.018118, 36.843865 ] } },
{ "type": "Feature", "properties": { "类别": "医院", "名称": "南岭新村卫生室", "经度": 118.106386, "纬度": 36.865769, "地址": "南岭新村北门旁", "类型": "医疗保健服务;诊所;诊所", "省": "山东省", "市": "淄博市", "区县": "张店区", "经度_wgs84": 118.105637, "纬度_wgs84": 36.86086, "一级分类": "医疗" }, "geometry": { "type": "Point", "coordinates": [ 118.105637, 36.86086 ] } },
{ "type": "Feature", "properties": { "类别": "医院", "名称": "张店区傅家镇义集卫生室", "经度": 117.988511, "纬度": 36.792387, "地址": "王舍路260号甲23号", "类型": "医疗保健服务;诊所;诊所", "省": "山东省", "市": "淄博市", "区县": "张店区", "经度_wgs84": 117.988101, "纬度_wgs84": 36.78765, "一级分类": "医疗" }, "geometry": { "type": "Point", "coordinates": [ 117.988101, 36.78765 ] } },
{ "type": "Feature", "properties": { "类别": "医院", "名称": "张店区马尚街道齐悦国际社区卫生服务站", "经度": 117.981807, "纬度": 36.811181, "地址": "心环西路与齐悦街交叉口南140米", "类型": "医疗保健服务;医疗保健服务场所;医疗保健服务场所", "省": "山东省", "市": "淄博市", "区县": "张店区", "经度_wgs84": 117.981405, "纬度_wgs84": 36.80646, "一级分类": "医疗" }, "geometry": { "type": "Point", "coordinates": [ 117.981405, 36.80646 ] } },
{ "type": "Feature", "properties": { "类别": "医院", "名称": "张店区南定镇翟家村卫生室", "经度": 118.049686, "纬度": 36.774453, "地址": "张南路89号南定镇", "类型": "医疗保健服务;诊所;诊所", "省": "山东省", "市": "淄博市", "区县": "张店区", "经度_wgs84": 118.049081, "纬度_wgs84": 36.769573, "一级分类": "医疗" }, "geometry": { "type": "Point", "coordinates": [ 118.049081, 36.769573 ] } },
{ "type": "Feature", "properties": { "类别": "医院", "名称": "张店区傅家镇浮山驿村卫生室", "经度": 118.008296, "纬度": 36.761838, "地址": "浮山驿东区西南门旁", "类型": "医疗保健服务;诊所;诊所", "省": "山东省", "市": "淄博市", "区县": "张店区", "经度_wgs84": 118.007838, "纬度_wgs84": 36.75705, "一级分类": "医疗" }, "geometry": { "type": "Point", "coordinates": [ 118.007838, 36.75705 ] } },
{ "type": "Feature", "properties": { "类别": "医院", "名称": "街子村卫生室", "经度": 118.102756, "纬度": 36.834049, "地址": "高新区四宝山办事处街子村联防巡逻队附近", "类型": "医疗保健服务;诊所;诊所", "省": "山东省", "市": "淄博市", "区县": "张店区", "经度_wgs84": 118.102034, "纬度_wgs84": 36.829139, "一级分类": "医疗" }, "geometry": { "type": "Point", "coordinates": [ 118.102034, 36.829139 ] } },
{ "type": "Feature", "properties": { "类别": "医院", "名称": "马尚镇钱家村卫生室", "经度": 117.999754, "纬度": 36.816992, "地址": "丰泰路与人民西路交叉口东北140米", "类型": "医疗保健服务;诊所;诊所", "省": "山东省", "市": "淄博市", "区县": "张店区", "经度_wgs84": 117.99928, "纬度_wgs84": 36.812225, "一级分类": "医疗" }, "geometry": { "type": "Point", "coordinates": [ 117.99928, 36.812225 ] } },
{ "type": "Feature", "properties": { "类别": "医院", "名称": "马尚街道于小村卫生室", "经度": 117.971317, "纬度": 36.820568, "地址": "碧玉华庭北1门东70米", "类型": "医疗保健服务;诊所;诊所", "省": "山东省", "市": "淄博市", "区县": "张店区", "经度_wgs84": 117.970944, "纬度_wgs84": 36.815872, "一级分类": "医疗" }, "geometry": { "type": "Point", "coordinates": [ 117.970944, 36.815872 ] } },
{ "type": "Feature", "properties": { "类别": "医院", "名称": "华仁中医医院(理工大学东校区南门)", "经度": 118.042425, "纬度": 36.807575, "地址": "共青团西路辅路与新世界商业街交叉口东南20米", "类型": "医疗保健服务;综合医院;综合医院", "省": "山东省", "市": "淄博市", "区县": "张店区", "经度_wgs84": 118.041811, "纬度_wgs84": 36.802707, "一级分类": "医疗" }, "geometry": { "type": "Point", "coordinates": [ 118.041811, 36.802707 ] } },
{ "type": "Feature", "properties": { "类别": "医院", "名称": "张店区崔军村卫生室", "经度": 118.053475, "纬度": 36.742875, "地址": "南定镇崔军村", "类型": "医疗保健服务;诊所;诊所", "省": "山东省", "市": "淄博市", "区县": "张店区", "经度_wgs84": 118.052887, "纬度_wgs84": 36.73799, "一级分类": "医疗" }, "geometry": { "type": "Point", "coordinates": [ 118.052887, 36.73799 ] } },
{ "type": "Feature", "properties": { "类别": "医院", "名称": "金都花园社区卫生服务站", "经度": 118.067974, "纬度": 36.882887, "地址": "齐祥路金都花园", "类型": "医疗保健服务;综合医院;卫生院", "省": "山东省", "市": "淄博市", "区县": "张店区", "经度_wgs84": 118.067234, "纬度_wgs84": 36.87798, "一级分类": "医疗" }, "geometry": { "type": "Point", "coordinates": [ 118.067234, 36.87798 ] } },
{ "type": "Feature", "properties": { "类别": "医院", "名称": "张店区山铝社区卫生服务中心", "经度": 118.045403, "纬度": 36.747404, "地址": "苹果园小区西北2门东330米", "类型": "医疗保健服务;综合医院;卫生院", "省": "山东省", "市": "淄博市", "区县": "张店区", "经度_wgs84": 118.044832, "纬度_wgs84": 36.742532, "一级分类": "医疗" }, "geometry": { "type": "Point", "coordinates": [ 118.044832, 36.742532 ] } },
{ "type": "Feature", "properties": { "类别": "医院", "名称": "傅家镇营子村卫生室", "经度": 117.995644, "纬度": 36.778004, "地址": "考工路名宇桂香园", "类型": "医疗保健服务;诊所;诊所", "省": "山东省", "市": "淄博市", "区县": "张店区", "经度_wgs84": 117.99522, "纬度_wgs84": 36.773249, "一级分类": "医疗" }, "geometry": { "type": "Point", "coordinates": [ 117.99522, 36.773249 ] } },
{ "type": "Feature", "properties": { "类别": "医院", "名称": "体育场街道社区卫生服务中心产后康复中心", "经度": 118.075991, "纬度": 36.814822, "地址": "东三路与华光路交叉口南200米", "类型": "医疗保健服务;综合医院;卫生院", "省": "山东省", "市": "淄博市", "区县": "张店区", "经度_wgs84": 118.0753, "纬度_wgs84": 36.809911, "一级分类": "医疗" }, "geometry": { "type": "Point", "coordinates": [ 118.0753, 36.809911 ] } },
{ "type": "Feature", "properties": { "类别": "医院", "名称": "张店区北西六路社区卫生服务中心常规预防接种门诊", "经度": 118.033325, "纬度": 36.812575, "地址": "北西六路与十七中北街交叉口北120米", "类型": "医疗保健服务;综合医院;卫生院|医疗保健服务;诊所;诊所", "省": "山东省", "市": "淄博市", "区县": "张店区", "经度_wgs84": 118.032735, "纬度_wgs84": 36.807726, "一级分类": "医疗" }, "geometry": { "type": "Point", "coordinates": [ 118.032735, 36.807726 ] } },
{ "type": "Feature", "properties": { "类别": "医院", "名称": "张店区体育场街道社区卫生服务中心-发热门诊", "经度": 118.075919, "纬度": 36.814802, "地址": "东三路与华光路交叉口南220米", "类型": "医疗保健服务;医疗保健服务场所;医疗保健服务场所", "省": "山东省", "市": "淄博市", "区县": "张店区", "经度_wgs84": 118.075228, "纬度_wgs84": 36.809891, "一级分类": "医疗" }, "geometry": { "type": "Point", "coordinates": [ 118.075228, 36.809891 ] } },
{ "type": "Feature", "properties": { "类别": "医院", "名称": "杏园社区卫生服务中心-发热门诊", "经度": 118.080028, "纬度": 36.785062, "地址": "宝沣路与杏园东路交叉口西南100米", "类型": "医疗保健服务;综合医院;卫生院", "省": "山东省", "市": "淄博市", "区县": "张店区", "经度_wgs84": 118.079358, "纬度_wgs84": 36.78015, "一级分类": "医疗" }, "geometry": { "type": "Point", "coordinates": [ 118.079358, 36.78015 ] } },
{ "type": "Feature", "properties": { "类别": "医院", "名称": "体育场街道社区卫生服务站", "经度": 118.063296, "纬度": 36.812274, "地址": "金晶大道与人民东路辅路交叉口东北100米", "类型": "医疗保健服务;综合医院;卫生院", "省": "山东省", "市": "淄博市", "区县": "张店区", "经度_wgs84": 118.062627, "纬度_wgs84": 36.807374, "一级分类": "医疗" }, "geometry": { "type": "Point", "coordinates": [ 118.062627, 36.807374 ] } },
{ "type": "Feature", "properties": { "类别": "医院", "名称": "房镇镇花漾城社区卫生服务站", "经度": 117.966325, "纬度": 36.833625, "地址": "联通路358号花漾城北区下沉广场", "类型": "医疗保健服务;综合医院;卫生院", "省": "山东省", "市": "淄博市", "区县": "张店区", "经度_wgs84": 117.965957, "纬度_wgs84": 36.82894, "一级分类": "医疗" }, "geometry": { "type": "Point", "coordinates": [ 117.965957, 36.82894 ] } },
{ "type": "Feature", "properties": { "类别": "医院", "名称": "张店区南定镇四砂社区卫生服务站", "经度": 118.028187, "纬度": 36.730468, "地址": "南定车站街69号", "类型": "医疗保健服务;综合医院;卫生院", "省": "山东省", "市": "淄博市", "区县": "张店区", "经度_wgs84": 118.027684, "纬度_wgs84": 36.725632, "一级分类": "医疗" }, "geometry": { "type": "Point", "coordinates": [ 118.027684, 36.725632 ] } },
{ "type": "Feature", "properties": { "类别": "医院", "名称": "淄博高新区北营社区卫生服务站", "经度": 118.068618, "纬度": 36.857341, "地址": "北营金鑫园北区西南门旁", "类型": "医疗保健服务;综合医院;卫生院", "省": "山东省", "市": "淄博市", "区县": "张店区", "经度_wgs84": 118.0679, "纬度_wgs84": 36.852435, "一级分类": "医疗" }, "geometry": { "type": "Point", "coordinates": [ 118.0679, 36.852435 ] } },
{ "type": "Feature", "properties": { "类别": "医院", "名称": "双赢社区卫生服务站", "经度": 118.055989, "纬度": 36.852558, "地址": "名士豪庭东北门东130米", "类型": "医疗保健服务;综合医院;卫生院", "省": "山东省", "市": "淄博市", "区县": "张店区", "经度_wgs84": 118.0553, "纬度_wgs84": 36.847666, "一级分类": "医疗" }, "geometry": { "type": "Point", "coordinates": [ 118.0553, 36.847666 ] } },
{ "type": "Feature", "properties": { "类别": "医院", "名称": "淄博市张店区南定冶金社区卫生服务站", "经度": 118.036367, "纬度": 36.749979, "地址": "矿机路山东冶金机械厂有限公司职工医院", "类型": "医疗保健服务;综合医院;卫生院", "省": "山东省", "市": "淄博市", "区县": "张店区", "经度_wgs84": 118.035821, "纬度_wgs84": 36.745125, "一级分类": "医疗" }, "geometry": { "type": "Point", "coordinates": [ 118.035821, 36.745125 ] } },
{ "type": "Feature", "properties": { "类别": "医院", "名称": "世纪花园社区卫生服务中心-皮肤科", "经度": 118.019626, "纬度": 36.834083, "地址": "联通路112号", "类型": "医疗保健服务;综合医院;卫生院", "省": "山东省", "市": "淄博市", "区县": "张店区", "经度_wgs84": 118.019063, "纬度_wgs84": 36.829265, "一级分类": "医疗" }, "geometry": { "type": "Point", "coordinates": [ 118.019063, 36.829265 ] } },
{ "type": "Feature", "properties": { "类别": "医院", "名称": "张店区公园街道社区卫生服务中心-发热门诊", "经度": 118.05611, "纬度": 36.811638, "地址": "西二路与人民西路交叉口南100米", "类型": "医疗保健服务;综合医院;卫生院", "省": "山东省", "市": "淄博市", "区县": "张店区", "经度_wgs84": 118.055457, "纬度_wgs84": 36.806747, "一级分类": "医疗" }, "geometry": { "type": "Point", "coordinates": [ 118.055457, 36.806747 ] } },
{ "type": "Feature", "properties": { "类别": "医院", "名称": "闫桥社区卫生计生服务站", "经度": 118.039151, "纬度": 36.841173, "地址": "北西五路与万杰路交叉口东南320米", "类型": "医疗保健服务;综合医院;卫生院", "省": "山东省", "市": "淄博市", "区县": "张店区", "经度_wgs84": 118.038517, "纬度_wgs84": 36.836311, "一级分类": "医疗" }, "geometry": { "type": "Point", "coordinates": [ 118.038517, 36.836311 ] } },
{ "type": "Feature", "properties": { "类别": "医院", "名称": "张店区马尚街道明博新城社区卫生服务站", "经度": 117.981647, "纬度": 36.821322, "地址": "明博新城23号楼", "类型": "医疗保健服务;综合医院;卫生院", "省": "山东省", "市": "淄博市", "区县": "张店区", "经度_wgs84": 117.981237, "纬度_wgs84": 36.816601, "一级分类": "医疗" }, "geometry": { "type": "Point", "coordinates": [ 117.981237, 36.816601 ] } },
{ "type": "Feature", "properties": { "类别": "医院", "名称": "北苑社区卫生计生服务室", "经度": 118.076704, "纬度": 36.874971, "地址": "赵王路与文化路交叉口东北260米", "类型": "医疗保健服务;医疗保健服务场所;医疗保健服务场所", "省": "山东省", "市": "淄博市", "区县": "张店区", "经度_wgs84": 118.075958, "纬度_wgs84": 36.870058, "一级分类": "医疗" }, "geometry": { "type": "Point", "coordinates": [ 118.075958, 36.870058 ] } },
{ "type": "Feature", "properties": { "类别": "医院", "名称": "时代名都社区卫生服务站预防接种门诊", "经度": 118.043376, "纬度": 36.839099, "地址": "张桓路77号天行健大厦F1层", "类型": "医疗保健服务;综合医院;卫生院", "省": "山东省", "市": "淄博市", "区县": "张店区", "经度_wgs84": 118.042731, "纬度_wgs84": 36.834228, "一级分类": "医疗" }, "geometry": { "type": "Point", "coordinates": [ 118.042731, 36.834228 ] } },
{ "type": "Feature", "properties": { "类别": "医院", "名称": "龙泰苑社区卫生服务站预防接种门诊", "经度": 118.000706, "纬度": 36.833339, "地址": "民泰·龙泰苑A区北门西230米", "类型": "医疗保健服务;疾病预防机构;疾病预防", "省": "山东省", "市": "淄博市", "区县": "张店区", "经度_wgs84": 118.000214, "纬度_wgs84": 36.828569, "一级分类": "医疗" }, "geometry": { "type": "Point", "coordinates": [ 118.000214, 36.828569 ] } },
{ "type": "Feature", "properties": { "类别": "医院", "名称": "王南社区卫生计生服务室", "经度": 118.06647, "纬度": 36.868771, "地址": "王南社区", "类型": "医疗保健服务;医疗保健服务场所;医疗保健服务场所", "省": "山东省", "市": "淄博市", "区县": "张店区", "经度_wgs84": 118.065745, "纬度_wgs84": 36.863866, "一级分类": "医疗" }, "geometry": { "type": "Point", "coordinates": [ 118.065745, 36.863866 ] } },
{ "type": "Feature", "properties": { "类别": "医院", "名称": "淄博口腔医院", "经度": 118.026673, "纬度": 36.803344, "地址": "新村西路188号", "类型": "医疗保健服务;综合医院;卫生院", "省": "山东省", "市": "淄博市", "区县": "张店区", "经度_wgs84": 118.026113, "纬度_wgs84": 36.79851, "一级分类": "医疗" }, "geometry": { "type": "Point", "coordinates": [ 118.026113, 36.79851 ] } },
{ "type": "Feature", "properties": { "类别": "医院", "名称": "东吕社区卫生计生服务室", "经度": 118.045041, "纬度": 36.869698, "地址": "尚功路与长征路交叉口西180米", "类型": "医疗保健服务;诊所;诊所", "省": "山东省", "市": "淄博市", "区县": "张店区", "经度_wgs84": 118.044364, "纬度_wgs84": 36.864824, "一级分类": "医疗" }, "geometry": { "type": "Point", "coordinates": [ 118.044364, 36.864824 ] } },
{ "type": "Feature", "properties": { "类别": "医院", "名称": "房镇镇卫生院智慧医养服务中心", "经度": 117.980064, "纬度": 36.828083, "地址": "上海路与联通路交叉口南340米", "类型": "医疗保健服务;综合医院;卫生院", "省": "山东省", "市": "淄博市", "区县": "张店区", "经度_wgs84": 117.979654, "纬度_wgs84": 36.823366, "一级分类": "医疗" }, "geometry": { "type": "Point", "coordinates": [ 117.979654, 36.823366 ] } },
{ "type": "Feature", "properties": { "类别": "医院", "名称": "淄博经开民康诊所", "经度": 118.028327, "纬度": 36.730873, "地址": "南定镇四砂社区卫生服务站北侧", "类型": "医疗保健服务;诊所;诊所", "省": "山东省", "市": "淄博市", "区县": "张店区", "经度_wgs84": 118.027823, "纬度_wgs84": 36.726037, "一级分类": "医疗" }, "geometry": { "type": "Point", "coordinates": [ 118.027823, 36.726037 ] } },
{ "type": "Feature", "properties": { "类别": "医院", "名称": "张店区湖田街道官庄社区卫生室", "经度": 118.080674, "纬度": 36.788251, "地址": "宝沣路官庄社区", "类型": "医疗保健服务;诊所;诊所", "省": "山东省", "市": "淄博市", "区县": "张店区", "经度_wgs84": 118.080001, "纬度_wgs84": 36.783339, "一级分类": "医疗" }, "geometry": { "type": "Point", "coordinates": [ 118.080001, 36.783339 ] } },
{ "type": "Feature", "properties": { "类别": "医院", "名称": "张店区科苑街道潘庄卫生服务站", "经度": 118.059871, "纬度": 36.823104, "地址": "迎春街与联通路交叉口南400米", "类型": "医疗保健服务;综合医院;卫生院", "省": "山东省", "市": "淄博市", "区县": "张店区", "经度_wgs84": 118.0592, "纬度_wgs84": 36.818208, "一级分类": "医疗" }, "geometry": { "type": "Point", "coordinates": [ 118.0592, 36.818208 ] } },
{ "type": "Feature", "properties": { "类别": "医院", "名称": "南石社区居委会卫生室", "经度": 118.033041, "纬度": 36.862181, "地址": "124乡道与南石南路交叉口西北220米", "类型": "医疗保健服务;诊所;诊所", "省": "山东省", "市": "淄博市", "区县": "张店区", "经度_wgs84": 118.032407, "纬度_wgs84": 36.857331, "一级分类": "医疗" }, "geometry": { "type": "Point", "coordinates": [ 118.032407, 36.857331 ] } },
{ "type": "Feature", "properties": { "类别": "医院", "名称": "车站街道新华社区卫生服务站-预防接种门诊", "经度": 118.032432, "纬度": 36.796027, "地址": "和平路27号甲", "类型": "医疗保健服务;诊所;诊所", "省": "山东省", "市": "淄博市", "区县": "张店区", "经度_wgs84": 118.031859, "纬度_wgs84": 36.79118, "一级分类": "医疗" }, "geometry": { "type": "Point", "coordinates": [ 118.031859, 36.79118 ] } },
{ "type": "Feature", "properties": { "类别": "医院", "名称": "北源社区门诊", "经度": 118.054508, "纬度": 36.804769, "地址": "茂业天地城中西内环路金丰商务楼", "类型": "医疗保健服务;综合医院;卫生院|医疗保健服务;诊所;诊所", "省": "山东省", "市": "淄博市", "区县": "张店区", "经度_wgs84": 118.053865, "纬度_wgs84": 36.799881, "一级分类": "医疗" }, "geometry": { "type": "Point", "coordinates": [ 118.053865, 36.799881 ] } },
{ "type": "Feature", "properties": { "类别": "医院", "名称": "山东新华医疗器械集团门诊部", "经度": 118.066529, "纬度": 36.789899, "地址": "吉庆家园青年街13号甲6号", "类型": "医疗保健服务;医疗保健服务场所;医疗保健服务场所", "省": "山东省", "市": "淄博市", "区县": "张店区", "经度_wgs84": 118.065874, "纬度_wgs84": 36.784997, "一级分类": "医疗" }, "geometry": { "type": "Point", "coordinates": [ 118.065874, 36.784997 ] } },
{ "type": "Feature", "properties": { "类别": "医院", "名称": "张店天德堂药店", "经度": 118.189007, "纬度": 36.847581, "地址": "铁山路与黄河路交叉口北200米", "类型": "医疗保健服务;医药保健销售店;药房", "省": "山东省", "市": "淄博市", "区县": "张店区", "经度_wgs84": 118.188423, "纬度_wgs84": 36.842827, "一级分类": "医疗" }, "geometry": { "type": "Point", "coordinates": [ 118.188423, 36.842827 ] } },
{ "type": "Feature", "properties": { "类别": "医院", "名称": "立健众康药店(高新区阳光花园一店)", "经度": 118.023846, "纬度": 36.842363, "地址": "阳光国际A座南门西70米", "类型": "医疗保健服务;医药保健销售店;药房", "省": "山东省", "市": "淄博市", "区县": "张店区", "经度_wgs84": 118.023261, "纬度_wgs84": 36.837534, "一级分类": "医疗" }, "geometry": { "type": "Point", "coordinates": [ 118.023261, 36.837534 ] } },
{ "type": "Feature", "properties": { "类别": "医院", "名称": "张店区傅家镇宋家村卫生室", "经度": 117.991455, "纬度": 36.773845, "地址": "泰和路与海岱大道交叉口东北160米", "类型": "医疗保健服务;诊所;诊所", "省": "山东省", "市": "淄博市", "区县": "张店区", "经度_wgs84": 117.99105, "纬度_wgs84": 36.769101, "一级分类": "医疗" }, "geometry": { "type": "Point", "coordinates": [ 117.99105, 36.769101 ] } },
{ "type": "Feature", "properties": { "类别": "医院", "名称": "北苑中医阁", "经度": 118.076704, "纬度": 36.874971, "地址": "赵王路与文化路交叉口东北260米", "类型": "医疗保健服务;医疗保健服务场所;医疗保健服务场所", "省": "山东省", "市": "淄博市", "区县": "张店区", "经度_wgs84": 118.075958, "纬度_wgs84": 36.870058, "一级分类": "医疗" }, "geometry": { "type": "Point", "coordinates": [ 118.075958, 36.870058 ] } }
]
}
