{
"type": "FeatureCollection",
"name": "poi_公园_cleaned",
"crs": { "type": "name", "properties": { "name": "urn:ogc:def:crs:OGC:1.3:CRS84" } },
"features": [
{ "type": "Feature", "properties": { "类别": "公园", "名称": "淄博人民公园", "经度": 118.048798, "纬度": 36.810627, "地址": "公园街道柳泉路", "类型": "风景名胜;公园广场;公园", "省": "山东省", "市": "淄博市", "区县": "张店区", "经度_wgs84": 118.048164, "纬度_wgs84": 36.805748, "一级分类": "休闲" }, "geometry": { "type": "Point", "coordinates": [ 118.048164, 36.805748 ] } },
{ "type": "Feature", "properties": { "类别": "公园", "名称": "张店儿童公园", "经度": 118.071556, "纬度": 36.801765, "地址": "共青团东路30号", "类型": "风景名胜;公园广场;公园", "省": "山东省", "市": "淄博市", "区县": "张店区", "经度_wgs84": 118.070882, "纬度_wgs84": 36.796858, "一级分类": "休闲" }, "geometry": { "type": "Point", "coordinates": [ 118.070882, 36.796858 ] } },
{ "type": "Feature", "properties": { "类别": "公园", "名称": "火炬公园", "经度": 118.053802, "纬度": 36.837551, "地址": "柳泉路与中润大道交汇处西北角", "类型": "风景名胜;公园广场;公园", "省": "山东省", "市": "淄博市", "区县": "张店区", "经度_wgs84": 118.053131, "纬度_wgs84": 36.832663, "一级分类": "休闲" }, "geometry": { "type": "Point", "coordinates": [ 118.053131, 36.832663 ] } },
{ "type": "Feature", "properties": { "类别": "公园", "名称": "淄博高新区文体公园", "经度": 118.07024, "纬度": 36.840741, "地址": "四宝山街道政通路165号", "类型": "风景名胜;公园广场;公园", "省": "山东省", "市": "淄博市", "区县": "张店区", "经度_wgs84": 118.069534, "纬度_wgs84": 36.835834, "一级分类": "休闲" }, "geometry": { "type": "Point", "coordinates": [ 118.069534, 36.835834 ] } },
{ "type": "Feature", "properties": { "类别": "公园", "名称": "张店市民公园", "经度": 118.021792, "纬度": 36.804554, "地址": "马尚街道张店区政府旁", "类型": "风景名胜;公园广场;公园", "省": "山东省", "市": "淄博市", "区县": "张店区", "经度_wgs84": 118.021248, "纬度_wgs84": 36.799731, "一级分类": "休闲" }, "geometry": { "type": "Point", "coordinates": [ 118.021248, 36.799731 ] } },
{ "type": "Feature", "properties": { "类别": "公园", "名称": "新华公园", "经度": 118.067006, "纬度": 36.7957, "地址": "东二路与新村东路交叉口西南", "类型": "风景名胜;公园广场;公园", "省": "山东省", "市": "淄博市", "区县": "张店区", "经度_wgs84": 118.066345, "纬度_wgs84": 36.790797, "一级分类": "休闲" }, "geometry": { "type": "Point", "coordinates": [ 118.066345, 36.790797 ] } },
{ "type": "Feature", "properties": { "类别": "公园", "名称": "小西湖公园", "经度": 118.036583, "纬度": 36.809735, "地址": "北西五路与共青团西路辅路交叉口北80米", "类型": "风景名胜;公园广场;公园", "省": "山东省", "市": "淄博市", "区县": "张店区", "经度_wgs84": 118.035985, "纬度_wgs84": 36.804879, "一级分类": "休闲" }, "geometry": { "type": "Point", "coordinates": [ 118.035985, 36.804879 ] } },
{ "type": "Feature", "properties": { "类别": "公园", "名称": "青龙山公园", "经度": 118.088849, "纬度": 36.826097, "地址": "纬一路", "类型": "风景名胜;公园广场;公园", "省": "山东省", "市": "淄博市", "区县": "张店区", "经度_wgs84": 118.088136, "纬度_wgs84": 36.821182, "一级分类": "休闲" }, "geometry": { "type": "Point", "coordinates": [ 118.088136, 36.821182 ] } },
{ "type": "Feature", "properties": { "类别": "公园", "名称": "莲池法治文化公园", "经度": 118.03423, "纬度": 36.823497, "地址": "华光路123号", "类型": "风景名胜;公园广场;公园", "省": "山东省", "市": "淄博市", "区县": "张店区", "经度_wgs84": 118.033627, "纬度_wgs84": 36.818645, "一级分类": "休闲" }, "geometry": { "type": "Point", "coordinates": [ 118.033627, 36.818645 ] } },
{ "type": "Feature", "properties": { "类别": "公园", "名称": "瑷肯体育公园", "经度": 118.06226, "纬度": 36.83922, "地址": "政通路151号院内球馆(原大球馆)", "类型": "风景名胜;公园广场;公园", "省": "山东省", "市": "淄博市", "区县": "张店区", "经度_wgs84": 118.061569, "纬度_wgs84": 36.834321, "一级分类": "休闲" }, "geometry": { "type": "Point", "coordinates": [ 118.061569, 36.834321 ] } },
{ "type": "Feature", "properties": { "类别": "公园", "名称": "猪龙河生态公园", "经度": 118.04949, "纬度": 36.804743, "地址": "柳泉路与美食街交叉路口往东北约100米", "类型": "风景名胜;公园广场;公园", "省": "山东省", "市": "淄博市", "区县": "张店区", "经度_wgs84": 118.048859, "纬度_wgs84": 36.799863, "一级分类": "休闲" }, "geometry": { "type": "Point", "coordinates": [ 118.048859, 36.799863 ] } },
{ "type": "Feature", "properties": { "类别": "公园", "名称": "西张游园", "经度": 118.085153, "纬度": 36.796736, "地址": "东四路与新村路交叉口东北", "类型": "风景名胜;公园广场;公园", "省": "山东省", "市": "淄博市", "区县": "张店区", "经度_wgs84": 118.084468, "纬度_wgs84": 36.791823, "一级分类": "休闲" }, "geometry": { "type": "Point", "coordinates": [ 118.084468, 36.791823 ] } },
{ "type": "Feature", "properties": { "类别": "公园", "名称": "齐盛湖公园", "经度": 117.989284, "纬度": 36.841662, "地址": "中润大道", "类型": "风景名胜;公园广场;公园", "省": "山东省", "市": "淄博市", "区县": "张店区", "经度_wgs84": 117.988828, "纬度_wgs84": 36.836921, "一级分类": "休闲" }, "geometry": { "type": "Point", "coordinates": [ 117.988828, 36.836921 ] } },
{ "type": "Feature", "properties": { "类别": "公园", "名称": "金乔游园", "经度": 118.076624, "纬度": 36.814346, "地址": "东三路与潘南路交叉口东北240米", "类型": "风景名胜;公园广场;公园", "省": "山东省", "市": "淄博市", "区县": "张店区", "经度_wgs84": 118.075932, "纬度_wgs84": 36.809435, "一级分类": "休闲" }, "geometry": { "type": "Point", "coordinates": [ 118.075932, 36.809435 ] } },
{ "type": "Feature", "properties": { "类别": "公园", "名称": "金带公园", "经度": 117.987166, "纬度": 36.820675, "地址": "人民西路218号", "类型": "风景名胜;公园广场;公园", "省": "山东省", "市": "淄博市", "区县": "张店区", "经度_wgs84": 117.986736, "纬度_wgs84": 36.81594, "一级分类": "休闲" }, "geometry": { "type": "Point", "coordinates": [ 117.986736, 36.81594 ] } },
{ "type": "Feature", "properties": { "类别": "公园", "名称": "良乡体育运动公园", "经度": 118.073226, "纬度": 36.777487, "地址": "良乡小区内", "类型": "风景名胜;公园广场;公园", "省": "山东省", "市": "淄博市", "区县": "张店区", "经度_wgs84": 118.072571, "纬度_wgs84": 36.772579, "一级分类": "休闲" }, "geometry": { "type": "Point", "coordinates": [ 118.072571, 36.772579 ] } },
{ "type": "Feature", "properties": { "类别": "公园", "名称": "人民公园牡丹花", "经度": 118.04935, "纬度": 36.812103, "地址": "人民西路19号", "类型": "风景名胜;公园广场;公园", "省": "山东省", "市": "淄博市", "区县": "张店区", "经度_wgs84": 118.048713, "纬度_wgs84": 36.807223, "一级分类": "休闲" }, "geometry": { "type": "Point", "coordinates": [ 118.048713, 36.807223 ] } },
{ "type": "Feature", "properties": { "类别": "公园", "名称": "孝妇河湿地公园", "经度": 117.966585, "纬度": 36.799996, "地址": "和平路", "类型": "风景名胜;公园广场;公园", "省": "山东省", "市": "淄博市", "区县": "张店区", "经度_wgs84": 117.966245, "纬度_wgs84": 36.795311, "一级分类": "休闲" }, "geometry": { "type": "Point", "coordinates": [ 117.966245, 36.795311 ] } },
{ "type": "Feature", "properties": { "类别": "公园", "名称": "玉龙湖湿地公园", "经度": 118.036436, "纬度": 36.876983, "地址": "齐新大道与北西五路交叉口西260米", "类型": "风景名胜;公园广场;公园", "省": "山东省", "市": "淄博市", "区县": "张店区", "经度_wgs84": 118.035778, "纬度_wgs84": 36.872125, "一级分类": "休闲" }, "geometry": { "type": "Point", "coordinates": [ 118.035778, 36.872125 ] } },
{ "type": "Feature", "properties": { "类别": "公园", "名称": "西五路游园", "经度": 118.03678, "纬度": 36.84263, "地址": "西五路与政通路西", "类型": "风景名胜;公园广场;公园", "省": "山东省", "市": "淄博市", "区县": "张店区", "经度_wgs84": 118.036152, "纬度_wgs84": 36.837772, "一级分类": "休闲" }, "geometry": { "type": "Point", "coordinates": [ 118.036152, 36.837772 ] } },
{ "type": "Feature", "properties": { "类别": "公园", "名称": "柳泉路沿河公园", "经度": 118.046793, "纬度": 36.794352, "地址": "兴学街与柳泉路交叉口东20米", "类型": "风景名胜;公园广场;公园", "省": "山东省", "市": "淄博市", "区县": "张店区", "经度_wgs84": 118.046178, "纬度_wgs84": 36.789477, "一级分类": "休闲" }, "geometry": { "type": "Point", "coordinates": [ 118.046178, 36.789477 ] } },
{ "type": "Feature", "properties": { "类别": "公园", "名称": "商家公园", "经度": 118.097382, "纬度": 36.784934, "地址": "烟厂东路4号", "类型": "风景名胜;公园广场;公园", "省": "山东省", "市": "淄博市", "区县": "张店区", "经度_wgs84": 118.096703, "纬度_wgs84": 36.780022, "一级分类": "休闲" }, "geometry": { "type": "Point", "coordinates": [ 118.096703, 36.780022 ] } },
{ "type": "Feature", "properties": { "类别": "公园", "名称": "北营公园", "经度": 118.076584, "纬度": 36.860381, "地址": "金晶大道与淄博立交交叉口西约100米", "类型": "风景名胜;公园广场;公园", "省": "山东省", "市": "淄博市", "区县": "张店区", "经度_wgs84": 118.075851, "纬度_wgs84": 36.855469, "一级分类": "休闲" }, "geometry": { "type": "Point", "coordinates": [ 118.075851, 36.855469 ] } },
{ "type": "Feature", "properties": { "类别": "公园", "名称": "颐景园中心公园", "经度": 118.045123, "纬度": 36.797955, "地址": "柳泉路21号颐景园内", "类型": "风景名胜;公园广场;公园", "省": "山东省", "市": "淄博市", "区县": "张店区", "经度_wgs84": 118.04451, "纬度_wgs84": 36.793082, "一级分类": "休闲" }, "geometry": { "type": "Point", "coordinates": [ 118.04451, 36.793082 ] } },
{ "type": "Feature", "properties": { "类别": "公园", "名称": "淄博2025机器人公园", "经度": 118.108726, "纬度": 36.810638, "地址": "四宝山街道二零二二路1001号", "类型": "风景名胜;公园广场;公园", "省": "山东省", "市": "淄博市", "区县": "张店区", "经度_wgs84": 118.108027, "纬度_wgs84": 36.805733, "一级分类": "休闲" }, "geometry": { "type": "Point", "coordinates": [ 118.108027, 36.805733 ] } },
{ "type": "Feature", "properties": { "类别": "公园", "名称": "九顶山公园", "经度": 118.149906, "纬度": 36.825267, "地址": "四宝山街道四宝山街道荣兰线", "类型": "风景名胜;公园广场;公园", "省": "山东省", "市": "淄博市", "区县": "张店区", "经度_wgs84": 118.149253, "纬度_wgs84": 36.820426, "一级分类": "休闲" }, "geometry": { "type": "Point", "coordinates": [ 118.149253, 36.820426 ] } },
{ "type": "Feature", "properties": { "类别": "公园", "名称": "良乡公园", "经度": 118.073459, "纬度": 36.777821, "地址": "良乡体育运动公园(东北角)", "类型": "风景名胜;公园广场;公园", "省": "山东省", "市": "淄博市", "区县": "张店区", "经度_wgs84": 118.072803, "纬度_wgs84": 36.772913, "一级分类": "休闲" }, "geometry": { "type": "Point", "coordinates": [ 118.072803, 36.772913 ] } },
{ "type": "Feature", "properties": { "类别": "公园", "名称": "齐林公园", "经度": 118.062031, "纬度": 36.860615, "地址": "裕民路金晶大道126号", "类型": "风景名胜;公园广场;公园", "省": "山东省", "市": "淄博市", "区县": "张店区", "经度_wgs84": 118.061322, "纬度_wgs84": 36.855715, "一级分类": "休闲" }, "geometry": { "type": "Point", "coordinates": [ 118.061322, 36.855715 ] } },
{ "type": "Feature", "properties": { "类别": "公园", "名称": "张店儿童公园活氧森林", "经度": 118.073114, "纬度": 36.801707, "地址": "共青团东路30号张店儿童公园内(东侧)", "类型": "风景名胜;公园广场;公园", "省": "山东省", "市": "淄博市", "区县": "张店区", "经度_wgs84": 118.072438, "纬度_wgs84": 36.796799, "一级分类": "休闲" }, "geometry": { "type": "Point", "coordinates": [ 118.072438, 36.796799 ] } },
{ "type": "Feature", "properties": { "类别": "公园", "名称": "孝妇河骑行公园", "经度": 118.003852, "纬度": 36.747937, "地址": "南京路138号", "类型": "风景名胜;公园广场;公园", "省": "山东省", "市": "淄博市", "区县": "张店区", "经度_wgs84": 118.003422, "纬度_wgs84": 36.743161, "一级分类": "休闲" }, "geometry": { "type": "Point", "coordinates": [ 118.003422, 36.743161 ] } },
{ "type": "Feature", "properties": { "类别": "公园", "名称": "和平游园", "经度": 118.032201, "纬度": 36.797716, "地址": "和平路以北和平路北二巷以西", "类型": "风景名胜;公园广场;公园", "省": "山东省", "市": "淄博市", "区县": "张店区", "经度_wgs84": 118.031627, "纬度_wgs84": 36.792869, "一级分类": "休闲" }, "geometry": { "type": "Point", "coordinates": [ 118.031627, 36.792869 ] } },
{ "type": "Feature", "properties": { "类别": "公园", "名称": "桥下公园", "经度": 117.968623, "纬度": 36.851769, "地址": "原山大道与鲁泰大道交叉处", "类型": "风景名胜;公园广场;公园", "省": "山东省", "市": "淄博市", "区县": "张店区", "经度_wgs84": 117.968231, "纬度_wgs84": 36.847078, "一级分类": "休闲" }, "geometry": { "type": "Point", "coordinates": [ 117.968231, 36.847078 ] } },
{ "type": "Feature", "properties": { "类别": "公园", "名称": "法治文化公园", "经度": 118.07064, "纬度": 36.884022, "地址": "四宝山街道柳泉路甜源生活区西", "类型": "风景名胜;公园广场;公园", "省": "山东省", "市": "淄博市", "区县": "张店区", "经度_wgs84": 118.069894, "纬度_wgs84": 36.879113, "一级分类": "休闲" }, "geometry": { "type": "Point", "coordinates": [ 118.069894, 36.879113 ] } },
{ "type": "Feature", "properties": { "类别": "公园", "名称": "猪龙河银泰城游园", "经度": 118.037736, "纬度": 36.852834, "地址": "银泰城口南北两侧", "类型": "风景名胜;公园广场;公园", "省": "山东省", "市": "淄博市", "区县": "张店区", "经度_wgs84": 118.037096, "纬度_wgs84": 36.847974, "一级分类": "休闲" }, "geometry": { "type": "Point", "coordinates": [ 118.037096, 36.847974 ] } },
{ "type": "Feature", "properties": { "类别": "公园", "名称": "泰苑社区科普主题公园", "经度": 118.036588, "纬度": 36.818969, "地址": "北西五路兴业家园(北西六路)", "类型": "风景名胜;公园广场;公园", "省": "山东省", "市": "淄博市", "区县": "张店区", "经度_wgs84": 118.035982, "纬度_wgs84": 36.814112, "一级分类": "休闲" }, "geometry": { "type": "Point", "coordinates": [ 118.035982, 36.814112 ] } },
{ "type": "Feature", "properties": { "类别": "公园", "名称": "劳动公园-福欣园", "经度": 118.032785, "纬度": 36.807663, "地址": "南西六路共青团西路交叉口东南角", "类型": "风景名胜;公园广场;公园", "省": "山东省", "市": "淄博市", "区县": "张店区", "经度_wgs84": 118.032201, "纬度_wgs84": 36.802815, "一级分类": "休闲" }, "geometry": { "type": "Point", "coordinates": [ 118.032201, 36.802815 ] } },
{ "type": "Feature", "properties": { "类别": "公园", "名称": "和平街道见义勇为主题公园", "经度": 118.039853, "纬度": 36.798472, "地址": "和平社区", "类型": "风景名胜;公园广场;公园", "省": "山东省", "市": "淄博市", "区县": "张店区", "经度_wgs84": 118.039255, "纬度_wgs84": 36.793609, "一级分类": "休闲" }, "geometry": { "type": "Point", "coordinates": [ 118.039255, 36.793609 ] } },
{ "type": "Feature", "properties": { "类别": "公园", "名称": "凯盛南湖湿地公园", "经度": 118.007744, "纬度": 36.742352, "地址": "财富大道3号", "类型": "风景名胜;公园广场;公园", "省": "山东省", "市": "淄博市", "区县": "张店区", "经度_wgs84": 118.007304, "纬度_wgs84": 36.737566, "一级分类": "休闲" }, "geometry": { "type": "Point", "coordinates": [ 118.007304, 36.737566 ] } },
{ "type": "Feature", "properties": { "类别": "公园", "名称": "远景花园法治科普游园", "经度": 118.019766, "纬度": 36.842117, "地址": "盛湖路与北苑东街交叉口东南120米", "类型": "风景名胜;公园广场;公园", "省": "山东省", "市": "淄博市", "区县": "张店区", "经度_wgs84": 118.019196, "纬度_wgs84": 36.837298, "一级分类": "休闲" }, "geometry": { "type": "Point", "coordinates": [ 118.019196, 36.837298 ] } },
{ "type": "Feature", "properties": { "类别": "公园", "名称": "孙庄党建主题公园", "经度": 118.123778, "纬度": 36.846458, "地址": "孙庄社区", "类型": "风景名胜;公园广场;公园", "省": "山东省", "市": "淄博市", "区县": "张店区", "经度_wgs84": 118.123061, "纬度_wgs84": 36.841569, "一级分类": "休闲" }, "geometry": { "type": "Point", "coordinates": [ 118.123061, 36.841569 ] } },
{ "type": "Feature", "properties": { "类别": "公园", "名称": "猪龙河万杰路游园", "经度": 118.040305, "纬度": 36.842185, "地址": "猪龙河万杰路口南北两侧", "类型": "风景名胜;公园广场;公园", "省": "山东省", "市": "淄博市", "区县": "张店区", "经度_wgs84": 118.039667, "纬度_wgs84": 36.83732, "一级分类": "休闲" }, "geometry": { "type": "Point", "coordinates": [ 118.039667, 36.83732 ] } },
{ "type": "Feature", "properties": { "类别": "公园", "名称": "劳动公园", "经度": 117.995085, "纬度": 36.823149, "地址": "北京路31号", "类型": "风景名胜;公园广场;公园", "省": "山东省", "市": "淄博市", "区县": "张店区", "经度_wgs84": 117.994624, "纬度_wgs84": 36.818394, "一级分类": "休闲" }, "geometry": { "type": "Point", "coordinates": [ 117.994624, 36.818394 ] } },
{ "type": "Feature", "properties": { "类别": "公园", "名称": "淄博市张店区和平喷泉公园", "经度": 117.970292, "纬度": 36.802271, "地址": "天津路南头与和平路西端交汇处丁字路口南侧", "类型": "风景名胜;公园广场;公园", "省": "山东省", "市": "淄博市", "区县": "张店区", "经度_wgs84": 117.969938, "纬度_wgs84": 36.797578, "一级分类": "休闲" }, "geometry": { "type": "Point", "coordinates": [ 117.969938, 36.797578 ] } },
{ "type": "Feature", "properties": { "类别": "公园", "名称": "新时代美德健康生活主题公园", "经度": 118.036701, "纬度": 36.840526, "地址": "西五路与政通路西西五路游园内(南侧)", "类型": "风景名胜;公园广场;公园", "省": "山东省", "市": "淄博市", "区县": "张店区", "经度_wgs84": 118.036075, "纬度_wgs84": 36.835669, "一级分类": "休闲" }, "geometry": { "type": "Point", "coordinates": [ 118.036075, 36.835669 ] } },
{ "type": "Feature", "properties": { "类别": "公园", "名称": "美达世纪华庭中心公园", "经度": 118.016764, "纬度": 36.824686, "地址": "小商品街88号美达世纪华庭内", "类型": "风景名胜;公园广场;公园", "省": "山东省", "市": "淄博市", "区县": "张店区", "经度_wgs84": 118.01622, "纬度_wgs84": 36.819875, "一级分类": "休闲" }, "geometry": { "type": "Point", "coordinates": [ 118.01622, 36.819875 ] } },
{ "type": "Feature", "properties": { "类别": "公园", "名称": "齐盛湖公园北门办公区", "经度": 117.988034, "纬度": 36.844019, "地址": "龙泰贵府盛湖路南门对面公园停车场公园内东50米", "类型": "风景名胜;公园广场;公园广场", "省": "山东省", "市": "淄博市", "区县": "张店区", "经度_wgs84": 117.98758, "纬度_wgs84": 36.839282, "一级分类": "休闲" }, "geometry": { "type": "Point", "coordinates": [ 117.98758, 36.839282 ] } },
{ "type": "Feature", "properties": { "类别": "公园", "名称": "高新区122交通安全主题公园", "经度": 118.071863, "纬度": 36.865687, "地址": "裕民路与顺河路交叉口", "类型": "风景名胜;公园广场;公园", "省": "山东省", "市": "淄博市", "区县": "张店区", "经度_wgs84": 118.071132, "纬度_wgs84": 36.860778, "一级分类": "休闲" }, "geometry": { "type": "Point", "coordinates": [ 118.071132, 36.860778 ] } },
{ "type": "Feature", "properties": { "类别": "公园", "名称": "房镇体育公园", "经度": 117.965537, "纬度": 36.86354, "地址": "美田路", "类型": "风景名胜;公园广场;公园|风景名胜;风景名胜;风景名胜", "省": "山东省", "市": "淄博市", "区县": "张店区", "经度_wgs84": 117.965144, "纬度_wgs84": 36.858856, "一级分类": "休闲" }, "geometry": { "type": "Point", "coordinates": [ 117.965144, 36.858856 ] } },
{ "type": "Feature", "properties": { "类别": "公园", "名称": "傅山公园", "经度": 118.143232, "纬度": 36.875205, "地址": "中心路与蟠龙山东路交叉口东南240米", "类型": "风景名胜;公园广场;公园", "省": "山东省", "市": "淄博市", "区县": "张店区", "经度_wgs84": 118.142521, "纬度_wgs84": 36.870349, "一级分类": "休闲" }, "geometry": { "type": "Point", "coordinates": [ 118.142521, 36.870349 ] } },
{ "type": "Feature", "properties": { "类别": "公园", "名称": "孙庄游园", "经度": 118.122867, "纬度": 36.846228, "地址": "民祥路与玉皇山路交叉口东南角", "类型": "风景名胜;公园广场;公园", "省": "山东省", "市": "淄博市", "区县": "张店区", "经度_wgs84": 118.122149, "纬度_wgs84": 36.841338, "一级分类": "休闲" }, "geometry": { "type": "Point", "coordinates": [ 118.122149, 36.841338 ] } },
{ "type": "Feature", "properties": { "类别": "公园", "名称": "体坛小区中心公园", "经度": 118.028164, "纬度": 36.800127, "地址": "新村路劳动大厦西新村西路体坛小区内", "类型": "风景名胜;公园广场;公园", "省": "山东省", "市": "淄博市", "区县": "张店区", "经度_wgs84": 118.027601, "纬度_wgs84": 36.795289, "一级分类": "休闲" }, "geometry": { "type": "Point", "coordinates": [ 118.027601, 36.795289 ] } },
{ "type": "Feature", "properties": { "类别": "公园", "名称": "百家姓主题纪念公园", "经度": 117.995852, "纬度": 36.885687, "地址": "北京路和齐祥交叉口", "类型": "风景名胜;公园广场;公园", "省": "山东省", "市": "淄博市", "区县": "张店区", "经度_wgs84": 117.995332, "纬度_wgs84": 36.880928, "一级分类": "休闲" }, "geometry": { "type": "Point", "coordinates": [ 117.995332, 36.880928 ] } },
{ "type": "Feature", "properties": { "类别": "公园", "名称": "白鹭乐园", "经度": 118.008001, "纬度": 36.742924, "地址": "财富大道3号凯盛南湖湿地公园", "类型": "风景名胜;公园广场;公园", "省": "山东省", "市": "淄博市", "区县": "张店区", "经度_wgs84": 118.00756, "纬度_wgs84": 36.738138, "一级分类": "休闲" }, "geometry": { "type": "Point", "coordinates": [ 118.00756, 36.738138 ] } },
{ "type": "Feature", "properties": { "类别": "公园", "名称": "涝淄河交通安全主题园", "经度": 118.072132, "纬度": 36.867468, "地址": "警民路与文化路交叉口西120米", "类型": "风景名胜;公园广场;公园", "省": "山东省", "市": "淄博市", "区县": "张店区", "经度_wgs84": 118.071399, "纬度_wgs84": 36.862558, "一级分类": "休闲" }, "geometry": { "type": "Point", "coordinates": [ 118.071399, 36.862558 ] } },
{ "type": "Feature", "properties": { "类别": "公园", "名称": "德治文化公园", "经度": 118.074285, "纬度": 36.883545, "地址": "法治文化公园", "类型": "风景名胜;公园广场;公园", "省": "山东省", "市": "淄博市", "区县": "张店区", "经度_wgs84": 118.073534, "纬度_wgs84": 36.878633, "一级分类": "休闲" }, "geometry": { "type": "Point", "coordinates": [ 118.073534, 36.878633 ] } },
{ "type": "Feature", "properties": { "类别": "公园", "名称": "青年公园", "经度": 118.040537, "纬度": 36.760851, "地址": "南定镇西山路21号", "类型": "风景名胜;公园广场;公园", "省": "山东省", "市": "淄博市", "区县": "张店区", "经度_wgs84": 118.039969, "纬度_wgs84": 36.755988, "一级分类": "休闲" }, "geometry": { "type": "Point", "coordinates": [ 118.039969, 36.755988 ] } },
{ "type": "Feature", "properties": { "类别": "公园", "名称": "南营公园", "经度": 118.068447, "纬度": 36.845105, "地址": "鲁泰大道", "类型": "风景名胜;公园广场;公园", "省": "山东省", "市": "淄博市", "区县": "张店区", "经度_wgs84": 118.06774, "纬度_wgs84": 36.840199, "一级分类": "休闲" }, "geometry": { "type": "Point", "coordinates": [ 118.06774, 36.840199 ] } },
{ "type": "Feature", "properties": { "类别": "公园", "名称": "涝淄河公园", "经度": 118.071893, "纬度": 36.87101, "地址": "四宝山街道赵王路三玉花园附近", "类型": "风景名胜;公园广场;公园", "省": "山东省", "市": "淄博市", "区县": "张店区", "经度_wgs84": 118.071157, "纬度_wgs84": 36.866101, "一级分类": "休闲" }, "geometry": { "type": "Point", "coordinates": [ 118.071157, 36.866101 ] } }
]
}
