{
"type": "FeatureCollection",
"name": "poi_公交站_cleaned",
"crs": { "type": "name", "properties": { "name": "urn:ogc:def:crs:OGC:1.3:CRS84" } },
"features": [
{ "type": "Feature", "properties": { "类别": "公交站", "名称": "市政府(公交站)", "经度": 118.054332, "纬度": 36.812938, "地址": "102路/K102路;105路/K105路;108路/K108路;116路/K116路(北线);116路/K116路(南线);127路/K127路;135路/K135路;136路/K136路", "类型": "交通设施服务;公交车站;公交车站相关", "省": "山东省", "市": "淄博市", "区县": "张店区", "经度_wgs84": 118.053682, "纬度_wgs84": 36.80805, "一级分类": "交通" }, "geometry": { "type": "Point", "coordinates": [ 118.053682, 36.80805 ] } },
{ "type": "Feature", "properties": { "类别": "公交站", "名称": "中国银行(公交站)", "经度": 118.052072, "纬度": 36.815448, "地址": "123路/K123路;136路/K136路;151路(王府井-淄川)直达/K151路;157路/K157路;158路/K158路;181路/K181路;251路/K251路;35路/K35路;51路西线;58路/K58路;89路/K89路;90路/K90路北线;90路/K90路南线;接站专线车", "类型": "交通设施服务;公交车站;公交车站相关", "省": "山东省", "市": "淄博市", "区县": "张店区", "经度_wgs84": 118.051425, "纬度_wgs84": 36.810563, "一级分类": "交通" }, "geometry": { "type": "Point", "coordinates": [ 118.051425, 36.810563 ] } },
{ "type": "Feature", "properties": { "类别": "公交站", "名称": "市青少年宫(公交站)", "经度": 118.051109, "纬度": 36.812191, "地址": "123路/K123路;127路/K127路;157路/K157路;158路/K158路;251路/K251路;35路/K35路;51路西线;58路/K58路;89路/K89路;90路/K90路北线;90路/K90路南线;92路/K92路;接站专线车", "类型": "交通设施服务;公交车站;公交车站相关", "省": "山东省", "市": "淄博市", "区县": "张店区", "经度_wgs84": 118.050467, "纬度_wgs84": 36.807308, "一级分类": "交通" }, "geometry": { "type": "Point", "coordinates": [ 118.050467, 36.807308 ] } },
{ "type": "Feature", "properties": { "类别": "公交站", "名称": "市府东一街(公交站)", "经度": 118.055937, "纬度": 36.813894, "地址": "102路/K102路;122路/K122路;125路/K125路", "类型": "交通设施服务;公交车站;公交车站相关", "省": "山东省", "市": "淄博市", "区县": "张店区", "经度_wgs84": 118.055282, "纬度_wgs84": 36.809004, "一级分类": "交通" }, "geometry": { "type": "Point", "coordinates": [ 118.055282, 36.809004 ] } },
{ "type": "Feature", "properties": { "类别": "公交站", "名称": "人民公园(公交站)", "经度": 118.050289, "纬度": 36.809018, "地址": "123路/K123路;127路/K127路;151路(王府井-淄川)直达/K151路;157路/K157路;158路/K158路;251路/K251路;35路/K35路;51路西线;58路/K58路;89路/K89路;90路/K90路北线;90路/K90路南线;92路/K92路;定制公交赏花灯专线一", "类型": "交通设施服务;公交车站;公交车站相关", "省": "山东省", "市": "淄博市", "区县": "张店区", "经度_wgs84": 118.049652, "纬度_wgs84": 36.804136, "一级分类": "交通" }, "geometry": { "type": "Point", "coordinates": [ 118.049652, 36.804136 ] } },
{ "type": "Feature", "properties": { "类别": "公交站", "名称": "新元学校(公交站)", "经度": 118.05299, "纬度": 36.819049, "地址": "123路/K123路;136路/K136路;157路/K157路;158路/K158路;251路/K251路;35路/K35路;51路西线;58路/K58路;89路/K89路;90路/K90路北线;90路/K90路南线;接站专线车", "类型": "交通设施服务;公交车站;公交车站相关", "省": "山东省", "市": "淄博市", "区县": "张店区", "经度_wgs84": 118.052338, "纬度_wgs84": 36.814163, "一级分类": "交通" }, "geometry": { "type": "Point", "coordinates": [ 118.052338, 36.814163 ] } },
{ "type": "Feature", "properties": { "类别": "公交站", "名称": "天泰金店珠宝城(公交站)", "经度": 118.04934, "纬度": 36.8048, "地址": "132路/K132路;137路/K137路;151路(王府井-淄川)直达/K151路;160路/K160路;181路/K181路;251路/K251路;35路/K35路;51路西线;87路大站快线;89路/K89路;90路/K90路北线;90路/K90路南线;92路/K92路;夜160路", "类型": "交通设施服务;公交车站;公交车站相关", "省": "山东省", "市": "淄博市", "区县": "张店区", "经度_wgs84": 118.048709, "纬度_wgs84": 36.79992, "一级分类": "交通" }, "geometry": { "type": "Point", "coordinates": [ 118.048709, 36.79992 ] } },
{ "type": "Feature", "properties": { "类别": "公交站", "名称": "八大局市场南门(公交站)", "经度": 118.066253, "纬度": 36.804204, "地址": "(停运)公交专线;(停运)蒲松龄纪念馆公交旅游专线;136路/K136路;71路;71路(6点30分);定制公交赏花灯专线一", "类型": "交通设施服务;公交车站;公交车站相关", "省": "山东省", "市": "淄博市", "区县": "张店区", "经度_wgs84": 118.065586, "纬度_wgs84": 36.799301, "一级分类": "交通" }, "geometry": { "type": "Point", "coordinates": [ 118.065586, 36.799301 ] } },
{ "type": "Feature", "properties": { "类别": "公交站", "名称": "人民路金晶大道路口(公交站)", "经度": 118.061024, "纬度": 36.81169, "地址": "105路/K105路;108路/K108路;116路/K116路(北线);116路/K116路(南线);127路/K127路;135路/K135路;136路/K136路", "类型": "交通设施服务;公交车站;公交车站相关", "省": "山东省", "市": "淄博市", "区县": "张店区", "经度_wgs84": 118.06036, "纬度_wgs84": 36.806793, "一级分类": "交通" }, "geometry": { "type": "Point", "coordinates": [ 118.06036, 36.806793 ] } },
{ "type": "Feature", "properties": { "类别": "公交站", "名称": "淄博市级机关医院(公交站)", "经度": 118.056262, "纬度": 36.811678, "地址": "122路/K122路;125路/K125路", "类型": "交通设施服务;公交车站;公交车站相关", "省": "山东省", "市": "淄博市", "区县": "张店区", "经度_wgs84": 118.055609, "纬度_wgs84": 36.806787, "一级分类": "交通" }, "geometry": { "type": "Point", "coordinates": [ 118.055609, 36.806787 ] } },
{ "type": "Feature", "properties": { "类别": "公交站", "名称": "市工商银行(公交站)", "经度": 118.063146, "纬度": 36.812928, "地址": "116路/K116路(北线);116路/K116路(南线);138路东线;138路西线;159路/K159路;162路;266路/K266路;2路/K2路;51路(东线)", "类型": "交通设施服务;公交车站;公交车站相关", "省": "山东省", "市": "淄博市", "区县": "张店区", "经度_wgs84": 118.062477, "纬度_wgs84": 36.808028, "一级分类": "交通" }, "geometry": { "type": "Point", "coordinates": [ 118.062477, 36.808028 ] } },
{ "type": "Feature", "properties": { "类别": "公交站", "名称": "淄博商厦(公交站)", "经度": 118.05936, "纬度": 36.799971, "地址": "108路/K108路;123路/K123路;127路/K127路;138路东线;138路西线;139路/K139路;150路/K150路;159路/K159路;162路;172路大站快线;1路直达(利群);222路/K222路;266路/K266路;2路/K2路;51路(东线);58路/K58路;76路/K76路", "类型": "交通设施服务;公交车站;公交车站相关", "省": "山东省", "市": "淄博市", "区县": "张店区", "经度_wgs84": 118.05871, "纬度_wgs84": 36.795076, "一级分类": "交通" }, "geometry": { "type": "Point", "coordinates": [ 118.05871, 36.795076 ] } },
{ "type": "Feature", "properties": { "类别": "公交站", "名称": "浦发银行(公交站)", "经度": 118.049528, "纬度": 36.813745, "地址": "102路/K102路;105路/K105路;108路/K108路;116路/K116路(北线);116路/K116路(南线);135路/K135路;92路/K92路", "类型": "交通设施服务;公交车站;公交车站相关", "省": "山东省", "市": "淄博市", "区县": "张店区", "经度_wgs84": 118.048889, "纬度_wgs84": 36.808864, "一级分类": "交通" }, "geometry": { "type": "Point", "coordinates": [ 118.048889, 36.808864 ] } },
{ "type": "Feature", "properties": { "类别": "公交站", "名称": "张店区第三中学(公交站)", "经度": 118.055927, "纬度": 36.807596, "地址": "122路/K122路;125路/K125路", "类型": "交通设施服务;公交车站;公交车站相关", "省": "山东省", "市": "淄博市", "区县": "张店区", "经度_wgs84": 118.055278, "纬度_wgs84": 36.802706, "一级分类": "交通" }, "geometry": { "type": "Point", "coordinates": [ 118.055278, 36.802706 ] } },
{ "type": "Feature", "properties": { "类别": "公交站", "名称": "广电大厦(公交站)", "经度": 118.05526, "纬度": 36.820202, "地址": "102路/K102路;125路/K125路;138路东线;138路西线;2路/K2路;89路/K89路", "类型": "交通设施服务;公交车站;公交车站相关", "省": "山东省", "市": "淄博市", "区县": "张店区", "经度_wgs84": 118.054601, "纬度_wgs84": 36.815312, "一级分类": "交通" }, "geometry": { "type": "Point", "coordinates": [ 118.054601, 36.815312 ] } },
{ "type": "Feature", "properties": { "类别": "公交站", "名称": "潘庄(公交站)", "经度": 118.053795, "纬度": 36.822574, "地址": "102路/K102路;123路/K123路;125路/K125路;157路/K157路;251路/K251路;35路/K35路;51路西线;58路/K58路;定制公交赏花灯专线一;接站专线车", "类型": "交通设施服务;公交车站;公交车站相关", "省": "山东省", "市": "淄博市", "区县": "张店区", "经度_wgs84": 118.053138, "纬度_wgs84": 36.817686, "一级分类": "交通" }, "geometry": { "type": "Point", "coordinates": [ 118.053138, 36.817686 ] } },
{ "type": "Feature", "properties": { "类别": "公交站", "名称": "淄博饭店(公交站)", "经度": 118.060968, "纬度": 36.805968, "地址": "108路/K108路;138路东线;138路西线;159路/K159路;162路;266路/K266路;2路/K2路;51路(东线);接站专线车", "类型": "交通设施服务;公交车站;公交车站相关", "省": "山东省", "市": "淄博市", "区县": "张店区", "经度_wgs84": 118.060309, "纬度_wgs84": 36.801071, "一级分类": "交通" }, "geometry": { "type": "Point", "coordinates": [ 118.060309, 36.801071 ] } },
{ "type": "Feature", "properties": { "类别": "公交站", "名称": "北京同仁堂淄博药店(公交站)", "经度": 118.061864, "纬度": 36.809021, "地址": "108路/K108路;138路东线;138路西线;159路/K159路;162路;266路/K266路;2路/K2路;51路(东线)", "类型": "交通设施服务;公交车站;公交车站相关", "省": "山东省", "市": "淄博市", "区县": "张店区", "经度_wgs84": 118.061201, "纬度_wgs84": 36.804123, "一级分类": "交通" }, "geometry": { "type": "Point", "coordinates": [ 118.061201, 36.804123 ] } },
{ "type": "Feature", "properties": { "类别": "公交站", "名称": "淄博剧院(公交站)", "经度": 118.058919, "纬度": 36.805375, "地址": "123路/K123路;127路/K127路;139路/K139路;158路/K158路;58路/K58路;7路/K7路;88路/K88路内环;88路/K88路外环;接站专线车", "类型": "交通设施服务;公交车站;公交车站相关", "省": "山东省", "市": "淄博市", "区县": "张店区", "经度_wgs84": 118.058265, "纬度_wgs84": 36.800481, "一级分类": "交通" }, "geometry": { "type": "Point", "coordinates": [ 118.058265, 36.800481 ] } },
{ "type": "Feature", "properties": { "类别": "公交站", "名称": "利群(公交站)", "经度": 118.060653, "纬度": 36.801164, "地址": "(停运)公交专线;138路东线;138路西线;150路/K150路;222路/K222路", "类型": "交通设施服务;公交车站;公交车站相关", "省": "山东省", "市": "淄博市", "区县": "张店区", "经度_wgs84": 118.059999, "纬度_wgs84": 36.796268, "一级分类": "交通" }, "geometry": { "type": "Point", "coordinates": [ 118.059999, 36.796268 ] } },
{ "type": "Feature", "properties": { "类别": "公交站", "名称": "中房(公交站)", "经度": 118.0504, "纬度": 36.820686, "地址": "136路/K136路;138路东线;138路西线;158路/K158路;2路/K2路;90路/K90路北线;90路/K90路南线", "类型": "交通设施服务;公交车站;公交车站相关", "省": "山东省", "市": "淄博市", "区县": "张店区", "经度_wgs84": 118.049753, "纬度_wgs84": 36.815804, "一级分类": "交通" }, "geometry": { "type": "Point", "coordinates": [ 118.049753, 36.815804 ] } },
{ "type": "Feature", "properties": { "类别": "公交站", "名称": "市中心医院(公交站)", "经度": 118.053629, "纬度": 36.806047, "地址": "(停运)公交专线;123路/K123路;127路/K127路;132路/K132路;139路/K139路;158路/K158路;58路/K58路;7路/K7路;88路/K88路内环;88路/K88路外环;接站专线车", "类型": "交通设施服务;公交车站;公交车站相关", "省": "山东省", "市": "淄博市", "区县": "张店区", "经度_wgs84": 118.052987, "纬度_wgs84": 36.80116, "一级分类": "交通" }, "geometry": { "type": "Point", "coordinates": [ 118.052987, 36.80116 ] } },
{ "type": "Feature", "properties": { "类别": "公交站", "名称": "淄博文化艺术城(公交站)", "经度": 118.064635, "纬度": 36.817114, "地址": "116路/K116路(北线);116路/K116路(南线);138路东线;138路西线;159路/K159路;162路;266路/K266路;2路/K2路;51路(东线);71路;71路(6点30分);88路/K88路内环;88路/K88路外环;89路/K89路", "类型": "交通设施服务;公交车站;公交车站相关", "省": "山东省", "市": "淄博市", "区县": "张店区", "经度_wgs84": 118.063959, "纬度_wgs84": 36.812213, "一级分类": "交通" }, "geometry": { "type": "Point", "coordinates": [ 118.063959, 36.812213 ] } },
{ "type": "Feature", "properties": { "类别": "公交站", "名称": "第七医院(公交站)", "经度": 118.054646, "纬度": 36.82602, "地址": "102路/K102路;123路/K123路;125路/K125路;157路/K157路;35路/K35路;51路西线;58路/K58路;定制公交赏花灯专线一;接站专线车", "类型": "交通设施服务;公交车站;公交车站相关", "省": "山东省", "市": "淄博市", "区县": "张店区", "经度_wgs84": 118.053984, "纬度_wgs84": 36.821131, "一级分类": "交通" }, "geometry": { "type": "Point", "coordinates": [ 118.053984, 36.821131 ] } },
{ "type": "Feature", "properties": { "类别": "公交站", "名称": "市政府三宿舍(公交站)", "经度": 118.036987, "纬度": 36.825352, "地址": "108路/K108路;137路/K137路;169路/K169路;223路/K223路;90路/K90路北线;90路/K90路南线", "类型": "交通设施服务;公交车站;公交车站相关", "省": "山东省", "市": "淄博市", "区县": "张店区", "经度_wgs84": 118.036374, "纬度_wgs84": 36.820494, "一级分类": "交通" }, "geometry": { "type": "Point", "coordinates": [ 118.036374, 36.820494 ] } },
{ "type": "Feature", "properties": { "类别": "公交站", "名称": "市职教研究院(公交站)", "经度": 118.05699, "纬度": 36.817908, "地址": "102路/K102路;125路/K125路", "类型": "交通设施服务;公交车站;公交车站相关", "省": "山东省", "市": "淄博市", "区县": "张店区", "经度_wgs84": 118.056329, "纬度_wgs84": 36.813016, "一级分类": "交通" }, "geometry": { "type": "Point", "coordinates": [ 118.056329, 36.813016 ] } },
{ "type": "Feature", "properties": { "类别": "公交站", "名称": "西二路农贸市场(公交站)", "经度": 118.054905, "纬度": 36.80421, "地址": "122路/K122路;125路/K125路;132路/K132路", "类型": "交通设施服务;公交车站;公交车站相关", "省": "山东省", "市": "淄博市", "区县": "张店区", "经度_wgs84": 118.054261, "纬度_wgs84": 36.799321, "一级分类": "交通" }, "geometry": { "type": "Point", "coordinates": [ 118.054261, 36.799321 ] } },
{ "type": "Feature", "properties": { "类别": "公交站", "名称": "市第十八中学(公交站)", "经度": 118.057528, "纬度": 36.816185, "地址": "122路/K122路", "类型": "交通设施服务;公交车站;公交车站相关", "省": "山东省", "市": "淄博市", "区县": "张店区", "经度_wgs84": 118.056868, "纬度_wgs84": 36.811292, "一级分类": "交通" }, "geometry": { "type": "Point", "coordinates": [ 118.056868, 36.811292 ] } },
{ "type": "Feature", "properties": { "类别": "公交站", "名称": "淄博商厦(齐商银行)(公交站)", "经度": 118.059501, "纬度": 36.800363, "地址": "150路/K150路", "类型": "交通设施服务;公交车站;公交车站相关", "省": "山东省", "市": "淄博市", "区县": "张店区", "经度_wgs84": 118.05885, "纬度_wgs84": 36.795468, "一级分类": "交通" }, "geometry": { "type": "Point", "coordinates": [ 118.05885, 36.795468 ] } },
{ "type": "Feature", "properties": { "类别": "公交站", "名称": "市委(公交站)", "经度": 118.045743, "纬度": 36.814124, "地址": "102路/K102路;105路/K105路;108路/K108路;116路/K116路(北线);116路/K116路(南线);135路/K135路;92路/K92路", "类型": "交通设施服务;公交车站;公交车站相关", "省": "山东省", "市": "淄博市", "区县": "张店区", "经度_wgs84": 118.045114, "纬度_wgs84": 36.80925, "一级分类": "交通" }, "geometry": { "type": "Point", "coordinates": [ 118.045114, 36.80925 ] } },
{ "type": "Feature", "properties": { "类别": "公交站", "名称": "钻石商务大厦(公交站)", "经度": 118.046496, "纬度": 36.807251, "地址": "(停运)公交专线;137路/K137路;139路/K139路;157路/K157路;160路/K160路;7路/K7路;88路/K88路内环;88路/K88路外环;夜160路", "类型": "交通设施服务;公交车站;公交车站相关", "省": "山东省", "市": "淄博市", "区县": "张店区", "经度_wgs84": 118.045871, "纬度_wgs84": 36.802376, "一级分类": "交通" }, "geometry": { "type": "Point", "coordinates": [ 118.045871, 36.802376 ] } },
{ "type": "Feature", "properties": { "类别": "公交站", "名称": "新村路金晶大道路口(公交站)", "经度": 118.056954, "纬度": 36.798474, "地址": "122路/K122路;125路/K125路;126路/K126路;12路/K12路;89路/K89路;92路/K92路;96路/K96路", "类型": "交通设施服务;公交车站;公交车站相关", "省": "山东省", "市": "淄博市", "区县": "张店区", "经度_wgs84": 118.05631, "纬度_wgs84": 36.793583, "一级分类": "交通" }, "geometry": { "type": "Point", "coordinates": [ 118.05631, 36.793583 ] } },
{ "type": "Feature", "properties": { "类别": "公交站", "名称": "大润发超市(公交站)", "经度": 118.041422, "纬度": 36.821142, "地址": "121路/K121路;126路/K126路;136路/K136路;138路东线;138路西线;151路(王府井-淄川)直达/K151路;158路/K158路;181路/K181路;185路;2路/K2路;88路/K88路内环;88路/K88路外环;90路/K90路北线;90路/K90路南线;玉黛赏花灯定制公交", "类型": "交通设施服务;公交车站;公交车站相关", "省": "山东省", "市": "淄博市", "区县": "张店区", "经度_wgs84": 118.040799, "纬度_wgs84": 36.816276, "一级分类": "交通" }, "geometry": { "type": "Point", "coordinates": [ 118.040799, 36.816276 ] } },
{ "type": "Feature", "properties": { "类别": "公交站", "名称": "理工大学东校区(南门)(公交站)", "经度": 118.041022, "纬度": 36.807925, "地址": "88路/K88路内环;夜160路", "类型": "交通设施服务;公交车站;公交车站相关", "省": "山东省", "市": "淄博市", "区县": "张店区", "经度_wgs84": 118.040412, "纬度_wgs84": 36.80306, "一级分类": "交通" }, "geometry": { "type": "Point", "coordinates": [ 118.040412, 36.80306 ] } },
{ "type": "Feature", "properties": { "类别": "公交站", "名称": "人民东路小学(公交站)", "经度": 118.064995, "纬度": 36.810867, "地址": "105路/K105路;127路/K127路;135路/K135路;136路/K136路", "类型": "交通设施服务;公交车站;公交车站相关", "省": "山东省", "市": "淄博市", "区县": "张店区", "经度_wgs84": 118.064324, "纬度_wgs84": 36.805965, "一级分类": "交通" }, "geometry": { "type": "Point", "coordinates": [ 118.064324, 36.805965 ] } },
{ "type": "Feature", "properties": { "类别": "公交站", "名称": "东二路(公交站)", "经度": 118.070259, "纬度": 36.796677, "地址": "122路/K122路;123路/K123路;150路/K150路;206路;20路;37路/K37路;5路;6路/K6路;82路", "类型": "交通设施服务;公交车站;公交车站相关", "省": "山东省", "市": "淄博市", "区县": "张店区", "经度_wgs84": 118.069592, "纬度_wgs84": 36.791771, "一级分类": "交通" }, "geometry": { "type": "Point", "coordinates": [ 118.069592, 36.791771 ] } },
{ "type": "Feature", "properties": { "类别": "公交站", "名称": "华瑞园(公交站)", "经度": 118.056026, "纬度": 36.830856, "地址": "102路/K102路;125路/K125路;126路/K126路;159路/K159路;251路/K251路;35路/K35路;51路西线;58路/K58路;定制公交赏花灯专线一;接站专线车", "类型": "交通设施服务;公交车站;公交车站相关", "省": "山东省", "市": "淄博市", "区县": "张店区", "经度_wgs84": 118.055356, "纬度_wgs84": 36.825965, "一级分类": "交通" }, "geometry": { "type": "Point", "coordinates": [ 118.055356, 36.825965 ] } },
{ "type": "Feature", "properties": { "类别": "公交站", "名称": "华夏商厦(公交站)", "经度": 118.051168, "纬度": 36.80331, "地址": "138路东线;138路西线;222路/K222路", "类型": "交通设施服务;公交车站;公交车站相关", "省": "山东省", "市": "淄博市", "区县": "张店区", "经度_wgs84": 118.050534, "纬度_wgs84": 36.798427, "一级分类": "交通" }, "geometry": { "type": "Point", "coordinates": [ 118.050534, 36.798427 ] } },
{ "type": "Feature", "properties": { "类别": "公交站", "名称": "市保安公司(公交站)", "经度": 118.063001, "纬度": 36.799795, "地址": "136路/K136路;150路/K150路;222路/K222路;71路;71路(6点30分);7路/K7路;8路/K8路", "类型": "交通设施服务;公交车站;公交车站相关", "省": "山东省", "市": "淄博市", "区县": "张店区", "经度_wgs84": 118.062344, "纬度_wgs84": 36.794896, "一级分类": "交通" }, "geometry": { "type": "Point", "coordinates": [ 118.062344, 36.794896 ] } },
{ "type": "Feature", "properties": { "类别": "公交站", "名称": "开元文化大世界(公交站)", "经度": 118.053972, "纬度": 36.802551, "地址": "122路/K122路;125路/K125路;132路/K132路;138路东线;138路西线;222路/K222路", "类型": "交通设施服务;公交车站;公交车站相关", "省": "山东省", "市": "淄博市", "区县": "张店区", "经度_wgs84": 118.053332, "纬度_wgs84": 36.797664, "一级分类": "交通" }, "geometry": { "type": "Point", "coordinates": [ 118.053332, 36.797664 ] } },
{ "type": "Feature", "properties": { "类别": "公交站", "名称": "东一路新村路口(公交站)", "经度": 118.062464, "纬度": 36.796641, "地址": "136路/K136路;206路;222路/K222路;5路;6路/K6路;71路;71路(6点30分);7路/K7路;82路;8路/K8路", "类型": "交通设施服务;公交车站;公交车站相关", "省": "山东省", "市": "淄博市", "区县": "张店区", "经度_wgs84": 118.06181, "纬度_wgs84": 36.791743, "一级分类": "交通" }, "geometry": { "type": "Point", "coordinates": [ 118.06181, 36.791743 ] } },
{ "type": "Feature", "properties": { "类别": "公交站", "名称": "张店区中医院(公交站)", "经度": 118.051779, "纬度": 36.799863, "地址": "126路/K126路;12路/K12路;132路/K132路;89路/K89路;92路/K92路;96路/K96路", "类型": "交通设施服务;公交车站;公交车站相关", "省": "山东省", "市": "淄博市", "区县": "张店区", "经度_wgs84": 118.051147, "纬度_wgs84": 36.794979, "一级分类": "交通" }, "geometry": { "type": "Point", "coordinates": [ 118.051147, 36.794979 ] } },
{ "type": "Feature", "properties": { "类别": "公交站", "名称": "新村路柳泉路口(公交站)", "经度": 118.045433, "纬度": 36.800866, "地址": "126路/K126路;12路/K12路;132路/K132路;35路/K35路;90路/K90路北线;90路/K90路南线;96路/K96路", "类型": "交通设施服务;公交车站;公交车站相关", "省": "山东省", "市": "淄博市", "区县": "张店区", "经度_wgs84": 118.044816, "纬度_wgs84": 36.795993, "一级分类": "交通" }, "geometry": { "type": "Point", "coordinates": [ 118.044816, 36.795993 ] } },
{ "type": "Feature", "properties": { "类别": "公交站", "名称": "第七医院北门(公交站)", "经度": 118.052491, "纬度": 36.827855, "地址": "123路/K123路;126路/K126路;79路/K79路", "类型": "交通设施服务;公交车站;公交车站相关", "省": "山东省", "市": "淄博市", "区县": "张店区", "经度_wgs84": 118.051832, "纬度_wgs84": 36.822969, "一级分类": "交通" }, "geometry": { "type": "Point", "coordinates": [ 118.051832, 36.822969 ] } },
{ "type": "Feature", "properties": { "类别": "公交站", "名称": "东方星城(公交站)", "经度": 118.066405, "纬度": 36.822387, "地址": "116路/K116路(北线);116路/K116路(南线);122路/K122路;159路/K159路;162路;51路(东线);71路;71路(6点30分);88路/K88路内环;88路/K88路外环", "类型": "交通设施服务;公交车站;公交车站相关", "省": "山东省", "市": "淄博市", "区县": "张店区", "经度_wgs84": 118.065722, "纬度_wgs84": 36.817484, "一级分类": "交通" }, "geometry": { "type": "Point", "coordinates": [ 118.065722, 36.817484 ] } },
{ "type": "Feature", "properties": { "类别": "公交站", "名称": "市自然资源局(公交站)", "经度": 118.041191, "纬度": 36.814252, "地址": "102路/K102路;105路/K105路;108路/K108路;116路/K116路(北线);116路/K116路(南线);135路/K135路;92路/K92路", "类型": "交通设施服务;公交车站;公交车站相关", "省": "山东省", "市": "淄博市", "区县": "张店区", "经度_wgs84": 118.040575, "纬度_wgs84": 36.809386, "一级分类": "交通" }, "geometry": { "type": "Point", "coordinates": [ 118.040575, 36.809386 ] } },
{ "type": "Feature", "properties": { "类别": "公交站", "名称": "迎春园(公交站)", "经度": 118.057882, "纬度": 36.827157, "地址": "157路/K157路;159路/K159路;79路/K79路;88路/K88路内环;88路/K88路外环", "类型": "交通设施服务;公交车站;公交车站相关", "省": "山东省", "市": "淄博市", "区县": "张店区", "经度_wgs84": 118.057211, "纬度_wgs84": 36.822263, "一级分类": "交通" }, "geometry": { "type": "Point", "coordinates": [ 118.057211, 36.822263 ] } },
{ "type": "Feature", "properties": { "类别": "公交站", "名称": "东营银行淄博分行(公交站)", "经度": 118.060794, "纬度": 36.81922, "地址": "138路东线;138路西线;2路/K2路;89路/K89路", "类型": "交通设施服务;公交车站;公交车站相关", "省": "山东省", "市": "淄博市", "区县": "张店区", "经度_wgs84": 118.060124, "纬度_wgs84": 36.814323, "一级分类": "交通" }, "geometry": { "type": "Point", "coordinates": [ 118.060124, 36.814323 ] } },
{ "type": "Feature", "properties": { "类别": "公交站", "名称": "市政务服务中心(公交站)", "经度": 118.039482, "纬度": 36.801659, "地址": "126路/K126路;12路/K12路;138路东线;138路西线;222路/K222路;96路/K96路", "类型": "交通设施服务;公交车站;公交车站相关", "省": "山东省", "市": "淄博市", "区县": "张店区", "经度_wgs84": 118.038882, "纬度_wgs84": 36.796797, "一级分类": "交通" }, "geometry": { "type": "Point", "coordinates": [ 118.038882, 36.796797 ] } },
{ "type": "Feature", "properties": { "类别": "公交站", "名称": "潘南路金晶大道路口(公交站)", "经度": 118.062485, "纬度": 36.81519, "地址": "122路/K122路", "类型": "交通设施服务;公交车站;公交车站相关", "省": "山东省", "市": "淄博市", "区县": "张店区", "经度_wgs84": 118.061815, "纬度_wgs84": 36.810291, "一级分类": "交通" }, "geometry": { "type": "Point", "coordinates": [ 118.061815, 36.810291 ] } },
{ "type": "Feature", "properties": { "类别": "公交站", "名称": "杏园路金晶大道路口(公交站)", "经度": 118.056288, "纬度": 36.79049, "地址": "108路/K108路;125路/K125路;126路/K126路;127路/K127路;12路/K12路;136路/K136路;139路/K139路;158路/K158路;159路/K159路;160路/K160路;162路;1路直达(利群);206路;20路;266路/K266路;2路/K2路;37路/K37路;51路(东线);58路/K58路;5路;71路;71路(6点30分);76路/K76路;82路;87路大站快线;89路/K89路;95路/K95路;96路/K96路;夜160路", "类型": "交通设施服务;公交车站;公交车站相关", "省": "山东省", "市": "淄博市", "区县": "张店区", "经度_wgs84": 118.055653, "纬度_wgs84": 36.7856, "一级分类": "交通" }, "geometry": { "type": "Point", "coordinates": [ 118.055653, 36.7856 ] } },
{ "type": "Feature", "properties": { "类别": "公交站", "名称": "东一路·八大局市场南门(公交站)", "经度": 118.06366, "纬度": 36.803676, "地址": "7路/K7路", "类型": "交通设施服务;公交车站;公交车站相关", "省": "山东省", "市": "淄博市", "区县": "张店区", "经度_wgs84": 118.062998, "纬度_wgs84": 36.798776, "一级分类": "交通" }, "geometry": { "type": "Point", "coordinates": [ 118.062998, 36.798776 ] } },
{ "type": "Feature", "properties": { "类别": "公交站", "名称": "西五路华光路口(公交站)", "经度": 118.036942, "纬度": 36.818325, "地址": "108路/K108路;135路/K135路;137路/K137路;223路/K223路;92路/K92路", "类型": "交通设施服务;公交车站;公交车站相关", "省": "山东省", "市": "淄博市", "区县": "张店区", "经度_wgs84": 118.036335, "纬度_wgs84": 36.813468, "一级分类": "交通" }, "geometry": { "type": "Point", "coordinates": [ 118.036335, 36.813468 ] } },
{ "type": "Feature", "properties": { "类别": "公交站", "名称": "交警支队(公交站)", "经度": 118.04681, "纬度": 36.795139, "地址": "121路/K121路;137路/K137路;151路(王府井-淄川)直达/K151路;160路/K160路;181路/K181路;251路/K251路;51路西线;95路/K95路;夜160路", "类型": "交通设施服务;公交车站;公交车站相关", "省": "山东省", "市": "淄博市", "区县": "张店区", "经度_wgs84": 118.046195, "纬度_wgs84": 36.790264, "一级分类": "交通" }, "geometry": { "type": "Point", "coordinates": [ 118.046195, 36.790264 ] } },
{ "type": "Feature", "properties": { "类别": "公交站", "名称": "张店王府井(公交站)", "经度": 118.052818, "纬度": 36.806171, "地址": "接站专线车", "类型": "交通设施服务;公交车站;公交车站相关", "省": "山东省", "市": "淄博市", "区县": "张店区", "经度_wgs84": 118.052177, "纬度_wgs84": 36.801285, "一级分类": "交通" }, "geometry": { "type": "Point", "coordinates": [ 118.052177, 36.801285 ] } },
{ "type": "Feature", "properties": { "类别": "公交站", "名称": "红卫电机厂生活区(公交站)", "经度": 118.047739, "纬度": 36.798724, "地址": "137路/K137路;160路/K160路;251路/K251路;51路西线;夜160路", "类型": "交通设施服务;公交车站;公交车站相关", "省": "山东省", "市": "淄博市", "区县": "张店区", "经度_wgs84": 118.047118, "纬度_wgs84": 36.793847, "一级分类": "交通" }, "geometry": { "type": "Point", "coordinates": [ 118.047118, 36.793847 ] } },
{ "type": "Feature", "properties": { "类别": "公交站", "名称": "潘成装饰材料城(公交站)", "经度": 118.064164, "纬度": 36.825854, "地址": "157路/K157路;159路/K159路;79路/K79路;88路/K88路内环;88路/K88路外环", "类型": "交通设施服务;公交车站;公交车站相关", "省": "山东省", "市": "淄博市", "区县": "张店区", "经度_wgs84": 118.063482, "纬度_wgs84": 36.820953, "一级分类": "交通" }, "geometry": { "type": "Point", "coordinates": [ 118.063482, 36.820953 ] } },
{ "type": "Feature", "properties": { "类别": "公交站", "名称": "金丰大厦(公交站)", "经度": 118.033961, "纬度": 36.802298, "地址": "126路/K126路;12路/K12路;7路/K7路;96路/K96路", "类型": "交通设施服务;公交车站;公交车站相关", "省": "山东省", "市": "淄博市", "区县": "张店区", "经度_wgs84": 118.033377, "纬度_wgs84": 36.797447, "一级分类": "交通" }, "geometry": { "type": "Point", "coordinates": [ 118.033377, 36.797447 ] } },
{ "type": "Feature", "properties": { "类别": "公交站", "名称": "东二路人民路口(公交站)", "经度": 118.068352, "纬度": 36.809074, "地址": "136路/K136路;71路;71路(6点30分)", "类型": "交通设施服务;公交车站;公交车站相关", "省": "山东省", "市": "淄博市", "区县": "张店区", "经度_wgs84": 118.067677, "纬度_wgs84": 36.804169, "一级分类": "交通" }, "geometry": { "type": "Point", "coordinates": [ 118.067677, 36.804169 ] } },
{ "type": "Feature", "properties": { "类别": "公交站", "名称": "淄建第五生活区(公交站)", "经度": 118.068451, "纬度": 36.807171, "地址": "136路/K136路;71路;71路(6点30分);8路/K8路", "类型": "交通设施服务;公交车站;公交车站相关", "省": "山东省", "市": "淄博市", "区县": "张店区", "经度_wgs84": 118.067777, "纬度_wgs84": 36.802266, "一级分类": "交通" }, "geometry": { "type": "Point", "coordinates": [ 118.067777, 36.802266 ] } },
{ "type": "Feature", "properties": { "类别": "公交站", "名称": "市政务服务中心(市博物馆)西门(公交站)", "经度": 118.036945, "纬度": 36.80352, "地址": "223路/K223路;7路/K7路", "类型": "交通设施服务;公交车站;公交车站相关", "省": "山东省", "市": "淄博市", "区县": "张店区", "经度_wgs84": 118.036351, "纬度_wgs84": 36.798663, "一级分类": "交通" }, "geometry": { "type": "Point", "coordinates": [ 118.036351, 36.798663 ] } },
{ "type": "Feature", "properties": { "类别": "公交站", "名称": "盘古映画(公交站)", "经度": 118.065291, "纬度": 36.804291, "地址": "136路/K136路;138路东线;138路西线;71路;71路(6点30分);76路/K76路;8路/K8路", "类型": "交通设施服务;公交车站;公交车站相关", "省": "山东省", "市": "淄博市", "区县": "张店区", "经度_wgs84": 118.064625, "纬度_wgs84": 36.799389, "一级分类": "交通" }, "geometry": { "type": "Point", "coordinates": [ 118.064625, 36.799389 ] } },
{ "type": "Feature", "properties": { "类别": "公交站", "名称": "莲池公园(公交站)", "经度": 118.034616, "纬度": 36.821483, "地址": "121路/K121路;126路/K126路;135路/K135路;136路/K136路;138路东线;138路西线;158路/K158路;169路/K169路;185路;2路/K2路;88路/K88路内环;88路/K88路外环;92路/K92路", "类型": "交通设施服务;公交车站;公交车站相关", "省": "山东省", "市": "淄博市", "区县": "张店区", "经度_wgs84": 118.034014, "纬度_wgs84": 36.81663, "一级分类": "交通" }, "geometry": { "type": "Point", "coordinates": [ 118.034014, 36.81663 ] } },
{ "type": "Feature", "properties": { "类别": "公交站", "名称": "淄博火车站(南广场)(公交站)", "经度": 118.056019, "纬度": 36.786483, "地址": "103路/K103路;108路/K108路;119路;125路/K125路;126路/K126路;12路/K12路;139路/K139路;159路/K159路;162路;171路;1路北线;206路;20路;251路/K251路;266路/K266路;2路/K2路;36路;36路(半点发车);37路/K37路;3路;45路/K45路;46路/K46路;4路;51路西线;53路/K53路;5路;76路/K76路;80路/K80路;82路;87路大站快线;96路/K96路;沂源长途汽车站-公交东站定制公交通勤专线", "类型": "交通设施服务;公交车站;公交车站相关", "省": "山东省", "市": "淄博市", "区县": "张店区", "经度_wgs84": 118.055388, "纬度_wgs84": 36.781593, "一级分类": "交通" }, "geometry": { "type": "Point", "coordinates": [ 118.055388, 36.781593 ] } },
{ "type": "Feature", "properties": { "类别": "公交站", "名称": "煤气大厦(公交站)", "经度": 118.068207, "纬度": 36.811642, "地址": "71路;71路(6点30分);8路/K8路", "类型": "交通设施服务;公交车站;公交车站相关", "省": "山东省", "市": "淄博市", "区县": "张店区", "经度_wgs84": 118.06753, "纬度_wgs84": 36.806737, "一级分类": "交通" }, "geometry": { "type": "Point", "coordinates": [ 118.06753, 36.806737 ] } },
{ "type": "Feature", "properties": { "类别": "公交站", "名称": "华光路张桓路口(公交站)", "经度": 118.046665, "纬度": 36.820884, "地址": "136路/K136路;138路西线;158路/K158路;2路/K2路;90路/K90路北线;90路/K90路南线", "类型": "交通设施服务;公交车站;公交车站相关", "省": "山东省", "市": "淄博市", "区县": "张店区", "经度_wgs84": 118.046027, "纬度_wgs84": 36.816008, "一级分类": "交通" }, "geometry": { "type": "Point", "coordinates": [ 118.046027, 36.816008 ] } },
{ "type": "Feature", "properties": { "类别": "公交站", "名称": "张南路王舍路口(公交站)", "经度": 118.050506, "纬度": 36.788183, "地址": "103路/K103路;108路/K108路;119路;125路/K125路;126路/K126路;127路/K127路;12路/K12路;139路/K139路;159路/K159路;162路;172路大站快线;1路北线;1路直达(利群);206路;20路;251路/K251路;266路/K266路;2路/K2路;36路;36路(半点发车);37路/K37路;3路;45路/K45路;46路/K46路;4路;51路(东线);51路西线;53路/K53路;58路/K58路;5路;71路;71路(6点30分);76路/K76路;80路/K80路;82路;89路/K89路;95路/K95路;96路/K96路", "类型": "交通设施服务;公交车站;公交车站相关", "省": "山东省", "市": "淄博市", "区县": "张店区", "经度_wgs84": 118.049887, "纬度_wgs84": 36.783302, "一级分类": "交通" }, "geometry": { "type": "Point", "coordinates": [ 118.049887, 36.783302 ] } },
{ "type": "Feature", "properties": { "类别": "公交站", "名称": "共青团路西五路口(公交站)", "经度": 118.037974, "纬度": 36.807921, "地址": "(停运)公交专线;137路/K137路;139路/K139路;157路/K157路;160路/K160路;7路/K7路;88路/K88路内环;88路/K88路外环;夜160路", "类型": "交通设施服务;公交车站;公交车站相关", "省": "山东省", "市": "淄博市", "区县": "张店区", "经度_wgs84": 118.037373, "纬度_wgs84": 36.803062, "一级分类": "交通" }, "geometry": { "type": "Point", "coordinates": [ 118.037373, 36.803062 ] } },
{ "type": "Feature", "properties": { "类别": "公交站", "名称": "淄博火车站北广场(公交站)", "经度": 118.05913, "纬度": 36.78893, "地址": "150路/K150路;7路/K7路;92路/K92路", "类型": "交通设施服务;公交车站;公交车站相关", "省": "山东省", "市": "淄博市", "区县": "张店区", "经度_wgs84": 118.05849, "纬度_wgs84": 36.784036, "一级分类": "交通" }, "geometry": { "type": "Point", "coordinates": [ 118.05849, 36.784036 ] } },
{ "type": "Feature", "properties": { "类别": "公交站", "名称": "宠物市场(公交站)", "经度": 118.07019, "纬度": 36.817604, "地址": "206路;266路/K266路;89路/K89路", "类型": "交通设施服务;公交车站;公交车站相关", "省": "山东省", "市": "淄博市", "区县": "张店区", "经度_wgs84": 118.069504, "纬度_wgs84": 36.812697, "一级分类": "交通" }, "geometry": { "type": "Point", "coordinates": [ 118.069504, 36.812697 ] } },
{ "type": "Feature", "properties": { "类别": "公交站", "名称": "鲁中家具城(公交站)", "经度": 118.043338, "纬度": 36.804668, "地址": "138路东线;138路西线;222路/K222路", "类型": "交通设施服务;公交车站;公交车站相关", "省": "山东省", "市": "淄博市", "区县": "张店区", "经度_wgs84": 118.042724, "纬度_wgs84": 36.799799, "一级分类": "交通" }, "geometry": { "type": "Point", "coordinates": [ 118.042724, 36.799799 ] } },
{ "type": "Feature", "properties": { "类别": "公交站", "名称": "第七医院(北门)(公交站)", "经度": 118.052491, "纬度": 36.827855, "地址": "123路/K123路;126路/K126路;88路/K88路内环;88路/K88路外环", "类型": "交通设施服务;公交车站;公交车站相关", "省": "山东省", "市": "淄博市", "区县": "张店区", "经度_wgs84": 118.051832, "纬度_wgs84": 36.822969, "一级分类": "交通" }, "geometry": { "type": "Point", "coordinates": [ 118.051832, 36.822969 ] } },
{ "type": "Feature", "properties": { "类别": "公交站", "名称": "小商品街(公交站)", "经度": 118.04744, "纬度": 36.803971, "地址": "138路东线;138路西线;222路/K222路", "类型": "交通设施服务;公交车站;公交车站相关", "省": "山东省", "市": "淄博市", "区县": "张店区", "经度_wgs84": 118.046815, "纬度_wgs84": 36.799094, "一级分类": "交通" }, "geometry": { "type": "Point", "coordinates": [ 118.046815, 36.799094 ] } },
{ "type": "Feature", "properties": { "类别": "公交站", "名称": "理工大学东校区南门(公交站)", "经度": 118.042953, "纬度": 36.807728, "地址": "(停运)公交专线;137路/K137路;139路/K139路;157路/K157路;160路/K160路;7路/K7路;88路/K88路外环", "类型": "交通设施服务;公交车站;公交车站相关", "省": "山东省", "市": "淄博市", "区县": "张店区", "经度_wgs84": 118.042337, "纬度_wgs84": 36.802859, "一级分类": "交通" }, "geometry": { "type": "Point", "coordinates": [ 118.042337, 36.802859 ] } },
{ "type": "Feature", "properties": { "类别": "公交站", "名称": "新村(公交站)", "经度": 118.06612, "纬度": 36.797143, "地址": "150路/K150路;206路;5路;6路/K6路;82路", "类型": "交通设施服务;公交车站;公交车站相关", "省": "山东省", "市": "淄博市", "区县": "张店区", "经度_wgs84": 118.065459, "纬度_wgs84": 36.792241, "一级分类": "交通" }, "geometry": { "type": "Point", "coordinates": [ 118.065459, 36.792241 ] } },
{ "type": "Feature", "properties": { "类别": "公交站", "名称": "市中医医院骨科医院(公交站)", "经度": 118.054646, "纬度": 36.82602, "地址": "251路/K251路", "类型": "交通设施服务;公交车站;公交车站相关", "省": "山东省", "市": "淄博市", "区县": "张店区", "经度_wgs84": 118.053984, "纬度_wgs84": 36.821131, "一级分类": "交通" }, "geometry": { "type": "Point", "coordinates": [ 118.053984, 36.821131 ] } },
{ "type": "Feature", "properties": { "类别": "公交站", "名称": "城西新村(公交站)", "经度": 118.036998, "纬度": 36.806515, "地址": "223路/K223路;7路/K7路", "类型": "交通设施服务;公交车站;公交车站相关", "省": "山东省", "市": "淄博市", "区县": "张店区", "经度_wgs84": 118.036401, "纬度_wgs84": 36.801658, "一级分类": "交通" }, "geometry": { "type": "Point", "coordinates": [ 118.036401, 36.801658 ] } },
{ "type": "Feature", "properties": { "类别": "公交站", "名称": "齐赛科技(公交站)", "经度": 118.032953, "纬度": 36.811811, "地址": "121路/K121路;126路/K126路", "类型": "交通设施服务;公交车站;公交车站相关", "省": "山东省", "市": "淄博市", "区县": "张店区", "经度_wgs84": 118.032364, "纬度_wgs84": 36.806962, "一级分类": "交通" }, "geometry": { "type": "Point", "coordinates": [ 118.032364, 36.806962 ] } },
{ "type": "Feature", "properties": { "类别": "公交站", "名称": "市中西医结合医院(公交站)", "经度": 118.05847, "纬度": 36.795307, "地址": "108路/K108路;123路/K123路;126路/K126路;150路/K150路;159路/K159路;162路;2路/K2路;51路(东线);58路/K58路;6路/K6路;76路/K76路;89路/K89路;92路/K92路", "类型": "交通设施服务;公交车站;公交车站相关", "省": "山东省", "市": "淄博市", "区县": "张店区", "经度_wgs84": 118.057826, "纬度_wgs84": 36.790414, "一级分类": "交通" }, "geometry": { "type": "Point", "coordinates": [ 118.057826, 36.790414 ] } },
{ "type": "Feature", "properties": { "类别": "公交站", "名称": "张店二中(公交站)", "经度": 118.071765, "纬度": 36.809546, "地址": "105路/K105路;127路/K127路", "类型": "交通设施服务;公交车站;公交车站相关", "省": "山东省", "市": "淄博市", "区县": "张店区", "经度_wgs84": 118.071084, "纬度_wgs84": 36.804638, "一级分类": "交通" }, "geometry": { "type": "Point", "coordinates": [ 118.071084, 36.804638 ] } },
{ "type": "Feature", "properties": { "类别": "公交站", "名称": "百盛集团(公交站)", "经度": 118.044635, "纬度": 36.823238, "地址": "121路/K121路;126路/K126路;185路;88路/K88路内环;88路/K88路外环", "类型": "交通设施服务;公交车站;公交车站相关", "省": "山东省", "市": "淄博市", "区县": "张店区", "经度_wgs84": 118.044001, "纬度_wgs84": 36.818366, "一级分类": "交通" }, "geometry": { "type": "Point", "coordinates": [ 118.044001, 36.818366 ] } },
{ "type": "Feature", "properties": { "类别": "公交站", "名称": "远景大厦(公交站)", "经度": 118.045742, "纬度": 36.828188, "地址": "123路/K123路;126路/K126路;79路/K79路;88路/K88路内环;88路/K88路外环", "类型": "交通设施服务;公交车站;公交车站相关", "省": "山东省", "市": "淄博市", "区县": "张店区", "经度_wgs84": 118.045101, "纬度_wgs84": 36.823313, "一级分类": "交通" }, "geometry": { "type": "Point", "coordinates": [ 118.045101, 36.823313 ] } },
{ "type": "Feature", "properties": { "类别": "公交站", "名称": "义乌小商品城(公交站)", "经度": 118.020534, "纬度": 36.822689, "地址": "(停运)191路;(停运)文昌湖景区旅游专线;136路/K136路;138路东线;138路西线;139路/K139路;151路(王府井-淄川)直达/K151路;158路/K158路;159路/K159路;168路/K168路;169路/K169路;177路;181路/K181路;185路;200路;257路/K257路;34路/K34路;42路;87路大站快线;88路/K88路内环;88路/K88路外环;90路/K90路北线;90路/K90路南线;92路/K92路;95路/K95路;97路/K97路;9路/K9路;三水源景区旅游专线;双溪山、潭溪山景区旅游专线;周村-义乌小商品城;定制公交赏花灯专线三;岜山中医药健康旅游示范基地、白石洞、原山景区旅游专线;开元溶洞旅游专线;开元溶洞景区旅游专线;玉黛赏花灯定制公交;王渔洋、在河之洲、高青天鹅湖景区旅游专线;红叶柿岩、如月湖景区旅游专线;齐文化博物馆、中国古车博物馆旅游专线", "类型": "交通设施服务;公交车站;公交车站相关", "省": "山东省", "市": "淄博市", "区县": "张店区", "经度_wgs84": 118.019978, "纬度_wgs84": 36.817869, "一级分类": "交通" }, "geometry": { "type": "Point", "coordinates": [ 118.019978, 36.817869 ] } },
{ "type": "Feature", "properties": { "类别": "公交站", "名称": "大润发超市(下客站)(公交站)", "经度": 118.041422, "纬度": 36.821142, "地址": "181路/K181路", "类型": "交通设施服务;公交车站;公交车站相关", "省": "山东省", "市": "淄博市", "区县": "张店区", "经度_wgs84": 118.040799, "纬度_wgs84": 36.816276, "一级分类": "交通" }, "geometry": { "type": "Point", "coordinates": [ 118.040799, 36.816276 ] } },
{ "type": "Feature", "properties": { "类别": "公交站", "名称": "淄博火车站(公交站)", "经度": 118.054895, "纬度": 36.784912, "地址": "126路/K126路", "类型": "交通设施服务;公交车站;公交车站相关", "省": "山东省", "市": "淄博市", "区县": "张店区", "经度_wgs84": 118.054268, "纬度_wgs84": 36.780024, "一级分类": "交通" }, "geometry": { "type": "Point", "coordinates": [ 118.054268, 36.780024 ] } },
{ "type": "Feature", "properties": { "类别": "公交站", "名称": "金乔生活区(南门)(公交站)", "经度": 118.072318, "纬度": 36.81309, "地址": "88路/K88路内环;88路/K88路外环;8路/K8路", "类型": "交通设施服务;公交车站;公交车站相关", "省": "山东省", "市": "淄博市", "区县": "张店区", "经度_wgs84": 118.071633, "纬度_wgs84": 36.808182, "一级分类": "交通" }, "geometry": { "type": "Point", "coordinates": [ 118.071633, 36.808182 ] } },
{ "type": "Feature", "properties": { "类别": "公交站", "名称": "张店一中(公交站)", "经度": 118.043263, "纬度": 36.796439, "地址": "121路/K121路;95路/K95路", "类型": "交通设施服务;公交车站;公交车站相关", "省": "山东省", "市": "淄博市", "区县": "张店区", "经度_wgs84": 118.042656, "纬度_wgs84": 36.79157, "一级分类": "交通" }, "geometry": { "type": "Point", "coordinates": [ 118.042656, 36.79157 ] } },
{ "type": "Feature", "properties": { "类别": "公交站", "名称": "潘南路东二路口(公交站)", "经度": 118.069346, "纬度": 36.813731, "地址": "88路/K88路内环;88路/K88路外环;8路/K8路", "类型": "交通设施服务;公交车站;公交车站相关", "省": "山东省", "市": "淄博市", "区县": "张店区", "经度_wgs84": 118.068665, "纬度_wgs84": 36.808825, "一级分类": "交通" }, "geometry": { "type": "Point", "coordinates": [ 118.068665, 36.808825 ] } },
{ "type": "Feature", "properties": { "类别": "公交站", "名称": "火炬公园(公交站)", "经度": 118.055614, "纬度": 36.836523, "地址": "102路/K102路;126路/K126路;156路/K156路;159路/K159路;162路;185路;200路;71路;71路(6点30分);接站专线车", "类型": "交通设施服务;公交车站;公交车站相关", "省": "山东省", "市": "淄博市", "区县": "张店区", "经度_wgs84": 118.05494, "纬度_wgs84": 36.831632, "一级分类": "交通" }, "geometry": { "type": "Point", "coordinates": [ 118.05494, 36.831632 ] } },
{ "type": "Feature", "properties": { "类别": "公交站", "名称": "富尔玛家居广场(公交站)", "经度": 118.027741, "纬度": 36.814198, "地址": "102路/K102路;105路/K105路;116路/K116路(北线);116路/K116路(南线);139路/K139路;160路/K160路;229路/K229路;257路/K257路;2路/K2路;90路/K90路北线;90路/K90路南线;夜160路", "类型": "交通设施服务;公交车站;公交车站相关", "省": "山东省", "市": "淄博市", "区县": "张店区", "经度_wgs84": 118.027168, "纬度_wgs84": 36.809361, "一级分类": "交通" }, "geometry": { "type": "Point", "coordinates": [ 118.027168, 36.809361 ] } },
{ "type": "Feature", "properties": { "类别": "公交站", "名称": "淄博牵引电机医院(公交站)", "经度": 118.078424, "纬度": 36.802669, "地址": "135路/K135路", "类型": "交通设施服务;公交车站;公交车站相关", "省": "山东省", "市": "淄博市", "区县": "张店区", "经度_wgs84": 118.077741, "纬度_wgs84": 36.797758, "一级分类": "交通" }, "geometry": { "type": "Point", "coordinates": [ 118.077741, 36.797758 ] } },
{ "type": "Feature", "properties": { "类别": "公交站", "名称": "新华医疗小区(公交站)", "经度": 118.04427, "纬度": 36.826457, "地址": "121路/K121路;126路/K126路;185路;88路/K88路内环;88路/K88路外环", "类型": "交通设施服务;公交车站;公交车站相关", "省": "山东省", "市": "淄博市", "区县": "张店区", "经度_wgs84": 118.043634, "纬度_wgs84": 36.821585, "一级分类": "交通" }, "geometry": { "type": "Point", "coordinates": [ 118.043634, 36.821585 ] } },
{ "type": "Feature", "properties": { "类别": "公交站", "名称": "淄博(国贸大厦鲁中城市候机楼)(公交站)", "经度": 118.057092, "纬度": 36.835456, "地址": "接站专线车;机场大巴淄博线", "类型": "交通设施服务;公交车站;公交车站相关", "省": "山东省", "市": "淄博市", "区县": "张店区", "经度_wgs84": 118.056416, "纬度_wgs84": 36.830563, "一级分类": "交通" }, "geometry": { "type": "Point", "coordinates": [ 118.056416, 36.830563 ] } },
{ "type": "Feature", "properties": { "类别": "公交站", "名称": "淄博五中(公交站)", "经度": 118.062813, "纬度": 36.792097, "地址": "122路/K122路;123路/K123路;136路/K136路;206路;20路;222路/K222路;37路/K37路;5路;71路;71路(6点30分);7路/K7路;82路;8路/K8路", "类型": "交通设施服务;公交车站;公交车站相关", "省": "山东省", "市": "淄博市", "区县": "张店区", "经度_wgs84": 118.062163, "纬度_wgs84": 36.787198, "一级分类": "交通" }, "geometry": { "type": "Point", "coordinates": [ 118.062163, 36.787198 ] } },
{ "type": "Feature", "properties": { "类别": "公交站", "名称": "市中心医院(王府井)(公交站)", "经度": 118.052948, "纬度": 36.806225, "地址": "(停运)公交专线", "类型": "交通设施服务;公交车站;公交车站相关", "省": "山东省", "市": "淄博市", "区县": "张店区", "经度_wgs84": 118.052307, "纬度_wgs84": 36.801339, "一级分类": "交通" }, "geometry": { "type": "Point", "coordinates": [ 118.052307, 36.801339 ] } },
{ "type": "Feature", "properties": { "类别": "公交站", "名称": "市府三宿舍(西门)(公交站)", "经度": 118.032323, "纬度": 36.825241, "地址": "168路/K168路", "类型": "交通设施服务;公交车站;公交车站相关", "省": "山东省", "市": "淄博市", "区县": "张店区", "经度_wgs84": 118.031725, "纬度_wgs84": 36.820393, "一级分类": "交通" }, "geometry": { "type": "Point", "coordinates": [ 118.031725, 36.820393 ] } },
{ "type": "Feature", "properties": { "类别": "公交站", "名称": "莲池小区(公交站)", "经度": 118.035413, "纬度": 36.828757, "地址": "123路/K123路;137路/K137路;168路/K168路;169路/K169路;79路/K79路;90路/K90路北线;90路/K90路南线;定制公交赏花灯专线四;市中医医院健康专线", "类型": "交通设施服务;公交车站;公交车站相关", "省": "山东省", "市": "淄博市", "区县": "张店区", "经度_wgs84": 118.034802, "纬度_wgs84": 36.823903, "一级分类": "交通" }, "geometry": { "type": "Point", "coordinates": [ 118.034802, 36.823903 ] } },
{ "type": "Feature", "properties": { "类别": "公交站", "名称": "共青团路西六路口(公交站)", "经度": 118.029992, "纬度": 36.808287, "地址": "157路/K157路;160路/K160路;88路/K88路内环;88路/K88路外环;夜160路", "类型": "交通设施服务;公交车站;公交车站相关", "省": "山东省", "市": "淄博市", "区县": "张店区", "经度_wgs84": 118.029416, "纬度_wgs84": 36.803445, "一级分类": "交通" }, "geometry": { "type": "Point", "coordinates": [ 118.029416, 36.803445 ] } },
{ "type": "Feature", "properties": { "类别": "公交站", "名称": "共青团路(公交站)", "经度": 118.050461, "纬度": 36.806545, "地址": "接站专线车", "类型": "交通设施服务;公交车站;公交车站相关", "省": "山东省", "市": "淄博市", "区县": "张店区", "经度_wgs84": 118.049826, "纬度_wgs84": 36.801663, "一级分类": "交通" }, "geometry": { "type": "Point", "coordinates": [ 118.049826, 36.801663 ] } },
{ "type": "Feature", "properties": { "类别": "公交站", "名称": "五里桥生活区(公交站)", "经度": 118.030418, "纬度": 36.814198, "地址": "102路/K102路;105路/K105路;116路/K116路(北线);116路/K116路(南线);2路/K2路;定制公交赏花灯专线四", "类型": "交通设施服务;公交车站;公交车站相关", "省": "山东省", "市": "淄博市", "区县": "张店区", "经度_wgs84": 118.029836, "纬度_wgs84": 36.809355, "一级分类": "交通" }, "geometry": { "type": "Point", "coordinates": [ 118.029836, 36.809355 ] } },
{ "type": "Feature", "properties": { "类别": "公交站", "名称": "八大局市场南门(临时站)(公交站)", "经度": 118.066253, "纬度": 36.804204, "地址": "136路/K136路", "类型": "交通设施服务;公交车站;公交车站相关", "省": "山东省", "市": "淄博市", "区县": "张店区", "经度_wgs84": 118.065586, "纬度_wgs84": 36.799301, "一级分类": "交通" }, "geometry": { "type": "Point", "coordinates": [ 118.065586, 36.799301 ] } },
{ "type": "Feature", "properties": { "类别": "公交站", "名称": "天星小区(公交站)", "经度": 118.036629, "纬度": 36.79908, "地址": "138路东线;138路西线;223路/K223路", "类型": "交通设施服务;公交车站;公交车站相关", "省": "山东省", "市": "淄博市", "区县": "张店区", "经度_wgs84": 118.03604, "纬度_wgs84": 36.794224, "一级分类": "交通" }, "geometry": { "type": "Point", "coordinates": [ 118.03604, 36.794224 ] } },
{ "type": "Feature", "properties": { "类别": "公交站", "名称": "杜科新村(公交站)", "经度": 118.071648, "纬度": 36.803452, "地址": "定制公交赏花灯专线一", "类型": "交通设施服务;公交车站;公交车站相关", "省": "山东省", "市": "淄博市", "区县": "张店区", "经度_wgs84": 118.070973, "纬度_wgs84": 36.798545, "一级分类": "交通" }, "geometry": { "type": "Point", "coordinates": [ 118.070973, 36.798545 ] } },
{ "type": "Feature", "properties": { "类别": "公交站", "名称": "张店宾馆(公交站)", "经度": 118.055046, "纬度": 36.793731, "地址": "121路/K121路;160路/K160路;251路/K251路;51路西线;95路/K95路;夜160路", "类型": "交通设施服务;公交车站;公交车站相关", "省": "山东省", "市": "淄博市", "区县": "张店区", "经度_wgs84": 118.054411, "纬度_wgs84": 36.788842, "一级分类": "交通" }, "geometry": { "type": "Point", "coordinates": [ 118.054411, 36.788842 ] } },
{ "type": "Feature", "properties": { "类别": "公交站", "名称": "庄园集团(公交站)", "经度": 118.044132, "纬度": 36.830065, "地址": "121路/K121路;185路", "类型": "交通设施服务;公交车站;公交车站相关", "省": "山东省", "市": "淄博市", "区县": "张店区", "经度_wgs84": 118.043493, "纬度_wgs84": 36.825193, "一级分类": "交通" }, "geometry": { "type": "Point", "coordinates": [ 118.043493, 36.825193 ] } },
{ "type": "Feature", "properties": { "类别": "公交站", "名称": "淄博火车站南广场(公交站)", "经度": 118.056511, "纬度": 36.786201, "地址": "(停运)淄博烧烤专线10路;110路;1路直达;周村-淄博火车站(南广场);淄博烧烤专线5路", "类型": "交通设施服务;公交车站;公交车站相关", "省": "山东省", "市": "淄博市", "区县": "张店区", "经度_wgs84": 118.055879, "纬度_wgs84": 36.781311, "一级分类": "交通" }, "geometry": { "type": "Point", "coordinates": [ 118.055879, 36.781311 ] } },
{ "type": "Feature", "properties": { "类别": "公交站", "名称": "魏家庄(公交站)", "经度": 118.069466, "纬度": 36.832218, "地址": "116路/K116路(北线);116路/K116路(南线);122路/K122路;157路/K157路;162路;206路;51路(东线);71路;71路(6点30分)", "类型": "交通设施服务;公交车站;公交车站相关", "省": "山东省", "市": "淄博市", "区县": "张店区", "经度_wgs84": 118.068769, "纬度_wgs84": 36.827312, "一级分类": "交通" }, "geometry": { "type": "Point", "coordinates": [ 118.068769, 36.827312 ] } },
{ "type": "Feature", "properties": { "类别": "公交站", "名称": "八一路八大局南门(临时站)(公交站)", "经度": 118.063658, "纬度": 36.803667, "地址": "136路/K136路", "类型": "交通设施服务;公交车站;公交车站相关", "省": "山东省", "市": "淄博市", "区县": "张店区", "经度_wgs84": 118.062996, "纬度_wgs84": 36.798767, "一级分类": "交通" }, "geometry": { "type": "Point", "coordinates": [ 118.062996, 36.798767 ] } },
{ "type": "Feature", "properties": { "类别": "公交站", "名称": "市政务服务中心(市博物馆)(公交站)", "经度": 118.039177, "纬度": 36.801781, "地址": "138路东线;138路西线", "类型": "交通设施服务;公交车站;公交车站相关", "省": "山东省", "市": "淄博市", "区县": "张店区", "经度_wgs84": 118.038578, "纬度_wgs84": 36.79692, "一级分类": "交通" }, "geometry": { "type": "Point", "coordinates": [ 118.038578, 36.79692 ] } },
{ "type": "Feature", "properties": { "类别": "公交站", "名称": "市第二康复医院(公交站)", "经度": 118.07298, "纬度": 36.817185, "地址": "206路;266路/K266路", "类型": "交通设施服务;公交车站;公交车站相关", "省": "山东省", "市": "淄博市", "区县": "张店区", "经度_wgs84": 118.072291, "纬度_wgs84": 36.812276, "一级分类": "交通" }, "geometry": { "type": "Point", "coordinates": [ 118.072291, 36.812276 ] } },
{ "type": "Feature", "properties": { "类别": "公交站", "名称": "硅苑科技(公交站)", "经度": 118.058479, "纬度": 36.840339, "地址": "125路/K125路;185路;251路/K251路;35路/K35路;51路西线;58路/K58路", "类型": "交通设施服务;公交车站;公交车站相关", "省": "山东省", "市": "淄博市", "区县": "张店区", "经度_wgs84": 118.057795, "纬度_wgs84": 36.835444, "一级分类": "交通" }, "geometry": { "type": "Point", "coordinates": [ 118.057795, 36.835444 ] } },
{ "type": "Feature", "properties": { "类别": "公交站", "名称": "淄博口腔医院(公交站)", "经度": 118.027008, "纬度": 36.802939, "地址": "102路/K102路;12路/K12路;157路/K157路;229路/K229路;257路/K257路;7路/K7路;90路/K90路北线;90路/K90路南线;96路/K96路", "类型": "交通设施服务;公交车站;公交车站相关", "省": "山东省", "市": "淄博市", "区县": "张店区", "经度_wgs84": 118.026447, "纬度_wgs84": 36.798104, "一级分类": "交通" }, "geometry": { "type": "Point", "coordinates": [ 118.026447, 36.798104 ] } },
{ "type": "Feature", "properties": { "类别": "公交站", "名称": "盘古映画(八大局市场南门)(公交站)", "经度": 118.065352, "纬度": 36.804283, "地址": "8路/K8路", "类型": "交通设施服务;公交车站;公交车站相关", "省": "山东省", "市": "淄博市", "区县": "张店区", "经度_wgs84": 118.064686, "纬度_wgs84": 36.799381, "一级分类": "交通" }, "geometry": { "type": "Point", "coordinates": [ 118.064686, 36.799381 ] } },
{ "type": "Feature", "properties": { "类别": "公交站", "名称": "市政务服务中心(市博物馆)北门(公交站)", "经度": 118.039356, "纬度": 36.80488, "地址": "222路/K222路", "类型": "交通设施服务;公交车站;公交车站相关", "省": "山东省", "市": "淄博市", "区县": "张店区", "经度_wgs84": 118.038753, "纬度_wgs84": 36.800018, "一级分类": "交通" }, "geometry": { "type": "Point", "coordinates": [ 118.038753, 36.800018 ] } },
{ "type": "Feature", "properties": { "类别": "公交站", "名称": "市中西医院(公交站)", "经度": 118.05847, "纬度": 36.795307, "地址": "108路/K108路;122路/K122路;125路/K125路;126路/K126路;127路/K127路;12路/K12路;139路/K139路;159路/K159路;266路/K266路;51路(东线);76路/K76路", "类型": "交通设施服务;公交车站;公交车站相关", "省": "山东省", "市": "淄博市", "区县": "张店区", "经度_wgs84": 118.057826, "纬度_wgs84": 36.790414, "一级分类": "交通" }, "geometry": { "type": "Point", "coordinates": [ 118.057826, 36.790414 ] } },
{ "type": "Feature", "properties": { "类别": "公交站", "名称": "淄博市技师学院北门(公交站)", "经度": 118.029953, "纬度": 36.821701, "地址": "136路/K136路;138路东线;138路西线;158路/K158路;168路/K168路;169路/K169路;185路;88路/K88路内环;88路/K88路外环", "类型": "交通设施服务;公交车站;公交车站相关", "省": "山东省", "市": "淄博市", "区县": "张店区", "经度_wgs84": 118.029366, "纬度_wgs84": 36.816859, "一级分类": "交通" }, "geometry": { "type": "Point", "coordinates": [ 118.029366, 36.816859 ] } },
{ "type": "Feature", "properties": { "类别": "公交站", "名称": "潘南路东四路口(公交站)", "经度": 118.079806, "纬度": 36.811746, "地址": "127路/K127路;8路/K8路", "类型": "交通设施服务;公交车站;公交车站相关", "省": "山东省", "市": "淄博市", "区县": "张店区", "经度_wgs84": 118.079113, "纬度_wgs84": 36.806834, "一级分类": "交通" }, "geometry": { "type": "Point", "coordinates": [ 118.079113, 36.806834 ] } },
{ "type": "Feature", "properties": { "类别": "公交站", "名称": "中关村科技城(公交站)", "经度": 118.032611, "纬度": 36.809143, "地址": "121路/K121路;126路/K126路", "类型": "交通设施服务;公交车站;公交车站相关", "省": "山东省", "市": "淄博市", "区县": "张店区", "经度_wgs84": 118.032026, "纬度_wgs84": 36.804295, "一级分类": "交通" }, "geometry": { "type": "Point", "coordinates": [ 118.032026, 36.804295 ] } },
{ "type": "Feature", "properties": { "类别": "公交站", "名称": "盘古映画(东一路·八大局市场南门)(公交站)", "经度": 118.063658, "纬度": 36.803667, "地址": "8路/K8路", "类型": "交通设施服务;公交车站;公交车站相关", "省": "山东省", "市": "淄博市", "区县": "张店区", "经度_wgs84": 118.062996, "纬度_wgs84": 36.798767, "一级分类": "交通" }, "geometry": { "type": "Point", "coordinates": [ 118.062996, 36.798767 ] } },
{ "type": "Feature", "properties": { "类别": "公交站", "名称": "市妇幼保健院杏园院区(公交站)", "经度": 118.061474, "纬度": 36.790623, "地址": "121路/K121路;136路/K136路;206路;20路;222路/K222路;37路/K37路;5路;71路;71路(6点30分);7路/K7路;82路;8路/K8路", "类型": "交通设施服务;公交车站;公交车站相关", "省": "山东省", "市": "淄博市", "区县": "张店区", "经度_wgs84": 118.060828, "纬度_wgs84": 36.785726, "一级分类": "交通" }, "geometry": { "type": "Point", "coordinates": [ 118.060828, 36.785726 ] } },
{ "type": "Feature", "properties": { "类别": "公交站", "名称": "淄博文化艺术城-市鲁中公证处(公交站)", "经度": 118.06459, "纬度": 36.817364, "地址": "122路/K122路", "类型": "交通设施服务;公交车站;公交车站相关", "省": "山东省", "市": "淄博市", "区县": "张店区", "经度_wgs84": 118.063914, "纬度_wgs84": 36.812463, "一级分类": "交通" }, "geometry": { "type": "Point", "coordinates": [ 118.063914, 36.812463 ] } },
{ "type": "Feature", "properties": { "类别": "公交站", "名称": "中源集团(公交站)", "经度": 118.041721, "纬度": 36.798369, "地址": "132路/K132路;35路/K35路;90路/K90路北线;90路/K90路南线", "类型": "交通设施服务;公交车站;公交车站相关", "省": "山东省", "市": "淄博市", "区县": "张店区", "经度_wgs84": 118.041117, "纬度_wgs84": 36.793503, "一级分类": "交通" }, "geometry": { "type": "Point", "coordinates": [ 118.041117, 36.793503 ] } },
{ "type": "Feature", "properties": { "类别": "公交站", "名称": "东四路联通路口(公交站)", "经度": 118.079155, "纬度": 36.821503, "地址": "105路/K105路;266路/K266路;76路/K76路;8路/K8路", "类型": "交通设施服务;公交车站;公交车站相关", "省": "山东省", "市": "淄博市", "区县": "张店区", "经度_wgs84": 118.078454, "纬度_wgs84": 36.816591, "一级分类": "交通" }, "geometry": { "type": "Point", "coordinates": [ 118.078454, 36.816591 ] } },
{ "type": "Feature", "properties": { "类别": "公交站", "名称": "鲁中城市候机楼(公交站)", "经度": 118.057092, "纬度": 36.835456, "地址": "机场巴士临淄线", "类型": "交通设施服务;公交车站;公交车站相关", "省": "山东省", "市": "淄博市", "区县": "张店区", "经度_wgs84": 118.056416, "纬度_wgs84": 36.830563, "一级分类": "交通" }, "geometry": { "type": "Point", "coordinates": [ 118.056416, 36.830563 ] } },
{ "type": "Feature", "properties": { "类别": "公交站", "名称": "淄博广大农贸便民市场(公交站)", "经度": 118.066201, "纬度": 36.814388, "地址": "88路/K88路内环;88路/K88路外环", "类型": "交通设施服务;公交车站;公交车站相关", "省": "山东省", "市": "淄博市", "区县": "张店区", "经度_wgs84": 118.065525, "纬度_wgs84": 36.809485, "一级分类": "交通" }, "geometry": { "type": "Point", "coordinates": [ 118.065525, 36.809485 ] } },
{ "type": "Feature", "properties": { "类别": "公交站", "名称": "潘成粮油批发市场(公交站)", "经度": 118.068555, "纬度": 36.829167, "地址": "116路/K116路(北线);116路/K116路(南线);122路/K122路;157路/K157路;162路;206路;51路(东线);71路;71路(6点30分)", "类型": "交通设施服务;公交车站;公交车站相关", "省": "山东省", "市": "淄博市", "区县": "张店区", "经度_wgs84": 118.067862, "纬度_wgs84": 36.824261, "一级分类": "交通" }, "geometry": { "type": "Point", "coordinates": [ 118.067862, 36.824261 ] } },
{ "type": "Feature", "properties": { "类别": "公交站", "名称": "淄博义乌小商品城(公交站)", "经度": 118.020647, "纬度": 36.822227, "地址": "淄博市区直达双马山景区免费公交旅游专线", "类型": "交通设施服务;公交车站;公交车站相关", "省": "山东省", "市": "淄博市", "区县": "张店区", "经度_wgs84": 118.020091, "纬度_wgs84": 36.817406, "一级分类": "交通" }, "geometry": { "type": "Point", "coordinates": [ 118.020091, 36.817406 ] } },
{ "type": "Feature", "properties": { "类别": "公交站", "名称": "莲池小学(公交站)", "经度": 118.031011, "纬度": 36.829047, "地址": "123路/K123路;137路/K137路;169路/K169路;79路/K79路", "类型": "交通设施服务;公交车站;公交车站相关", "省": "山东省", "市": "淄博市", "区县": "张店区", "经度_wgs84": 118.030414, "纬度_wgs84": 36.824202, "一级分类": "交通" }, "geometry": { "type": "Point", "coordinates": [ 118.030414, 36.824202 ] } },
{ "type": "Feature", "properties": { "类别": "公交站", "名称": "市第十七中学(公交站)", "经度": 118.037001, "纬度": 36.810364, "地址": "137路/K137路;223路/K223路", "类型": "交通设施服务;公交车站;公交车站相关", "省": "山东省", "市": "淄博市", "区县": "张店区", "经度_wgs84": 118.036401, "纬度_wgs84": 36.805507, "一级分类": "交通" }, "geometry": { "type": "Point", "coordinates": [ 118.036401, 36.805507 ] } },
{ "type": "Feature", "properties": { "类别": "公交站", "名称": "共青团路世纪路(西七路)口(公交站)", "经度": 118.026314, "纬度": 36.808578, "地址": "夜160路", "类型": "交通设施服务;公交车站;公交车站相关", "省": "山东省", "市": "淄博市", "区县": "张店区", "经度_wgs84": 118.02575, "纬度_wgs84": 36.803744, "一级分类": "交通" }, "geometry": { "type": "Point", "coordinates": [ 118.02575, 36.803744 ] } },
{ "type": "Feature", "properties": { "类别": "公交站", "名称": "华光路张恒路路口(公交站)", "经度": 118.046665, "纬度": 36.820884, "地址": "138路东线", "类型": "交通设施服务;公交车站;公交车站相关", "省": "山东省", "市": "淄博市", "区县": "张店区", "经度_wgs84": 118.046027, "纬度_wgs84": 36.816008, "一级分类": "交通" }, "geometry": { "type": "Point", "coordinates": [ 118.046027, 36.816008 ] } },
{ "type": "Feature", "properties": { "类别": "公交站", "名称": "创业·东城华府(公交站)", "经度": 118.075582, "纬度": 36.808765, "地址": "105路/K105路;88路/K88路内环;88路/K88路外环", "类型": "交通设施服务;公交车站;公交车站相关", "省": "山东省", "市": "淄博市", "区县": "张店区", "经度_wgs84": 118.074897, "纬度_wgs84": 36.803855, "一级分类": "交通" }, "geometry": { "type": "Point", "coordinates": [ 118.074897, 36.803855 ] } },
{ "type": "Feature", "properties": { "类别": "公交站", "名称": "市第二康复医院·区医院北院区(公交站)", "经度": 118.072884, "纬度": 36.817268, "地址": "89路/K89路", "类型": "交通设施服务;公交车站;公交车站相关", "省": "山东省", "市": "淄博市", "区县": "张店区", "经度_wgs84": 118.072195, "纬度_wgs84": 36.812359, "一级分类": "交通" }, "geometry": { "type": "Point", "coordinates": [ 118.072195, 36.812359 ] } },
{ "type": "Feature", "properties": { "类别": "公交站", "名称": "淄博火车站(王舍路)(公交站)", "经度": 118.0532, "纬度": 36.785794, "地址": "(停运)公交专线", "类型": "交通设施服务;公交车站;公交车站相关", "省": "山东省", "市": "淄博市", "区县": "张店区", "经度_wgs84": 118.052576, "纬度_wgs84": 36.780908, "一级分类": "交通" }, "geometry": { "type": "Point", "coordinates": [ 118.052576, 36.780908 ] } },
{ "type": "Feature", "properties": { "类别": "公交站", "名称": "张店交警大队(公交站)", "经度": 118.032154, "纬度": 36.797336, "地址": "121路/K121路;132路/K132路;138路东线;138路西线;95路/K95路", "类型": "交通设施服务;公交车站;公交车站相关", "省": "山东省", "市": "淄博市", "区县": "张店区", "经度_wgs84": 118.031581, "纬度_wgs84": 36.792489, "一级分类": "交通" }, "geometry": { "type": "Point", "coordinates": [ 118.031581, 36.792489 ] } },
{ "type": "Feature", "properties": { "类别": "公交站", "名称": "王舍汽配城·茶城(公交站)", "经度": 118.042554, "纬度": 36.779095, "地址": "119路;151路(王府井-淄川)直达/K151路;171路;172路大站快线;1路直达(利群);80路/K80路;沂源长途汽车站-公交东站定制公交通勤专线", "类型": "交通设施服务;公交车站;公交车站相关", "省": "山东省", "市": "淄博市", "区县": "张店区", "经度_wgs84": 118.041964, "纬度_wgs84": 36.774228, "一级分类": "交通" }, "geometry": { "type": "Point", "coordinates": [ 118.041964, 36.774228 ] } },
{ "type": "Feature", "properties": { "类别": "公交站", "名称": "恩诚口腔诊所(公交站)", "经度": 118.0335, "纬度": 36.808001, "地址": "139路/K139路;157路/K157路;160路/K160路;88路/K88路内环;88路/K88路外环", "类型": "交通设施服务;公交车站;公交车站相关", "省": "山东省", "市": "淄博市", "区县": "张店区", "经度_wgs84": 118.032913, "纬度_wgs84": 36.803151, "一级分类": "交通" }, "geometry": { "type": "Point", "coordinates": [ 118.032913, 36.803151 ] } },
{ "type": "Feature", "properties": { "类别": "公交站", "名称": "市技师学院北门(公交站)", "经度": 118.029404, "纬度": 36.82164, "地址": "135路/K135路;185路;92路/K92路", "类型": "交通设施服务;公交车站;公交车站相关", "省": "山东省", "市": "淄博市", "区县": "张店区", "经度_wgs84": 118.028818, "纬度_wgs84": 36.816799, "一级分类": "交通" }, "geometry": { "type": "Point", "coordinates": [ 118.028818, 36.816799 ] } },
{ "type": "Feature", "properties": { "类别": "公交站", "名称": "共青团路世纪路口(公交站)", "经度": 118.027068, "纬度": 36.808562, "地址": "157路/K157路;160路/K160路;88路/K88路内环;88路/K88路外环", "类型": "交通设施服务;公交车站;公交车站相关", "省": "山东省", "市": "淄博市", "区县": "张店区", "经度_wgs84": 118.026502, "纬度_wgs84": 36.803727, "一级分类": "交通" }, "geometry": { "type": "Point", "coordinates": [ 118.026502, 36.803727 ] } },
{ "type": "Feature", "properties": { "类别": "公交站", "名称": "联通路金晶大道路口(公交站)", "经度": 118.070278, "纬度": 36.824575, "地址": "206路;79路/K79路", "类型": "交通设施服务;公交车站;公交车站相关", "省": "山东省", "市": "淄博市", "区县": "张店区", "经度_wgs84": 118.069586, "纬度_wgs84": 36.819668, "一级分类": "交通" }, "geometry": { "type": "Point", "coordinates": [ 118.069586, 36.819668 ] } },
{ "type": "Feature", "properties": { "类别": "公交站", "名称": "世纪路共青团路口(公交站)", "经度": 118.02507, "纬度": 36.80806, "地址": "102路/K102路;139路/K139路;157路/K157路;229路/K229路;257路/K257路;90路/K90路北线;90路/K90路南线;定制公交赏花灯专线三", "类型": "交通设施服务;公交车站;公交车站相关", "省": "山东省", "市": "淄博市", "区县": "张店区", "经度_wgs84": 118.024511, "纬度_wgs84": 36.803229, "一级分类": "交通" }, "geometry": { "type": "Point", "coordinates": [ 118.024511, 36.803229 ] } },
{ "type": "Feature", "properties": { "类别": "公交站", "名称": "市农科院(公交站)", "经度": 118.031029, "纬度": 36.804966, "地址": "139路/K139路;222路/K222路", "类型": "交通设施服务;公交车站;公交车站相关", "省": "山东省", "市": "淄博市", "区县": "张店区", "经度_wgs84": 118.030453, "纬度_wgs84": 36.800122, "一级分类": "交通" }, "geometry": { "type": "Point", "coordinates": [ 118.030453, 36.800122 ] } },
{ "type": "Feature", "properties": { "类别": "公交站", "名称": "淄博市中医医院柳泉路院区(公交站)", "经度": 118.053398, "纬度": 36.826671, "地址": "市中医医院健康专线", "类型": "交通设施服务;公交车站;公交车站相关", "省": "山东省", "市": "淄博市", "区县": "张店区", "经度_wgs84": 118.052738, "纬度_wgs84": 36.821784, "一级分类": "交通" }, "geometry": { "type": "Point", "coordinates": [ 118.052738, 36.821784 ] } },
{ "type": "Feature", "properties": { "类别": "公交站", "名称": "二毛宿舍(公交站)", "经度": 118.074059, "纬度": 36.809555, "地址": "127路/K127路", "类型": "交通设施服务;公交车站;公交车站相关", "省": "山东省", "市": "淄博市", "区县": "张店区", "经度_wgs84": 118.073375, "纬度_wgs84": 36.804646, "一级分类": "交通" }, "geometry": { "type": "Point", "coordinates": [ 118.073375, 36.804646 ] } },
{ "type": "Feature", "properties": { "类别": "公交站", "名称": "西六路华光路口(公交站)", "经度": 118.032266, "纬度": 36.819951, "地址": "121路/K121路;126路/K126路;2路/K2路", "类型": "交通设施服务;公交车站;公交车站相关", "省": "山东省", "市": "淄博市", "区县": "张店区", "经度_wgs84": 118.031672, "纬度_wgs84": 36.815104, "一级分类": "交通" }, "geometry": { "type": "Point", "coordinates": [ 118.031672, 36.815104 ] } },
{ "type": "Feature", "properties": { "类别": "公交站", "名称": "中润大道西四路口(公交站)", "经度": 118.042248, "纬度": 36.83674, "地址": "121路/K121路;156路/K156路;159路/K159路;162路;200路;71路;71路(6点30分);接站专线车", "类型": "交通设施服务;公交车站;公交车站相关", "省": "山东省", "市": "淄博市", "区县": "张店区", "经度_wgs84": 118.041609, "纬度_wgs84": 36.831872, "一级分类": "交通" }, "geometry": { "type": "Point", "coordinates": [ 118.041609, 36.831872 ] } },
{ "type": "Feature", "properties": { "类别": "公交站", "名称": "银座广场(公交站)", "经度": 118.032238, "纬度": 36.815676, "地址": "121路/K121路;126路/K126路;2路/K2路", "类型": "交通设施服务;公交车站;公交车站相关", "省": "山东省", "市": "淄博市", "区县": "张店区", "经度_wgs84": 118.031648, "纬度_wgs84": 36.810829, "一级分类": "交通" }, "geometry": { "type": "Point", "coordinates": [ 118.031648, 36.810829 ] } },
{ "type": "Feature", "properties": { "类别": "公交站", "名称": "洪沟铁路小区(公交站)", "经度": 118.06786, "纬度": 36.792205, "地址": "122路/K122路;123路/K123路;20路;37路/K37路", "类型": "交通设施服务;公交车站;公交车站相关", "省": "山东省", "市": "淄博市", "区县": "张店区", "经度_wgs84": 118.0672, "纬度_wgs84": 36.787301, "一级分类": "交通" }, "geometry": { "type": "Point", "coordinates": [ 118.0672, 36.787301 ] } },
{ "type": "Feature", "properties": { "类别": "公交站", "名称": "城西小区(公交站)", "经度": 118.033891, "纬度": 36.804861, "地址": "222路/K222路", "类型": "交通设施服务;公交车站;公交车站相关", "省": "山东省", "市": "淄博市", "区县": "张店区", "经度_wgs84": 118.033305, "纬度_wgs84": 36.800011, "一级分类": "交通" }, "geometry": { "type": "Point", "coordinates": [ 118.033305, 36.800011 ] } },
{ "type": "Feature", "properties": { "类别": "公交站", "名称": "新村路东三路口(公交站)", "经度": 118.074845, "纬度": 36.796251, "地址": "122路/K122路;123路/K123路;150路/K150路;206路;20路;37路/K37路;5路;6路/K6路;82路", "类型": "交通设施服务;公交车站;公交车站相关", "省": "山东省", "市": "淄博市", "区县": "张店区", "经度_wgs84": 118.074171, "纬度_wgs84": 36.791342, "一级分类": "交通" }, "geometry": { "type": "Point", "coordinates": [ 118.074171, 36.791342 ] } },
{ "type": "Feature", "properties": { "类别": "公交站", "名称": "孙孟口腔(公交站)", "经度": 118.050664, "纬度": 36.836526, "地址": "156路/K156路;185路", "类型": "交通设施服务;公交车站;公交车站相关", "省": "山东省", "市": "淄博市", "区县": "张店区", "经度_wgs84": 118.050002, "纬度_wgs84": 36.831643, "一级分类": "交通" }, "geometry": { "type": "Point", "coordinates": [ 118.050002, 36.831643 ] } },
{ "type": "Feature", "properties": { "类别": "公交站", "名称": "西六路商场路口(公交站)", "经度": 118.032211, "纬度": 36.806372, "地址": "121路/K121路;126路/K126路;139路/K139路", "类型": "交通设施服务;公交车站;公交车站相关", "省": "山东省", "市": "淄博市", "区县": "张店区", "经度_wgs84": 118.03163, "纬度_wgs84": 36.801525, "一级分类": "交通" }, "geometry": { "type": "Point", "coordinates": [ 118.03163, 36.801525 ] } },
{ "type": "Feature", "properties": { "类别": "公交站", "名称": "将军花园(公交站)", "经度": 118.035455, "纬度": 36.814268, "地址": "102路/K102路;105路/K105路;116路/K116路(北线);116路/K116路(南线)", "类型": "交通设施服务;公交车站;公交车站相关", "省": "山东省", "市": "淄博市", "区县": "张店区", "经度_wgs84": 118.034856, "纬度_wgs84": 36.809414, "一级分类": "交通" }, "geometry": { "type": "Point", "coordinates": [ 118.034856, 36.809414 ] } },
{ "type": "Feature", "properties": { "类别": "公交站", "名称": "英豪·东方明珠(公交站)", "经度": 118.076741, "纬度": 36.816618, "地址": "206路;266路/K266路", "类型": "交通设施服务;公交车站;公交车站相关", "省": "山东省", "市": "淄博市", "区县": "张店区", "经度_wgs84": 118.076047, "纬度_wgs84": 36.811707, "一级分类": "交通" }, "geometry": { "type": "Point", "coordinates": [ 118.076047, 36.811707 ] } },
{ "type": "Feature", "properties": { "类别": "公交站", "名称": "中润华侨城南门(公交站)", "经度": 118.030739, "纬度": 36.837181, "地址": "162路;200路;71路;71路(6点30分)", "类型": "交通设施服务;公交车站;公交车站相关", "省": "山东省", "市": "淄博市", "区县": "张店区", "经度_wgs84": 118.030135, "纬度_wgs84": 36.832336, "一级分类": "交通" }, "geometry": { "type": "Point", "coordinates": [ 118.030135, 36.832336 ] } },
{ "type": "Feature", "properties": { "类别": "公交站", "名称": "西六路新村路口(公交站)", "经度": 118.031836, "纬度": 36.80333, "地址": "121路/K121路;126路/K126路", "类型": "交通设施服务;公交车站;公交车站相关", "省": "山东省", "市": "淄博市", "区县": "张店区", "经度_wgs84": 118.031258, "纬度_wgs84": 36.798484, "一级分类": "交通" }, "geometry": { "type": "Point", "coordinates": [ 118.031258, 36.798484 ] } },
{ "type": "Feature", "properties": { "类别": "公交站", "名称": "市中西医院南门(公交站)", "经度": 118.05938, "纬度": 36.792472, "地址": "121路/K121路;122路/K122路;123路/K123路;6路/K6路", "类型": "交通设施服务;公交车站;公交车站相关", "省": "山东省", "市": "淄博市", "区县": "张店区", "经度_wgs84": 118.058736, "纬度_wgs84": 36.787578, "一级分类": "交通" }, "geometry": { "type": "Point", "coordinates": [ 118.058736, 36.787578 ] } },
{ "type": "Feature", "properties": { "类别": "公交站", "名称": "市中西医结合医院-张店区人民医院(公交站)", "经度": 118.058163, "纬度": 36.794399, "地址": "122路/K122路;96路/K96路", "类型": "交通设施服务;公交车站;公交车站相关", "省": "山东省", "市": "淄博市", "区县": "张店区", "经度_wgs84": 118.05752, "纬度_wgs84": 36.789506, "一级分类": "交通" }, "geometry": { "type": "Point", "coordinates": [ 118.05752, 36.789506 ] } },
{ "type": "Feature", "properties": { "类别": "公交站", "名称": "和平小区(公交站)", "经度": 118.039214, "纬度": 36.796738, "地址": "121路/K121路;132路/K132路;35路/K35路;95路/K95路", "类型": "交通设施服务;公交车站;公交车站相关", "省": "山东省", "市": "淄博市", "区县": "张店区", "经度_wgs84": 118.038619, "纬度_wgs84": 36.791877, "一级分类": "交通" }, "geometry": { "type": "Point", "coordinates": [ 118.038619, 36.791877 ] } },
{ "type": "Feature", "properties": { "类别": "公交站", "名称": "潘南路东四路路口(乔庄)(公交站)", "经度": 118.07898, "纬度": 36.811604, "地址": "88路/K88路内环;88路/K88路外环", "类型": "交通设施服务;公交车站;公交车站相关", "省": "山东省", "市": "淄博市", "区县": "张店区", "经度_wgs84": 118.078288, "纬度_wgs84": 36.806692, "一级分类": "交通" }, "geometry": { "type": "Point", "coordinates": [ 118.078288, 36.806692 ] } },
{ "type": "Feature", "properties": { "类别": "公交站", "名称": "市十七中学(公交站)", "经度": 118.036932, "纬度": 36.810635, "地址": "223路/K223路", "类型": "交通设施服务;公交车站;公交车站相关", "省": "山东省", "市": "淄博市", "区县": "张店区", "经度_wgs84": 118.036332, "纬度_wgs84": 36.805778, "一级分类": "交通" }, "geometry": { "type": "Point", "coordinates": [ 118.036332, 36.805778 ] } },
{ "type": "Feature", "properties": { "类别": "公交站", "名称": "启家口腔医院(公交站)", "经度": 118.043863, "纬度": 36.834502, "地址": "121路/K121路;185路", "类型": "交通设施服务;公交车站;公交车站相关", "省": "山东省", "市": "淄博市", "区县": "张店区", "经度_wgs84": 118.043221, "纬度_wgs84": 36.829631, "一级分类": "交通" }, "geometry": { "type": "Point", "coordinates": [ 118.043221, 36.829631 ] } },
{ "type": "Feature", "properties": { "类别": "公交站", "名称": "西五路莲池村中心路口(公交站)", "经度": 118.037088, "纬度": 36.83112, "地址": "108路/K108路;168路/K168路", "类型": "交通设施服务;公交车站;公交车站相关", "省": "山东省", "市": "淄博市", "区县": "张店区", "经度_wgs84": 118.036469, "纬度_wgs84": 36.826262, "一级分类": "交通" }, "geometry": { "type": "Point", "coordinates": [ 118.036469, 36.826262 ] } },
{ "type": "Feature", "properties": { "类别": "公交站", "名称": "淄博莲池骨科医院(公交站)", "经度": 118.037088, "纬度": 36.83112, "地址": "223路/K223路", "类型": "交通设施服务;公交车站;公交车站相关", "省": "山东省", "市": "淄博市", "区县": "张店区", "经度_wgs84": 118.036469, "纬度_wgs84": 36.826262, "一级分类": "交通" }, "geometry": { "type": "Point", "coordinates": [ 118.036469, 36.826262 ] } },
{ "type": "Feature", "properties": { "类别": "公交站", "名称": "兴学街(公交站)", "经度": 118.051398, "纬度": 36.793984, "地址": "121路/K121路;160路/K160路;251路/K251路;51路西线;95路/K95路;夜160路", "类型": "交通设施服务;公交车站;公交车站相关", "省": "山东省", "市": "淄博市", "区县": "张店区", "经度_wgs84": 118.050772, "纬度_wgs84": 36.789101, "一级分类": "交通" }, "geometry": { "type": "Point", "coordinates": [ 118.050772, 36.789101 ] } },
{ "type": "Feature", "properties": { "类别": "公交站", "名称": "东方星城·塾香园(公交站)", "经度": 118.076219, "纬度": 36.823456, "地址": "79路/K79路", "类型": "交通设施服务;公交车站;公交车站相关", "省": "山东省", "市": "淄博市", "区县": "张店区", "经度_wgs84": 118.07552, "纬度_wgs84": 36.818545, "一级分类": "交通" }, "geometry": { "type": "Point", "coordinates": [ 118.07552, 36.818545 ] } },
{ "type": "Feature", "properties": { "类别": "公交站", "名称": "柳泉艺术学校(公交站)", "经度": 118.074904, "纬度": 36.811772, "地址": "127路/K127路;88路/K88路内环;88路/K88路外环;8路/K8路", "类型": "交通设施服务;公交车站;公交车站相关", "省": "山东省", "市": "淄博市", "区县": "张店区", "经度_wgs84": 118.074217, "纬度_wgs84": 36.806862, "一级分类": "交通" }, "geometry": { "type": "Point", "coordinates": [ 118.074217, 36.806862 ] } },
{ "type": "Feature", "properties": { "类别": "公交站", "名称": "淄博火车站北广场(临时站)(公交站)", "经度": 118.05921, "纬度": 36.78893, "地址": "121路/K121路;136路/K136路;8路/K8路", "类型": "交通设施服务;公交车站;公交车站相关", "省": "山东省", "市": "淄博市", "区县": "张店区", "经度_wgs84": 118.05857, "纬度_wgs84": 36.784036, "一级分类": "交通" }, "geometry": { "type": "Point", "coordinates": [ 118.05857, 36.784036 ] } },
{ "type": "Feature", "properties": { "类别": "公交站", "名称": "新村路东四路口(公交站)", "经度": 118.08045, "纬度": 36.795654, "地址": "122路/K122路;123路/K123路;37路/K37路", "类型": "交通设施服务;公交车站;公交车站相关", "省": "山东省", "市": "淄博市", "区县": "张店区", "经度_wgs84": 118.07977, "纬度_wgs84": 36.790742, "一级分类": "交通" }, "geometry": { "type": "Point", "coordinates": [ 118.07977, 36.790742 ] } },
{ "type": "Feature", "properties": { "类别": "公交站", "名称": "市政务服务中心西门(公交站)", "经度": 118.036945, "纬度": 36.80352, "地址": "223路/K223路", "类型": "交通设施服务;公交车站;公交车站相关", "省": "山东省", "市": "淄博市", "区县": "张店区", "经度_wgs84": 118.036351, "纬度_wgs84": 36.798663, "一级分类": "交通" }, "geometry": { "type": "Point", "coordinates": [ 118.036351, 36.798663 ] } },
{ "type": "Feature", "properties": { "类别": "公交站", "名称": "美年大健康(金晶大道路口)(公交站)", "经度": 118.068551, "纬度": 36.836066, "地址": "156路/K156路;162路", "类型": "交通设施服务;公交车站;公交车站相关", "省": "山东省", "市": "淄博市", "区县": "张店区", "经度_wgs84": 118.067852, "纬度_wgs84": 36.83116, "一级分类": "交通" }, "geometry": { "type": "Point", "coordinates": [ 118.067852, 36.83116 ] } },
{ "type": "Feature", "properties": { "类别": "公交站", "名称": "商场路世纪路口(公交站)", "经度": 118.027151, "纬度": 36.805323, "地址": "139路/K139路;222路/K222路", "类型": "交通设施服务;公交车站;公交车站相关", "省": "山东省", "市": "淄博市", "区县": "张店区", "经度_wgs84": 118.026587, "纬度_wgs84": 36.800488, "一级分类": "交通" }, "geometry": { "type": "Point", "coordinates": [ 118.026587, 36.800488 ] } },
{ "type": "Feature", "properties": { "类别": "公交站", "名称": "淄博莲池妇婴医院(公交站)", "经度": 118.037102, "纬度": 36.834648, "地址": "108路/K108路;168路/K168路;223路/K223路", "类型": "交通设施服务;公交车站;公交车站相关", "省": "山东省", "市": "淄博市", "区县": "张店区", "经度_wgs84": 118.03648, "纬度_wgs84": 36.82979, "一级分类": "交通" }, "geometry": { "type": "Point", "coordinates": [ 118.03648, 36.82979 ] } },
{ "type": "Feature", "properties": { "类别": "公交站", "名称": "移动大厦(公交站)", "经度": 118.025659, "纬度": 36.820742, "地址": "135路/K135路;139路/K139路;159路/K159路;160路/K160路;229路/K229路;257路/K257路;90路/K90路南线;95路/K95路;97路/K97路;9路/K9路;夜160路", "类型": "交通设施服务;公交车站;公交车站相关", "省": "山东省", "市": "淄博市", "区县": "张店区", "经度_wgs84": 118.025087, "纬度_wgs84": 36.81591, "一级分类": "交通" }, "geometry": { "type": "Point", "coordinates": [ 118.025087, 36.81591 ] } },
{ "type": "Feature", "properties": { "类别": "公交站", "名称": "淄博市技师学院东门(公交站)", "经度": 118.032291, "纬度": 36.817354, "地址": "121路/K121路;126路/K126路;2路/K2路", "类型": "交通设施服务;公交车站;公交车站相关", "省": "山东省", "市": "淄博市", "区县": "张店区", "经度_wgs84": 118.0317, "纬度_wgs84": 36.812507, "一级分类": "交通" }, "geometry": { "type": "Point", "coordinates": [ 118.0317, 36.812507 ] } },
{ "type": "Feature", "properties": { "类别": "公交站", "名称": "魏家庄(中润大道)(公交站)", "经度": 118.061962, "纬度": 36.836237, "地址": "156路/K156路;162路;71路;71路(6点30分)", "类型": "交通设施服务;公交车站;公交车站相关", "省": "山东省", "市": "淄博市", "区县": "张店区", "经度_wgs84": 118.061275, "纬度_wgs84": 36.831338, "一级分类": "交通" }, "geometry": { "type": "Point", "coordinates": [ 118.061275, 36.831338 ] } },
{ "type": "Feature", "properties": { "类别": "公交站", "名称": "王舍(公交站)", "经度": 118.045273, "纬度": 36.789207, "地址": "137路/K137路", "类型": "交通设施服务;公交车站;公交车站相关", "省": "山东省", "市": "淄博市", "区县": "张店区", "经度_wgs84": 118.044667, "纬度_wgs84": 36.784334, "一级分类": "交通" }, "geometry": { "type": "Point", "coordinates": [ 118.044667, 36.784334 ] } },
{ "type": "Feature", "properties": { "类别": "公交站", "名称": "盛世新东城(公交站)", "经度": 118.079819, "纬度": 36.807896, "地址": "105路/K105路;88路/K88路内环;88路/K88路外环", "类型": "交通设施服务;公交车站;公交车站相关", "省": "山东省", "市": "淄博市", "区县": "张店区", "经度_wgs84": 118.079129, "纬度_wgs84": 36.802984, "一级分类": "交通" }, "geometry": { "type": "Point", "coordinates": [ 118.079129, 36.802984 ] } },
{ "type": "Feature", "properties": { "类别": "公交站", "名称": "淄博市技师学院(公交站)", "经度": 118.025554, "纬度": 36.818461, "地址": "139路/K139路;160路/K160路;229路/K229路;257路/K257路;90路/K90路北线;90路/K90路南线;夜160路", "类型": "交通设施服务;公交车站;公交车站相关", "省": "山东省", "市": "淄博市", "区县": "张店区", "经度_wgs84": 118.024984, "纬度_wgs84": 36.813629, "一级分类": "交通" }, "geometry": { "type": "Point", "coordinates": [ 118.024984, 36.813629 ] } },
{ "type": "Feature", "properties": { "类别": "公交站", "名称": "市府三宿舍西门(公交站)", "经度": 118.032264, "纬度": 36.825916, "地址": "168路/K168路", "类型": "交通设施服务;公交车站;公交车站相关", "省": "山东省", "市": "淄博市", "区县": "张店区", "经度_wgs84": 118.031665, "纬度_wgs84": 36.821068, "一级分类": "交通" }, "geometry": { "type": "Point", "coordinates": [ 118.031665, 36.821068 ] } },
{ "type": "Feature", "properties": { "类别": "公交站", "名称": "义乌小商品城(南)(公交站)", "经度": 118.021949, "纬度": 36.821936, "地址": "257路/K257路", "类型": "交通设施服务;公交车站;公交车站相关", "省": "山东省", "市": "淄博市", "区县": "张店区", "经度_wgs84": 118.021389, "纬度_wgs84": 36.817112, "一级分类": "交通" }, "geometry": { "type": "Point", "coordinates": [ 118.021389, 36.817112 ] } },
{ "type": "Feature", "properties": { "类别": "公交站", "名称": "淄博火车站南广场6号门(公交站)", "经度": 118.056307, "纬度": 36.786505, "地址": "110路;37路/K37路", "类型": "交通设施服务;公交车站;公交车站相关", "省": "山东省", "市": "淄博市", "区县": "张店区", "经度_wgs84": 118.055675, "纬度_wgs84": 36.781615, "一级分类": "交通" }, "geometry": { "type": "Point", "coordinates": [ 118.055675, 36.781615 ] } },
{ "type": "Feature", "properties": { "类别": "公交站", "名称": "区疾病防控中心(公交站)", "经度": 118.029318, "纬度": 36.80272, "地址": "7路/K7路;96路/K96路", "类型": "交通设施服务;公交车站;公交车站相关", "省": "山东省", "市": "淄博市", "区县": "张店区", "经度_wgs84": 118.028749, "纬度_wgs84": 36.79788, "一级分类": "交通" }, "geometry": { "type": "Point", "coordinates": [ 118.028749, 36.79788 ] } },
{ "type": "Feature", "properties": { "类别": "公交站", "名称": "淄博火车站-南广场(公交站)", "经度": 118.05626, "纬度": 36.7861, "地址": "1路直达;46路/K46路", "类型": "交通设施服务;公交车站;公交车站相关", "省": "山东省", "市": "淄博市", "区县": "张店区", "经度_wgs84": 118.055629, "纬度_wgs84": 36.78121, "一级分类": "交通" }, "geometry": { "type": "Point", "coordinates": [ 118.055629, 36.78121 ] } },
{ "type": "Feature", "properties": { "类别": "公交站", "名称": "东二路联通路口(公交站)", "经度": 118.070487, "纬度": 36.822456, "地址": "206路", "类型": "交通设施服务;公交车站;公交车站相关", "省": "山东省", "市": "淄博市", "区县": "张店区", "经度_wgs84": 118.069797, "纬度_wgs84": 36.817549, "一级分类": "交通" }, "geometry": { "type": "Point", "coordinates": [ 118.069797, 36.817549 ] } },
{ "type": "Feature", "properties": { "类别": "公交站", "名称": "杏园路金晶大道路口(淄博站广场)(公交站)", "经度": 118.057116, "纬度": 36.790112, "地址": "37路/K37路;5路;82路", "类型": "交通设施服务;公交车站;公交车站相关", "省": "山东省", "市": "淄博市", "区县": "张店区", "经度_wgs84": 118.056479, "纬度_wgs84": 36.785221, "一级分类": "交通" }, "geometry": { "type": "Point", "coordinates": [ 118.056479, 36.785221 ] } },
{ "type": "Feature", "properties": { "类别": "公交站", "名称": "市保安公司(临时站)(公交站)", "经度": 118.063001, "纬度": 36.799795, "地址": "136路/K136路", "类型": "交通设施服务;公交车站;公交车站相关", "省": "山东省", "市": "淄博市", "区县": "张店区", "经度_wgs84": 118.062344, "纬度_wgs84": 36.794896, "一级分类": "交通" }, "geometry": { "type": "Point", "coordinates": [ 118.062344, 36.794896 ] } },
{ "type": "Feature", "properties": { "类别": "公交站", "名称": "中润大道西五路口(公交站)", "经度": 118.036137, "纬度": 36.837034, "地址": "121路/K121路;156路/K156路;159路/K159路;162路;200路;71路;71路(6点30分)", "类型": "交通设施服务;公交车站;公交车站相关", "省": "山东省", "市": "淄博市", "区县": "张店区", "经度_wgs84": 118.035516, "纬度_wgs84": 36.832178, "一级分类": "交通" }, "geometry": { "type": "Point", "coordinates": [ 118.035516, 36.832178 ] } },
{ "type": "Feature", "properties": { "类别": "公交站", "名称": "十里河(公交站)", "经度": 118.071413, "纬度": 36.838711, "地址": "116路/K116路(北线);116路/K116路(南线);122路/K122路;206路;51路(东线)", "类型": "交通设施服务;公交车站;公交车站相关", "省": "山东省", "市": "淄博市", "区县": "张店区", "经度_wgs84": 118.070707, "纬度_wgs84": 36.833803, "一级分类": "交通" }, "geometry": { "type": "Point", "coordinates": [ 118.070707, 36.833803 ] } },
{ "type": "Feature", "properties": { "类别": "公交站", "名称": "中润华侨城西门(公交站)", "经度": 118.026656, "纬度": 36.841047, "地址": "123路/K123路;162路;229路/K229路;297路;71路;71路(6点30分);90路/K90路北线;90路/K90路南线;95路/K95路;97路/K97路", "类型": "交通设施服务;公交车站;公交车站相关", "省": "山东省", "市": "淄博市", "区县": "张店区", "经度_wgs84": 118.026063, "纬度_wgs84": 36.836212, "一级分类": "交通" }, "geometry": { "type": "Point", "coordinates": [ 118.026063, 36.836212 ] } },
{ "type": "Feature", "properties": { "类别": "公交站", "名称": "公交东站(公交站)", "经度": 118.080404, "纬度": 36.773819, "地址": "126路/K126路;139路/K139路;152路/K152路;159路/K159路;171路;1路北线;206路;269路;33路;36路;36路(半点发车);37路/K37路;3路;53路/K53路;58路/K58路;5路;71路;71路(6点30分);80路/K80路;82路;86路;沂源长途汽车站-公交东站定制公交通勤专线", "类型": "交通设施服务;公交车站;公交车站相关", "省": "山东省", "市": "淄博市", "区县": "张店区", "经度_wgs84": 118.079743, "纬度_wgs84": 36.768908, "一级分类": "交通" }, "geometry": { "type": "Point", "coordinates": [ 118.079743, 36.768908 ] } },
{ "type": "Feature", "properties": { "类别": "公交站", "名称": "市实验中学(公交站)", "经度": 118.010344, "纬度": 36.803347, "地址": "102路/K102路;12路/K12路;138路东线;138路西线;168路/K168路;222路/K222路;7路/K7路;95路/K95路;96路/K96路;第一医院健康专线", "类型": "交通设施服务;公交车站;公交车站相关", "省": "山东省", "市": "淄博市", "区县": "张店区", "经度_wgs84": 118.009842, "纬度_wgs84": 36.798553, "一级分类": "交通" }, "geometry": { "type": "Point", "coordinates": [ 118.009842, 36.798553 ] } },
{ "type": "Feature", "properties": { "类别": "公交站", "名称": "淄博四季青医院(公交站)", "经度": 118.040972, "纬度": 36.82842, "地址": "123路/K123路;79路/K79路", "类型": "交通设施服务;公交车站;公交车站相关", "省": "山东省", "市": "淄博市", "区县": "张店区", "经度_wgs84": 118.040344, "纬度_wgs84": 36.823554, "一级分类": "交通" }, "geometry": { "type": "Point", "coordinates": [ 118.040344, 36.823554 ] } },
{ "type": "Feature", "properties": { "类别": "公交站", "名称": "东四路共青团路口(公交站)", "经度": 118.083364, "纬度": 36.803954, "地址": "206路", "类型": "交通设施服务;公交车站;公交车站相关", "省": "山东省", "市": "淄博市", "区县": "张店区", "经度_wgs84": 118.082675, "纬度_wgs84": 36.799041, "一级分类": "交通" }, "geometry": { "type": "Point", "coordinates": [ 118.082675, 36.799041 ] } },
{ "type": "Feature", "properties": { "类别": "公交站", "名称": "西班牙风情街(公交站)", "经度": 118.025887, "纬度": 36.826363, "地址": "135路/K135路;159路/K159路;160路/K160路;229路/K229路;34路/K34路;95路/K95路;97路/K97路;9路/K9路;夜160路", "类型": "交通设施服务;公交车站;公交车站相关", "省": "山东省", "市": "淄博市", "区县": "张店区", "经度_wgs84": 118.025309, "纬度_wgs84": 36.82153, "一级分类": "交通" }, "geometry": { "type": "Point", "coordinates": [ 118.025309, 36.82153 ] } },
{ "type": "Feature", "properties": { "类别": "公交站", "名称": "淄博五中(临时站)(公交站)", "经度": 118.062049, "纬度": 36.794106, "地址": "136路/K136路;206路", "类型": "交通设施服务;公交车站;公交车站相关", "省": "山东省", "市": "淄博市", "区县": "张店区", "经度_wgs84": 118.061398, "纬度_wgs84": 36.789208, "一级分类": "交通" }, "geometry": { "type": "Point", "coordinates": [ 118.061398, 36.789208 ] } },
{ "type": "Feature", "properties": { "类别": "公交站", "名称": "火车站南广场(公交站)", "经度": 118.054895, "纬度": 36.784912, "地址": "1路北线;37路/K37路", "类型": "交通设施服务;公交车站;公交车站相关", "省": "山东省", "市": "淄博市", "区县": "张店区", "经度_wgs84": 118.054268, "纬度_wgs84": 36.780024, "一级分类": "交通" }, "geometry": { "type": "Point", "coordinates": [ 118.054268, 36.780024 ] } },
{ "type": "Feature", "properties": { "类别": "公交站", "名称": "石桥办事处(公交站)", "经度": 118.072962, "纬度": 36.843641, "地址": "116路/K116路(北线);116路/K116路(南线);122路/K122路;206路;51路(东线);51路西线", "类型": "交通设施服务;公交车站;公交车站相关", "省": "山东省", "市": "淄博市", "区县": "张店区", "经度_wgs84": 118.072249, "纬度_wgs84": 36.838732, "一级分类": "交通" }, "geometry": { "type": "Point", "coordinates": [ 118.072249, 36.838732 ] } },
{ "type": "Feature", "properties": { "类别": "公交站", "名称": "火车站北广场首末站(公交站)", "经度": 118.05921, "纬度": 36.78893, "地址": "136路/K136路;222路/K222路", "类型": "交通设施服务;公交车站;公交车站相关", "省": "山东省", "市": "淄博市", "区县": "张店区", "经度_wgs84": 118.05857, "纬度_wgs84": 36.784036, "一级分类": "交通" }, "geometry": { "type": "Point", "coordinates": [ 118.05857, 36.784036 ] } },
{ "type": "Feature", "properties": { "类别": "公交站", "名称": "山东电泵(公交站)", "经度": 118.059547, "纬度": 36.844933, "地址": "125路/K125路;126路/K126路;185路;203路/K203路;251路/K251路;35路/K35路;58路/K58路", "类型": "交通设施服务;公交车站;公交车站相关", "省": "山东省", "市": "淄博市", "区县": "张店区", "经度_wgs84": 118.058857, "纬度_wgs84": 36.840037, "一级分类": "交通" }, "geometry": { "type": "Point", "coordinates": [ 118.058857, 36.840037 ] } },
{ "type": "Feature", "properties": { "类别": "公交站", "名称": "商场路(5号院烧烤)(公交站)", "经度": 118.044655, "纬度": 36.804448, "地址": "淄博烧烤专线5路", "类型": "交通设施服务;公交车站;公交车站相关", "省": "山东省", "市": "淄博市", "区县": "张店区", "经度_wgs84": 118.044037, "纬度_wgs84": 36.799576, "一级分类": "交通" }, "geometry": { "type": "Point", "coordinates": [ 118.044037, 36.799576 ] } },
{ "type": "Feature", "properties": { "类别": "公交站", "名称": "济南铁路局工务工厂(公交站)", "经度": 118.081923, "纬度": 36.808347, "地址": "105路/K105路;206路;76路/K76路;88路/K88路内环;88路/K88路外环", "类型": "交通设施服务;公交车站;公交车站相关", "省": "山东省", "市": "淄博市", "区县": "张店区", "经度_wgs84": 118.081231, "纬度_wgs84": 36.803434, "一级分类": "交通" }, "geometry": { "type": "Point", "coordinates": [ 118.081231, 36.803434 ] } },
{ "type": "Feature", "properties": { "类别": "公交站", "名称": "东二路(南行)(公交站)", "经度": 118.068512, "纬度": 36.795895, "地址": "123路/K123路", "类型": "交通设施服务;公交车站;公交车站相关", "省": "山东省", "市": "淄博市", "区县": "张店区", "经度_wgs84": 118.067848, "纬度_wgs84": 36.79099, "一级分类": "交通" }, "geometry": { "type": "Point", "coordinates": [ 118.067848, 36.79099 ] } },
{ "type": "Feature", "properties": { "类别": "公交站", "名称": "东四路(公交站)", "经度": 118.080646, "纬度": 36.795643, "地址": "123路/K123路;150路/K150路;206路;20路;5路;82路", "类型": "交通设施服务;公交车站;公交车站相关", "省": "山东省", "市": "淄博市", "区县": "张店区", "经度_wgs84": 118.079966, "纬度_wgs84": 36.790731, "一级分类": "交通" }, "geometry": { "type": "Point", "coordinates": [ 118.079966, 36.790731 ] } },
{ "type": "Feature", "properties": { "类别": "公交站", "名称": "柳泉路(大嘴烧烤)(公交站)", "经度": 118.046549, "纬度": 36.794439, "地址": "淄博烧烤专线5路", "类型": "交通设施服务;公交车站;公交车站相关", "省": "山东省", "市": "淄博市", "区县": "张店区", "经度_wgs84": 118.045935, "纬度_wgs84": 36.789564, "一级分类": "交通" }, "geometry": { "type": "Point", "coordinates": [ 118.045935, 36.789564 ] } },
{ "type": "Feature", "properties": { "类别": "公交站", "名称": "淄博面粉厂(东张村)(公交站)", "经度": 118.091096, "纬度": 36.793617, "地址": "123路/K123路;135路/K135路;150路/K150路;20路;37路/K37路;5路;82路", "类型": "交通设施服务;公交车站;公交车站相关", "省": "山东省", "市": "淄博市", "区县": "张店区", "经度_wgs84": 118.090411, "纬度_wgs84": 36.788704, "一级分类": "交通" }, "geometry": { "type": "Point", "coordinates": [ 118.090411, 36.788704 ] } },
{ "type": "Feature", "properties": { "类别": "公交站", "名称": "银泰城西门(公交站)", "经度": 118.032806, "纬度": 36.850178, "地址": "123路/K123路;131路/K131路;168路/K168路;297路;35路/K35路;95路/K95路", "类型": "交通设施服务;公交车站;公交车站相关", "省": "山东省", "市": "淄博市", "区县": "张店区", "经度_wgs84": 118.032184, "纬度_wgs84": 36.845329, "一级分类": "交通" }, "geometry": { "type": "Point", "coordinates": [ 118.032184, 36.845329 ] } },
{ "type": "Feature", "properties": { "类别": "公交站", "名称": "高新区行政服务中心(公交站)", "经度": 118.052612, "纬度": 36.836479, "地址": "接站专线车", "类型": "交通设施服务;公交车站;公交车站相关", "省": "山东省", "市": "淄博市", "区县": "张店区", "经度_wgs84": 118.051945, "纬度_wgs84": 36.831593, "一级分类": "交通" }, "geometry": { "type": "Point", "coordinates": [ 118.051945, 36.831593 ] } },
{ "type": "Feature", "properties": { "类别": "公交站", "名称": "张南路王舍路口(王舍路)(公交站)", "经度": 118.050333, "纬度": 36.786537, "地址": "37路/K37路;5路;82路", "类型": "交通设施服务;公交车站;公交车站相关", "省": "山东省", "市": "淄博市", "区县": "张店区", "经度_wgs84": 118.049716, "纬度_wgs84": 36.781656, "一级分类": "交通" }, "geometry": { "type": "Point", "coordinates": [ 118.049716, 36.781656 ] } },
{ "type": "Feature", "properties": { "类别": "公交站", "名称": "器械厂宿舍(公交站)", "经度": 118.066663, "纬度": 36.791669, "地址": "122路/K122路;123路/K123路;20路;37路/K37路", "类型": "交通设施服务;公交车站;公交车站相关", "省": "山东省", "市": "淄博市", "区县": "张店区", "经度_wgs84": 118.066006, "纬度_wgs84": 36.786766, "一级分类": "交通" }, "geometry": { "type": "Point", "coordinates": [ 118.066006, 36.786766 ] } },
{ "type": "Feature", "properties": { "类别": "公交站", "名称": "张店政务中心(公交站)", "经度": 118.017065, "纬度": 36.803823, "地址": "96路/K96路", "类型": "交通设施服务;公交车站;公交车站相关", "省": "山东省", "市": "淄博市", "区县": "张店区", "经度_wgs84": 118.016538, "纬度_wgs84": 36.799012, "一级分类": "交通" }, "geometry": { "type": "Point", "coordinates": [ 118.016538, 36.799012 ] } },
{ "type": "Feature", "properties": { "类别": "公交站", "名称": "世纪花园(公交站)", "经度": 118.026366, "纬度": 36.833529, "地址": "123路/K123路;137路/K137路;169路/K169路;200路;229路/K229路;95路/K95路;97路/K97路;9路/K9路;定制公交赏花灯专线三", "类型": "交通设施服务;公交车站;公交车站相关", "省": "山东省", "市": "淄博市", "区县": "张店区", "经度_wgs84": 118.02578, "纬度_wgs84": 36.828695, "一级分类": "交通" }, "geometry": { "type": "Point", "coordinates": [ 118.02578, 36.828695 ] } },
{ "type": "Feature", "properties": { "类别": "公交站", "名称": "英豪东方明珠(公交站)", "经度": 118.077259, "纬度": 36.816606, "地址": "206路", "类型": "交通设施服务;公交车站;公交车站相关", "省": "山东省", "市": "淄博市", "区县": "张店区", "经度_wgs84": 118.076565, "纬度_wgs84": 36.811695, "一级分类": "交通" }, "geometry": { "type": "Point", "coordinates": [ 118.076565, 36.811695 ] } },
{ "type": "Feature", "properties": { "类别": "公交站", "名称": "胜利桥小区(公交站)", "经度": 118.040892, "纬度": 36.792058, "地址": "90路/K90路北线;90路/K90路南线", "类型": "交通设施服务;公交车站;公交车站相关", "省": "山东省", "市": "淄博市", "区县": "张店区", "经度_wgs84": 118.040296, "纬度_wgs84": 36.787194, "一级分类": "交通" }, "geometry": { "type": "Point", "coordinates": [ 118.040296, 36.787194 ] } },
{ "type": "Feature", "properties": { "类别": "公交站", "名称": "张店九中(公交站)", "经度": 118.020218, "纬度": 36.814671, "地址": "105路/K105路;116路/K116路(北线);116路/K116路(南线);2路/K2路", "类型": "交通设施服务;公交车站;公交车站相关", "省": "山东省", "市": "淄博市", "区县": "张店区", "经度_wgs84": 118.01967, "纬度_wgs84": 36.809852, "一级分类": "交通" }, "geometry": { "type": "Point", "coordinates": [ 118.01967, 36.809852 ] } },
{ "type": "Feature", "properties": { "类别": "公交站", "名称": "牵引电机生活区(公交站)", "经度": 118.082057, "纬度": 36.802244, "地址": "135路/K135路", "类型": "交通设施服务;公交车站;公交车站相关", "省": "山东省", "市": "淄博市", "区县": "张店区", "经度_wgs84": 118.08137, "纬度_wgs84": 36.797331, "一级分类": "交通" }, "geometry": { "type": "Point", "coordinates": [ 118.08137, 36.797331 ] } },
{ "type": "Feature", "properties": { "类别": "公交站", "名称": "西六路华光路口(尖峰教育)(公交站)", "经度": 118.032266, "纬度": 36.819951, "地址": "2路/K2路", "类型": "交通设施服务;公交车站;公交车站相关", "省": "山东省", "市": "淄博市", "区县": "张店区", "经度_wgs84": 118.031672, "纬度_wgs84": 36.815104, "一级分类": "交通" }, "geometry": { "type": "Point", "coordinates": [ 118.031672, 36.815104 ] } },
{ "type": "Feature", "properties": { "类别": "公交站", "名称": "美年大健康(公交站)", "经度": 118.068551, "纬度": 36.836066, "地址": "71路;71路(6点30分)", "类型": "交通设施服务;公交车站;公交车站相关", "省": "山东省", "市": "淄博市", "区县": "张店区", "经度_wgs84": 118.067852, "纬度_wgs84": 36.83116, "一级分类": "交通" }, "geometry": { "type": "Point", "coordinates": [ 118.067852, 36.83116 ] } },
{ "type": "Feature", "properties": { "类别": "公交站", "名称": "植物园东门(公交站)", "经度": 118.034097, "纬度": 36.791428, "地址": "223路/K223路;35路/K35路", "类型": "交通设施服务;公交车站;公交车站相关", "省": "山东省", "市": "淄博市", "区县": "张店区", "经度_wgs84": 118.033523, "纬度_wgs84": 36.786577, "一级分类": "交通" }, "geometry": { "type": "Point", "coordinates": [ 118.033523, 36.786577 ] } },
{ "type": "Feature", "properties": { "类别": "公交站", "名称": "中润华侨城(公交站)", "经度": 118.030918, "纬度": 36.837184, "地址": "121路/K121路;156路/K156路;159路/K159路;162路;71路;90路/K90路北线;90路/K90路南线;9路/K9路", "类型": "交通设施服务;公交车站;公交车站相关", "省": "山东省", "市": "淄博市", "区县": "张店区", "经度_wgs84": 118.030314, "纬度_wgs84": 36.832339, "一级分类": "交通" }, "geometry": { "type": "Point", "coordinates": [ 118.030314, 36.832339 ] } },
{ "type": "Feature", "properties": { "类别": "公交站", "名称": "张庄(公交站)", "经度": 118.084304, "纬度": 36.797122, "地址": "135路/K135路;206路", "类型": "交通设施服务;公交车站;公交车站相关", "省": "山东省", "市": "淄博市", "区县": "张店区", "经度_wgs84": 118.08362, "纬度_wgs84": 36.792209, "一级分类": "交通" }, "geometry": { "type": "Point", "coordinates": [ 118.08362, 36.792209 ] } },
{ "type": "Feature", "properties": { "类别": "公交站", "名称": "区政务中心(公交站)", "经度": 118.017065, "纬度": 36.803823, "地址": "102路/K102路;12路/K12路;138路东线;138路西线;222路/K222路;7路/K7路", "类型": "交通设施服务;公交车站;公交车站相关", "省": "山东省", "市": "淄博市", "区县": "张店区", "经度_wgs84": 118.016538, "纬度_wgs84": 36.799012, "一级分类": "交通" }, "geometry": { "type": "Point", "coordinates": [ 118.016538, 36.799012 ] } },
{ "type": "Feature", "properties": { "类别": "公交站", "名称": "东一路新村路口(临时站)(公交站)", "经度": 118.062439, "纬度": 36.796506, "地址": "136路/K136路;206路", "类型": "交通设施服务;公交车站;公交车站相关", "省": "山东省", "市": "淄博市", "区县": "张店区", "经度_wgs84": 118.061786, "纬度_wgs84": 36.791608, "一级分类": "交通" }, "geometry": { "type": "Point", "coordinates": [ 118.061786, 36.791608 ] } },
{ "type": "Feature", "properties": { "类别": "公交站", "名称": "巨能电器(公交站)", "经度": 118.031372, "纬度": 36.799591, "地址": "121路/K121路", "类型": "交通设施服务;公交车站;公交车站相关", "省": "山东省", "市": "淄博市", "区县": "张店区", "经度_wgs84": 118.030799, "纬度_wgs84": 36.794746, "一级分类": "交通" }, "geometry": { "type": "Point", "coordinates": [ 118.030799, 36.794746 ] } },
{ "type": "Feature", "properties": { "类别": "公交站", "名称": "安康佳园(公交站)", "经度": 118.053711, "纬度": 36.782569, "地址": "51路(东线);58路/K58路;71路;71路(6点30分)", "类型": "交通设施服务;公交车站;公交车站相关", "省": "山东省", "市": "淄博市", "区县": "张店区", "经度_wgs84": 118.053089, "纬度_wgs84": 36.777683, "一级分类": "交通" }, "geometry": { "type": "Point", "coordinates": [ 118.053089, 36.777683 ] } }
]
}
