{
"type": "FeatureCollection",
"name": "poi_银行_cleaned",
"crs": { "type": "name", "properties": { "name": "urn:ogc:def:crs:OGC:1.3:CRS84" } },
"features": [
{ "type": "Feature", "properties": { "类别": "银行", "名称": "中国工商银行(淄博分行)", "经度": 118.063992, "纬度": 36.813264, "地址": "金晶大道158号", "类型": "金融保险服务;银行;中国工商银行", "省": "山东省", "市": "淄博市", "区县": "张店区", "经度_wgs84": 118.063321, "纬度_wgs84": 36.808363, "一级分类": "金融" }, "geometry": { "type": "Point", "coordinates": [ 118.063321, 36.808363 ] } },
{ "type": "Feature", "properties": { "类别": "银行", "名称": "中国工商银行(淄博张店支行)", "经度": 118.063226, "纬度": 36.810634, "地址": "体育场街道金晶大道146号", "类型": "金融保险服务;银行;中国工商银行", "省": "山东省", "市": "淄博市", "区县": "张店区", "经度_wgs84": 118.062559, "纬度_wgs84": 36.805734, "一级分类": "金融" }, "geometry": { "type": "Point", "coordinates": [ 118.062559, 36.805734 ] } },
{ "type": "Feature", "properties": { "类别": "银行", "名称": "中国建设银行(淄博分行营业部)", "经度": 118.04272, "纬度": 36.814771, "地址": "人民西路32号", "类型": "金融保险服务;银行;中国建设银行", "省": "山东省", "市": "淄博市", "区县": "张店区", "经度_wgs84": 118.042099, "纬度_wgs84": 36.809902, "一级分类": "金融" }, "geometry": { "type": "Point", "coordinates": [ 118.042099, 36.809902 ] } },
{ "type": "Feature", "properties": { "类别": "银行", "名称": "中国银行(淄博高新支行)", "经度": 118.0562, "纬度": 36.839156, "地址": "开发区火炬广场北侧(火炬大厦西)", "类型": "金融保险服务;银行;中国银行", "省": "山东省", "市": "淄博市", "区县": "张店区", "经度_wgs84": 118.055522, "纬度_wgs84": 36.834264, "一级分类": "金融" }, "geometry": { "type": "Point", "coordinates": [ 118.055522, 36.834264 ] } },
{ "type": "Feature", "properties": { "类别": "银行", "名称": "中国农业银行(淄博分行营业部)", "经度": 118.052073, "纬度": 36.812763, "地址": "柳泉路168号", "类型": "金融保险服务;银行;中国农业银行", "省": "山东省", "市": "淄博市", "区县": "张店区", "经度_wgs84": 118.051429, "纬度_wgs84": 36.807878, "一级分类": "金融" }, "geometry": { "type": "Point", "coordinates": [ 118.051429, 36.807878 ] } },
{ "type": "Feature", "properties": { "类别": "银行", "名称": "中国建设银行", "经度": 118.059245, "纬度": 36.840676, "地址": "柳泉路政通路路口东北角", "类型": "金融保险服务;银行;中国建设银行", "省": "山东省", "市": "淄博市", "区县": "张店区", "经度_wgs84": 118.058559, "纬度_wgs84": 36.83578, "一级分类": "金融" }, "geometry": { "type": "Point", "coordinates": [ 118.058559, 36.83578 ] } },
{ "type": "Feature", "properties": { "类别": "银行", "名称": "中国人民银行(淄博市分行)", "经度": 117.991995, "纬度": 36.822841, "地址": "心环东路8号", "类型": "金融保险服务;银行;中国人民银行", "省": "山东省", "市": "淄博市", "区县": "张店区", "经度_wgs84": 117.991545, "纬度_wgs84": 36.818094, "一级分类": "金融" }, "geometry": { "type": "Point", "coordinates": [ 117.991545, 36.818094 ] } },
{ "type": "Feature", "properties": { "类别": "银行", "名称": "中国农业银行(淄博张店支行)", "经度": 118.050488, "纬度": 36.821167, "地址": "华光路60号", "类型": "金融保险服务;银行;中国农业银行", "省": "山东省", "市": "淄博市", "区县": "张店区", "经度_wgs84": 118.04984, "纬度_wgs84": 36.816285, "一级分类": "金融" }, "geometry": { "type": "Point", "coordinates": [ 118.04984, 36.816285 ] } },
{ "type": "Feature", "properties": { "类别": "银行", "名称": "山东张店农村商业银行(营业部)", "经度": 118.057487, "纬度": 36.832725, "地址": "柳泉路256号", "类型": "金融保险服务;银行;农村商业银行|购物服务;购物相关场所;购物相关场所", "省": "山东省", "市": "淄博市", "区县": "张店区", "经度_wgs84": 118.056812, "纬度_wgs84": 36.827832, "一级分类": "金融" }, "geometry": { "type": "Point", "coordinates": [ 118.056812, 36.827832 ] } },
{ "type": "Feature", "properties": { "类别": "银行", "名称": "中国银行(淄博分行)", "经度": 118.051486, "纬度": 36.815622, "地址": "柳泉路49号中银大厦", "类型": "金融保险服务;银行;中国银行", "省": "山东省", "市": "淄博市", "区县": "张店区", "经度_wgs84": 118.05084, "纬度_wgs84": 36.810738, "一级分类": "金融" }, "geometry": { "type": "Point", "coordinates": [ 118.05084, 36.810738 ] } },
{ "type": "Feature", "properties": { "类别": "银行", "名称": "招商银行(淄博分行营业部)", "经度": 118.050056, "纬度": 36.814129, "地址": "人民西路12号甲1号", "类型": "金融保险服务;银行;招商银行", "省": "山东省", "市": "淄博市", "区县": "张店区", "经度_wgs84": 118.049415, "纬度_wgs84": 36.809248, "一级分类": "金融" }, "geometry": { "type": "Point", "coordinates": [ 118.049415, 36.809248 ] } },
{ "type": "Feature", "properties": { "类别": "银行", "名称": "中国建设银行(淄博西城支行)", "经度": 117.999292, "纬度": 36.830662, "地址": "联通路290号", "类型": "金融保险服务;银行;中国建设银行", "省": "山东省", "市": "淄博市", "区县": "张店区", "经度_wgs84": 117.998808, "纬度_wgs84": 36.825896, "一级分类": "金融" }, "geometry": { "type": "Point", "coordinates": [ 117.998808, 36.825896 ] } },
{ "type": "Feature", "properties": { "类别": "银行", "名称": "青岛银行(淄博分行)", "经度": 118.005473, "纬度": 36.830409, "地址": "联通路266号", "类型": "金融保险服务;银行;银行", "省": "山东省", "市": "淄博市", "区县": "张店区", "经度_wgs84": 118.004966, "纬度_wgs84": 36.825627, "一级分类": "金融" }, "geometry": { "type": "Point", "coordinates": [ 118.004966, 36.825627 ] } },
{ "type": "Feature", "properties": { "类别": "银行", "名称": "中信银行(淄博分行)", "经度": 118.054694, "纬度": 36.823486, "地址": "柳泉路230号中信大厦F1层", "类型": "金融保险服务;银行;中信银行", "省": "山东省", "市": "淄博市", "区县": "张店区", "经度_wgs84": 118.054034, "纬度_wgs84": 36.818597, "一级分类": "金融" }, "geometry": { "type": "Point", "coordinates": [ 118.054034, 36.818597 ] } },
{ "type": "Feature", "properties": { "类别": "银行", "名称": "齐商银行(高新区支行营业室)", "经度": 118.061078, "纬度": 36.85405, "地址": "柳泉路121路上城名府7号楼", "类型": "金融保险服务;银行;银行", "省": "山东省", "市": "淄博市", "区县": "张店区", "经度_wgs84": 118.060376, "纬度_wgs84": 36.849152, "一级分类": "金融" }, "geometry": { "type": "Point", "coordinates": [ 118.060376, 36.849152 ] } },
{ "type": "Feature", "properties": { "类别": "银行", "名称": "兴业银行(淄博分行)", "经度": 118.027963, "纬度": 36.84825, "地址": "淄博市高新区世纪路218号医药创新中心A综合楼101、201号", "类型": "金融保险服务;银行;兴业银行", "省": "山东省", "市": "淄博市", "区县": "张店区", "经度_wgs84": 118.027359, "纬度_wgs84": 36.843411, "一级分类": "金融" }, "geometry": { "type": "Point", "coordinates": [ 118.027359, 36.843411 ] } },
{ "type": "Feature", "properties": { "类别": "银行", "名称": "招商银行(淄博高新区支行)", "经度": 118.045891, "纬度": 36.847872, "地址": "鲁泰大道51号高分子创新园B座一楼东南角", "类型": "金融保险服务;银行;招商银行", "省": "山东省", "市": "淄博市", "区县": "张店区", "经度_wgs84": 118.045232, "纬度_wgs84": 36.842997, "一级分类": "金融" }, "geometry": { "type": "Point", "coordinates": [ 118.045232, 36.842997 ] } },
{ "type": "Feature", "properties": { "类别": "银行", "名称": "中国工商银行(淄博高新支行营业室)", "经度": 118.059253, "纬度": 36.84133, "地址": "高新区柳泉路268号", "类型": "金融保险服务;银行;中国工商银行", "省": "山东省", "市": "淄博市", "区县": "张店区", "经度_wgs84": 118.058567, "纬度_wgs84": 36.836434, "一级分类": "金融" }, "geometry": { "type": "Point", "coordinates": [ 118.058567, 36.836434 ] } },
{ "type": "Feature", "properties": { "类别": "银行", "名称": "威海银行(淄博分行)", "经度": 118.004672, "纬度": 36.804277, "地址": "金誉花园西邻", "类型": "金融保险服务;银行;银行", "省": "山东省", "市": "淄博市", "区县": "张店区", "经度_wgs84": 118.004191, "纬度_wgs84": 36.799497, "一级分类": "金融" }, "geometry": { "type": "Point", "coordinates": [ 118.004191, 36.799497 ] } },
{ "type": "Feature", "properties": { "类别": "银行", "名称": "中国银行(淄博北京路支行)", "经度": 117.994253, "纬度": 36.82556, "地址": "北京路33号甲2号", "类型": "金融保险服务;银行;中国银行", "省": "山东省", "市": "淄博市", "区县": "张店区", "经度_wgs84": 117.993793, "纬度_wgs84": 36.820807, "一级分类": "金融" }, "geometry": { "type": "Point", "coordinates": [ 117.993793, 36.820807 ] } },
{ "type": "Feature", "properties": { "类别": "银行", "名称": "交通银行(淄博分行)", "经度": 118.061172, "纬度": 36.805371, "地址": "金晶大道100号", "类型": "金融保险服务;银行;交通银行", "省": "山东省", "市": "淄博市", "区县": "张店区", "经度_wgs84": 118.060513, "纬度_wgs84": 36.800474, "一级分类": "金融" }, "geometry": { "type": "Point", "coordinates": [ 118.060513, 36.800474 ] } },
{ "type": "Feature", "properties": { "类别": "银行", "名称": "平安银行(淄博分行营业部)", "经度": 118.03173, "纬度": 36.838982, "地址": "高新技术开发区中润大道1号中润华侨城综合楼", "类型": "金融保险服务;银行;平安银行", "省": "山东省", "市": "淄博市", "区县": "张店区", "经度_wgs84": 118.031121, "纬度_wgs84": 36.834135, "一级分类": "金融" }, "geometry": { "type": "Point", "coordinates": [ 118.031121, 36.834135 ] } },
{ "type": "Feature", "properties": { "类别": "银行", "名称": "中国农业发展银行(淄博市分行)", "经度": 118.057201, "纬度": 36.843841, "地址": "高新区万杰路113号", "类型": "金融保险服务;银行;银行", "省": "山东省", "市": "淄博市", "区县": "张店区", "经度_wgs84": 118.056517, "纬度_wgs84": 36.838948, "一级分类": "金融" }, "geometry": { "type": "Point", "coordinates": [ 118.056517, 36.838948 ] } },
{ "type": "Feature", "properties": { "类别": "银行", "名称": "中国农业银行(淄博高新技术产业开发区支行营业部)", "经度": 118.061012, "纬度": 36.848084, "地址": "鲁泰大道99号汇金大厦西裙楼1层", "类型": "金融保险服务;银行;中国农业银行", "省": "山东省", "市": "淄博市", "区县": "张店区", "经度_wgs84": 118.060316, "纬度_wgs84": 36.843186, "一级分类": "金融" }, "geometry": { "type": "Point", "coordinates": [ 118.060316, 36.843186 ] } },
{ "type": "Feature", "properties": { "类别": "银行", "名称": "中国银行(淄博张店支行)", "经度": 118.041443, "纬度": 36.800945, "地址": "新村西路99号东方商务F1层", "类型": "金融保险服务;银行;中国银行", "省": "山东省", "市": "淄博市", "区县": "张店区", "经度_wgs84": 118.040838, "纬度_wgs84": 36.796079, "一级分类": "金融" }, "geometry": { "type": "Point", "coordinates": [ 118.040838, 36.796079 ] } },
{ "type": "Feature", "properties": { "类别": "银行", "名称": "中国光大银行(淄博分行)", "经度": 118.056332, "纬度": 36.835226, "地址": "柳泉路107号国贸大厦1层", "类型": "金融保险服务;银行;中国光大银行", "省": "山东省", "市": "淄博市", "区县": "张店区", "经度_wgs84": 118.055658, "纬度_wgs84": 36.830334, "一级分类": "金融" }, "geometry": { "type": "Point", "coordinates": [ 118.055658, 36.830334 ] } },
{ "type": "Feature", "properties": { "类别": "银行", "名称": "恒丰银行(淄博分行)", "经度": 118.044828, "纬度": 36.847881, "地址": "鲁泰大道51号高分子材料创新园A座一楼", "类型": "金融保险服务;银行;银行", "省": "山东省", "市": "淄博市", "区县": "张店区", "经度_wgs84": 118.044172, "纬度_wgs84": 36.843008, "一级分类": "金融" }, "geometry": { "type": "Point", "coordinates": [ 118.044172, 36.843008 ] } },
{ "type": "Feature", "properties": { "类别": "银行", "名称": "上海浦东发展银行(淄博分行)", "经度": 118.051127, "纬度": 36.814154, "地址": "柳泉路45号甲3号", "类型": "金融保险服务;银行;上海浦东发展银行", "省": "山东省", "市": "淄博市", "区县": "张店区", "经度_wgs84": 118.050484, "纬度_wgs84": 36.809271, "一级分类": "金融" }, "geometry": { "type": "Point", "coordinates": [ 118.050484, 36.809271 ] } },
{ "type": "Feature", "properties": { "类别": "银行", "名称": "齐鲁银行淄博分行", "经度": 117.993375, "纬度": 36.822825, "地址": "北北京路29号", "类型": "金融保险服务;银行;银行", "省": "山东省", "市": "淄博市", "区县": "张店区", "经度_wgs84": 117.99292, "纬度_wgs84": 36.818074, "一级分类": "金融" }, "geometry": { "type": "Point", "coordinates": [ 117.99292, 36.818074 ] } },
{ "type": "Feature", "properties": { "类别": "银行", "名称": "招商银行(淄博西城支行)", "经度": 117.991785, "纬度": 36.817392, "地址": "人民西路222号中德大厦102", "类型": "金融保险服务;银行;招商银行", "省": "山东省", "市": "淄博市", "区县": "张店区", "经度_wgs84": 117.991341, "纬度_wgs84": 36.812646, "一级分类": "金融" }, "geometry": { "type": "Point", "coordinates": [ 117.991341, 36.812646 ] } },
{ "type": "Feature", "properties": { "类别": "银行", "名称": "中国银行(淄博西五路支行)", "经度": 118.037363, "纬度": 36.835255, "地址": "中润大道与西五路交汇处(荷香园办公楼1层)", "类型": "金融保险服务;银行;中国银行", "省": "山东省", "市": "淄博市", "区县": "张店区", "经度_wgs84": 118.03674, "纬度_wgs84": 36.830396, "一级分类": "金融" }, "geometry": { "type": "Point", "coordinates": [ 118.03674, 36.830396 ] } },
{ "type": "Feature", "properties": { "类别": "银行", "名称": "中国工商银行(张店北京路支行)", "经度": 117.993467, "纬度": 36.820621, "地址": "北京路中欧国际大厦一层11、12号", "类型": "金融保险服务;银行;中国工商银行", "省": "山东省", "市": "淄博市", "区县": "张店区", "经度_wgs84": 117.993014, "纬度_wgs84": 36.81587, "一级分类": "金融" }, "geometry": { "type": "Point", "coordinates": [ 117.993014, 36.81587 ] } },
{ "type": "Feature", "properties": { "类别": "银行", "名称": "中国银行(淄博齐盛支行)", "经度": 117.996027, "纬度": 36.84445, "地址": "北北京路77号百合花园玉兰园1号楼-3", "类型": "金融保险服务;银行;中国银行", "省": "山东省", "市": "淄博市", "区县": "张店区", "经度_wgs84": 117.995543, "纬度_wgs84": 36.839692, "一级分类": "金融" }, "geometry": { "type": "Point", "coordinates": [ 117.995543, 36.839692 ] } },
{ "type": "Feature", "properties": { "类别": "银行", "名称": "中国建设银行(淄博植物园支行)", "经度": 118.030294, "纬度": 36.789618, "地址": "王舍路235号", "类型": "金融保险服务;银行;中国建设银行", "省": "山东省", "市": "淄博市", "区县": "张店区", "经度_wgs84": 118.029733, "纬度_wgs84": 36.784776, "一级分类": "金融" }, "geometry": { "type": "Point", "coordinates": [ 118.029733, 36.784776 ] } },
{ "type": "Feature", "properties": { "类别": "银行", "名称": "中国银行(淄博西城支行)", "经度": 118.025931, "纬度": 36.814661, "地址": "人民路与世纪路交叉口富尔玛家居广场1楼", "类型": "金融保险服务;银行;中国银行", "省": "山东省", "市": "淄博市", "区县": "张店区", "经度_wgs84": 118.025363, "纬度_wgs84": 36.809828, "一级分类": "金融" }, "geometry": { "type": "Point", "coordinates": [ 118.025363, 36.809828 ] } },
{ "type": "Feature", "properties": { "类别": "银行", "名称": "渤海银行(淄博分行)", "经度": 118.031609, "纬度": 36.822191, "地址": "华光路和北西六路交汇处黄金1号公馆", "类型": "金融保险服务;银行;银行", "省": "山东省", "市": "淄博市", "区县": "张店区", "经度_wgs84": 118.031016, "纬度_wgs84": 36.817345, "一级分类": "金融" }, "geometry": { "type": "Point", "coordinates": [ 118.031016, 36.817345 ] } },
{ "type": "Feature", "properties": { "类别": "银行", "名称": "中国银行(新村西路支行)", "经度": 118.014888, "纬度": 36.803372, "地址": "马尚镇新村西路大学生创业园A座一层", "类型": "金融保险服务;银行;中国银行", "省": "山东省", "市": "淄博市", "区县": "张店区", "经度_wgs84": 118.01437, "纬度_wgs84": 36.798566, "一级分类": "金融" }, "geometry": { "type": "Point", "coordinates": [ 118.01437, 36.798566 ] } },
{ "type": "Feature", "properties": { "类别": "银行", "名称": "齐商银行(淄博支行)", "经度": 118.058019, "纬度": 36.842258, "地址": "柳泉路115号金达大厦C座", "类型": "金融保险服务;银行;银行", "省": "山东省", "市": "淄博市", "区县": "张店区", "经度_wgs84": 118.057335, "纬度_wgs84": 36.837364, "一级分类": "金融" }, "geometry": { "type": "Point", "coordinates": [ 118.057335, 36.837364 ] } },
{ "type": "Feature", "properties": { "类别": "银行", "名称": "中国建设银行(共青团东路支行)", "经度": 118.061887, "纬度": 36.804504, "地址": "共青团东路6号甲1号", "类型": "金融保险服务;银行;中国建设银行", "省": "山东省", "市": "淄博市", "区县": "张店区", "经度_wgs84": 118.061228, "纬度_wgs84": 36.799606, "一级分类": "金融" }, "geometry": { "type": "Point", "coordinates": [ 118.061228, 36.799606 ] } },
{ "type": "Feature", "properties": { "类别": "银行", "名称": "中信银行(淄博高新支行)", "经度": 118.031427, "纬度": 36.837882, "地址": "中润大道33号", "类型": "金融保险服务;银行;中信银行", "省": "山东省", "市": "淄博市", "区县": "张店区", "经度_wgs84": 118.03082, "纬度_wgs84": 36.833036, "一级分类": "金融" }, "geometry": { "type": "Point", "coordinates": [ 118.03082, 36.833036 ] } },
{ "type": "Feature", "properties": { "类别": "银行", "名称": "中国工商银行淄博张店和平路支行", "经度": 117.992025, "纬度": 36.799475, "地址": "淄博市张店区和平路169号甲8商铺", "类型": "金融保险服务;银行;中国工商银行", "省": "山东省", "市": "淄博市", "区县": "张店区", "经度_wgs84": 117.991596, "纬度_wgs84": 36.794729, "一级分类": "金融" }, "geometry": { "type": "Point", "coordinates": [ 117.991596, 36.794729 ] } },
{ "type": "Feature", "properties": { "类别": "银行", "名称": "兴业银行淄博柳泉路社区支行", "经度": 118.056034, "纬度": 36.833281, "地址": "柳泉路103号", "类型": "金融保险服务;银行;兴业银行", "省": "山东省", "市": "淄博市", "区县": "张店区", "经度_wgs84": 118.055362, "纬度_wgs84": 36.82839, "一级分类": "金融" }, "geometry": { "type": "Point", "coordinates": [ 118.055362, 36.82839 ] } },
{ "type": "Feature", "properties": { "类别": "银行", "名称": "齐商银行(经开区支行)", "经度": 118.013164, "纬度": 36.791468, "地址": "王舍路生态环境管理服务中心1楼", "类型": "金融保险服务;银行;银行", "省": "山东省", "市": "淄博市", "区县": "张店区", "经度_wgs84": 118.012662, "纬度_wgs84": 36.786667, "一级分类": "金融" }, "geometry": { "type": "Point", "coordinates": [ 118.012662, 36.786667 ] } },
{ "type": "Feature", "properties": { "类别": "银行", "名称": "中国建设银行(学府支行)", "经度": 118.012343, "纬度": 36.810248, "地址": "南京路11号", "类型": "金融保险服务;银行;中国建设银行", "省": "山东省", "市": "淄博市", "区县": "张店区", "经度_wgs84": 118.011828, "纬度_wgs84": 36.805449, "一级分类": "金融" }, "geometry": { "type": "Point", "coordinates": [ 118.011828, 36.805449 ] } },
{ "type": "Feature", "properties": { "类别": "银行", "名称": "济宁银行(淄博分行)", "经度": 118.011365, "纬度": 36.826343, "地址": "南京路宏程国际广场济宁银行", "类型": "金融保险服务;银行;银行", "省": "山东省", "市": "淄博市", "区县": "张店区", "经度_wgs84": 118.010839, "纬度_wgs84": 36.821546, "一级分类": "金融" }, "geometry": { "type": "Point", "coordinates": [ 118.010839, 36.821546 ] } },
{ "type": "Feature", "properties": { "类别": "银行", "名称": "青岛银行(淄博高新支行)", "经度": 118.036013, "纬度": 36.837675, "地址": "张店区高新区中润大道39号", "类型": "金融保险服务;银行;银行", "省": "山东省", "市": "淄博市", "区县": "张店区", "经度_wgs84": 118.035392, "纬度_wgs84": 36.832819, "一级分类": "金融" }, "geometry": { "type": "Point", "coordinates": [ 118.035392, 36.832819 ] } },
{ "type": "Feature", "properties": { "类别": "银行", "名称": "齐商银行(鲁中支行营业室)", "经度": 118.045369, "纬度": 36.801369, "地址": "新村西路142号", "类型": "金融保险服务;银行;银行", "省": "山东省", "市": "淄博市", "区县": "张店区", "经度_wgs84": 118.044752, "纬度_wgs84": 36.796496, "一级分类": "金融" }, "geometry": { "type": "Point", "coordinates": [ 118.044752, 36.796496 ] } },
{ "type": "Feature", "properties": { "类别": "银行", "名称": "中国工商银行(南京路支行)", "经度": 118.015295, "纬度": 36.830016, "地址": "南京路与联通路交叉口淄博住房公积金中心办公大楼东侧", "类型": "金融保险服务;银行;中国工商银行", "省": "山东省", "市": "淄博市", "区县": "张店区", "经度_wgs84": 118.014752, "纬度_wgs84": 36.825208, "一级分类": "金融" }, "geometry": { "type": "Point", "coordinates": [ 118.014752, 36.825208 ] } },
{ "type": "Feature", "properties": { "类别": "银行", "名称": "中国建设银行(张店支行营业室)", "经度": 118.048228, "纬度": 36.806518, "地址": "共青团路95号钻石商务大厦9层西半层", "类型": "金融保险服务;银行;中国建设银行", "省": "山东省", "市": "淄博市", "区县": "张店区", "经度_wgs84": 118.047599, "纬度_wgs84": 36.80164, "一级分类": "金融" }, "geometry": { "type": "Point", "coordinates": [ 118.047599, 36.80164 ] } },
{ "type": "Feature", "properties": { "类别": "银行", "名称": "中国农业银行(淄博湖田分理处)", "经度": 118.125782, "纬度": 36.789846, "地址": "湖田镇湖光路17号", "类型": "金融保险服务;银行;中国农业银行", "省": "山东省", "市": "淄博市", "区县": "张店区", "经度_wgs84": 118.125118, "纬度_wgs84": 36.784962, "一级分类": "金融" }, "geometry": { "type": "Point", "coordinates": [ 118.125118, 36.784962 ] } },
{ "type": "Feature", "properties": { "类别": "银行", "名称": "中国银行(淄博金晶大道支行)", "经度": 118.05945, "纬度": 36.797797, "地址": "新村东路2号", "类型": "金融保险服务;银行;中国银行", "省": "山东省", "市": "淄博市", "区县": "张店区", "经度_wgs84": 118.058802, "纬度_wgs84": 36.792902, "一级分类": "金融" }, "geometry": { "type": "Point", "coordinates": [ 118.058802, 36.792902 ] } },
{ "type": "Feature", "properties": { "类别": "银行", "名称": "中国银行(淄博经济开发区支行)", "经度": 118.046681, "纬度": 36.749524, "地址": "南定镇张南路13号", "类型": "金融保险服务;银行;中国银行", "省": "山东省", "市": "淄博市", "区县": "张店区", "经度_wgs84": 118.046105, "纬度_wgs84": 36.74465, "一级分类": "金融" }, "geometry": { "type": "Point", "coordinates": [ 118.046105, 36.74465 ] } },
{ "type": "Feature", "properties": { "类别": "银行", "名称": "中国建设银行(淄博南京路支行)", "经度": 118.014253, "纬度": 36.830012, "地址": "联通路190号", "类型": "金融保险服务;银行;中国建设银行", "省": "山东省", "市": "淄博市", "区县": "张店区", "经度_wgs84": 118.013713, "纬度_wgs84": 36.825207, "一级分类": "金融" }, "geometry": { "type": "Point", "coordinates": [ 118.013713, 36.825207 ] } },
{ "type": "Feature", "properties": { "类别": "银行", "名称": "中国农业银行股份有限公司淄博盛湖路支行", "经度": 117.997802, "纬度": 36.844273, "地址": "北京路与盛湖路交叉路口东北角盛湖大厦一楼", "类型": "金融保险服务;银行;中国农业银行", "省": "山东省", "市": "淄博市", "区县": "张店区", "经度_wgs84": 117.997312, "纬度_wgs84": 36.83951, "一级分类": "金融" }, "geometry": { "type": "Point", "coordinates": [ 117.997312, 36.83951 ] } },
{ "type": "Feature", "properties": { "类别": "银行", "名称": "齐商银行(张店支行营业室)", "经度": 118.061823, "纬度": 36.808142, "地址": "金晶大道130号", "类型": "金融保险服务;银行;银行", "省": "山东省", "市": "淄博市", "区县": "张店区", "经度_wgs84": 118.061161, "纬度_wgs84": 36.803244, "一级分类": "金融" }, "geometry": { "type": "Point", "coordinates": [ 118.061161, 36.803244 ] } },
{ "type": "Feature", "properties": { "类别": "银行", "名称": "中国工商银行(张店理工大学支行)", "经度": 118.006335, "纬度": 36.816142, "地址": "人民西路石村南巷水晶街H座一层", "类型": "金融保险服务;银行;中国工商银行", "省": "山东省", "市": "淄博市", "区县": "张店区", "经度_wgs84": 118.005837, "纬度_wgs84": 36.811358, "一级分类": "金融" }, "geometry": { "type": "Point", "coordinates": [ 118.005837, 36.811358 ] } },
{ "type": "Feature", "properties": { "类别": "银行", "名称": "齐商银行(世纪路支行)", "经度": 118.025867, "纬度": 36.8133, "地址": "世纪路106号", "类型": "金融保险服务;银行;银行", "省": "山东省", "市": "淄博市", "区县": "张店区", "经度_wgs84": 118.025301, "纬度_wgs84": 36.808467, "一级分类": "金融" }, "geometry": { "type": "Point", "coordinates": [ 118.025301, 36.808467 ] } },
{ "type": "Feature", "properties": { "类别": "银行", "名称": "中国工商银行(王舍支行)", "经度": 118.033401, "纬度": 36.789286, "地址": "南西五路40号", "类型": "金融保险服务;银行;中国工商银行", "省": "山东省", "市": "淄博市", "区县": "张店区", "经度_wgs84": 118.032831, "纬度_wgs84": 36.784437, "一级分类": "金融" }, "geometry": { "type": "Point", "coordinates": [ 118.032831, 36.784437 ] } },
{ "type": "Feature", "properties": { "类别": "银行", "名称": "中国工商银行(华侨城支行)", "经度": 118.032373, "纬度": 36.846553, "地址": "高新区中润华侨城北商业楼6号7", "类型": "金融保险服务;银行;中国工商银行", "省": "山东省", "市": "淄博市", "区县": "张店区", "经度_wgs84": 118.031756, "纬度_wgs84": 36.841705, "一级分类": "金融" }, "geometry": { "type": "Point", "coordinates": [ 118.031756, 36.841705 ] } },
{ "type": "Feature", "properties": { "类别": "银行", "名称": "中国农业银行(淄博天津路支行)", "经度": 117.971116, "纬度": 36.827547, "地址": "天津路和汇英路交叉路口西100米", "类型": "金融保险服务;银行;中国农业银行", "省": "山东省", "市": "淄博市", "区县": "张店区", "经度_wgs84": 117.970737, "纬度_wgs84": 36.822851, "一级分类": "金融" }, "geometry": { "type": "Point", "coordinates": [ 117.970737, 36.822851 ] } },
{ "type": "Feature", "properties": { "类别": "银行", "名称": "齐商银行(盛湖支行)", "经度": 118.002083, "纬度": 36.844188, "地址": "盛湖路与丰泰路交叉口东北80米", "类型": "金融保险服务;银行;银行", "省": "山东省", "市": "淄博市", "区县": "张店区", "经度_wgs84": 118.001576, "纬度_wgs84": 36.839414, "一级分类": "金融" }, "geometry": { "type": "Point", "coordinates": [ 118.001576, 36.839414 ] } },
{ "type": "Feature", "properties": { "类别": "银行", "名称": "中国邮政储蓄银行(淄博市张店区支行)", "经度": 118.004158, "纬度": 36.816305, "地址": "重庆路与人民西路交叉口水晶街F-07号", "类型": "金融保险服务;银行;中国邮政储蓄银行", "省": "山东省", "市": "淄博市", "区县": "张店区", "经度_wgs84": 118.003668, "纬度_wgs84": 36.811526, "一级分类": "金融" }, "geometry": { "type": "Point", "coordinates": [ 118.003668, 36.811526 ] } },
{ "type": "Feature", "properties": { "类别": "银行", "名称": "中国工商银行(人民西路支行)", "经度": 118.034348, "纬度": 36.813874, "地址": "人民西路43号甲1号", "类型": "金融保险服务;银行;中国工商银行", "省": "山东省", "市": "淄博市", "区县": "张店区", "经度_wgs84": 118.033753, "纬度_wgs84": 36.809022, "一级分类": "金融" }, "geometry": { "type": "Point", "coordinates": [ 118.033753, 36.809022 ] } },
{ "type": "Feature", "properties": { "类别": "银行", "名称": "中国农业银行(淄博马尚支行)", "经度": 118.031756, "纬度": 36.808476, "地址": "共青团西路120号(时代大厦1层)", "类型": "金融保险服务;银行;中国农业银行", "省": "山东省", "市": "淄博市", "区县": "张店区", "经度_wgs84": 118.031174, "纬度_wgs84": 36.80363, "一级分类": "金融" }, "geometry": { "type": "Point", "coordinates": [ 118.031174, 36.80363 ] } },
{ "type": "Feature", "properties": { "类别": "银行", "名称": "齐商银行(中心路支行)", "经度": 118.057853, "纬度": 36.794566, "地址": "中心路39号", "类型": "金融保险服务;银行;银行", "省": "山东省", "市": "淄博市", "区县": "张店区", "经度_wgs84": 118.057211, "纬度_wgs84": 36.789673, "一级分类": "金融" }, "geometry": { "type": "Point", "coordinates": [ 118.057211, 36.789673 ] } },
{ "type": "Feature", "properties": { "类别": "银行", "名称": "交通银行(淄博经济开发区支行)", "经度": 118.034982, "纬度": 36.761225, "地址": "山泉路221甲22号1层、23号1-2层", "类型": "金融保险服务;银行;交通银行", "省": "山东省", "市": "淄博市", "区县": "张店区", "经度_wgs84": 118.034431, "纬度_wgs84": 36.756373, "一级分类": "金融" }, "geometry": { "type": "Point", "coordinates": [ 118.034431, 36.756373 ] } },
{ "type": "Feature", "properties": { "类别": "银行", "名称": "齐商银行(开发支行)", "经度": 118.054975, "纬度": 36.829783, "地址": "柳泉路97号", "类型": "金融保险服务;银行;银行", "省": "山东省", "市": "淄博市", "区县": "张店区", "经度_wgs84": 118.054309, "纬度_wgs84": 36.824893, "一级分类": "金融" }, "geometry": { "type": "Point", "coordinates": [ 118.054309, 36.824893 ] } },
{ "type": "Feature", "properties": { "类别": "银行", "名称": "中国建设银行(淄博翡翠书院支行)", "经度": 118.009128, "纬度": 36.841076, "地址": "盛湖路111号翡翠书院24号楼101号-105号", "类型": "金融保险服务;银行;中国建设银行", "省": "山东省", "市": "淄博市", "区县": "张店区", "经度_wgs84": 118.008598, "纬度_wgs84": 36.836284, "一级分类": "金融" }, "geometry": { "type": "Point", "coordinates": [ 118.008598, 36.836284 ] } },
{ "type": "Feature", "properties": { "类别": "银行", "名称": "中国建设银行(淄博华光路支行)", "经度": 118.047017, "纬度": 36.821203, "地址": "华光路68号甲16号", "类型": "金融保险服务;银行;中国建设银行", "省": "山东省", "市": "淄博市", "区县": "张店区", "经度_wgs84": 118.046378, "纬度_wgs84": 36.816326, "一级分类": "金融" }, "geometry": { "type": "Point", "coordinates": [ 118.046378, 36.816326 ] } },
{ "type": "Feature", "properties": { "类别": "银行", "名称": "中国银行(淄博王舍路支行)", "经度": 118.029545, "纬度": 36.789493, "地址": "王舍路237号国华大厦F1层", "类型": "金融保险服务;银行;中国银行", "省": "山东省", "市": "淄博市", "区县": "张店区", "经度_wgs84": 118.028987, "纬度_wgs84": 36.784653, "一级分类": "金融" }, "geometry": { "type": "Point", "coordinates": [ 118.028987, 36.784653 ] } },
{ "type": "Feature", "properties": { "类别": "银行", "名称": "齐商银行(世纪花园支行)", "经度": 118.016356, "纬度": 36.830052, "地址": "联通路166号", "类型": "金融保险服务;银行;银行", "省": "山东省", "市": "淄博市", "区县": "张店区", "经度_wgs84": 118.015809, "纬度_wgs84": 36.825242, "一级分类": "金融" }, "geometry": { "type": "Point", "coordinates": [ 118.015809, 36.825242 ] } },
{ "type": "Feature", "properties": { "类别": "银行", "名称": "齐商银行(城西支行)", "经度": 117.999133, "纬度": 36.816601, "地址": "人民西路188号钱裕园小区甲1号楼", "类型": "金融保险服务;银行;银行", "省": "山东省", "市": "淄博市", "区县": "张店区", "经度_wgs84": 117.998662, "纬度_wgs84": 36.811836, "一级分类": "金融" }, "geometry": { "type": "Point", "coordinates": [ 117.998662, 36.811836 ] } },
{ "type": "Feature", "properties": { "类别": "银行", "名称": "中国农业银行(建筑陶瓷城支行)", "经度": 118.019237, "纬度": 36.785456, "地址": "昌国路105号", "类型": "金融保险服务;银行;中国农业银行", "省": "山东省", "市": "淄博市", "区县": "张店区", "经度_wgs84": 118.018718, "纬度_wgs84": 36.78064, "一级分类": "金融" }, "geometry": { "type": "Point", "coordinates": [ 118.018718, 36.78064 ] } },
{ "type": "Feature", "properties": { "类别": "银行", "名称": "东营银行(淄博分行)", "经度": 118.063547, "纬度": 36.819139, "地址": "华光路28号云龙国际A座F1层", "类型": "金融保险服务;银行;银行", "省": "山东省", "市": "淄博市", "区县": "张店区", "经度_wgs84": 118.062872, "纬度_wgs84": 36.814239, "一级分类": "金融" }, "geometry": { "type": "Point", "coordinates": [ 118.062872, 36.814239 ] } },
{ "type": "Feature", "properties": { "类别": "银行", "名称": "恒丰银行(淄博张店支行)", "经度": 118.061192, "纬度": 36.809171, "地址": "金晶大道187甲26号-29号", "类型": "金融保险服务;银行;银行", "省": "山东省", "市": "淄博市", "区县": "张店区", "经度_wgs84": 118.06053, "纬度_wgs84": 36.804274, "一级分类": "金融" }, "geometry": { "type": "Point", "coordinates": [ 118.06053, 36.804274 ] } },
{ "type": "Feature", "properties": { "类别": "银行", "名称": "交通银行(淄博张店支行)", "经度": 117.991548, "纬度": 36.817434, "地址": "人民西路222号中德国际大厦1层", "类型": "金融保险服务;银行;交通银行", "省": "山东省", "市": "淄博市", "区县": "张店区", "经度_wgs84": 117.991105, "纬度_wgs84": 36.812688, "一级分类": "金融" }, "geometry": { "type": "Point", "coordinates": [ 117.991105, 36.812688 ] } },
{ "type": "Feature", "properties": { "类别": "银行", "名称": "中国农业银行(淄博中心路分理处)", "经度": 118.059504, "纬度": 36.798483, "地址": "金晶大道44号甲7号温州大厦青年家园F1层", "类型": "金融保险服务;银行;中国农业银行", "省": "山东省", "市": "淄博市", "区县": "张店区", "经度_wgs84": 118.058855, "纬度_wgs84": 36.793588, "一级分类": "金融" }, "geometry": { "type": "Point", "coordinates": [ 118.058855, 36.793588 ] } },
{ "type": "Feature", "properties": { "类别": "银行", "名称": "齐商银行(新城区支行营业部)", "经度": 118.019987, "纬度": 36.803111, "地址": "新村西路177号汇美大厦F1层", "类型": "金融保险服务;银行;银行", "省": "山东省", "市": "淄博市", "区县": "张店区", "经度_wgs84": 118.01945, "纬度_wgs84": 36.798293, "一级分类": "金融" }, "geometry": { "type": "Point", "coordinates": [ 118.01945, 36.798293 ] } },
{ "type": "Feature", "properties": { "类别": "银行", "名称": "交通银行(淄博高新区支行)", "经度": 118.057148, "纬度": 36.840432, "地址": "柳泉路111号火炬广场102", "类型": "金融保险服务;银行;交通银行", "省": "山东省", "市": "淄博市", "区县": "张店区", "经度_wgs84": 118.056467, "纬度_wgs84": 36.835539, "一级分类": "金融" }, "geometry": { "type": "Point", "coordinates": [ 118.056467, 36.835539 ] } },
{ "type": "Feature", "properties": { "类别": "银行", "名称": "中国农业银行(北京路分理处)", "经度": 117.990746, "纬度": 36.820039, "地址": "宏程金融中心1楼心环东路2号", "类型": "金融保险服务;银行;中国农业银行", "省": "山东省", "市": "淄博市", "区县": "张店区", "经度_wgs84": 117.990304, "纬度_wgs84": 36.815295, "一级分类": "金融" }, "geometry": { "type": "Point", "coordinates": [ 117.990304, 36.815295 ] } },
{ "type": "Feature", "properties": { "类别": "银行", "名称": "中国建设银行(淄博华侨城支行)", "经度": 118.027207, "纬度": 36.838426, "地址": "中润大道1号新玛特购物广场中润店F1层", "类型": "金融保险服务;银行;中国建设银行", "省": "山东省", "市": "淄博市", "区县": "张店区", "经度_wgs84": 118.026614, "纬度_wgs84": 36.833589, "一级分类": "金融" }, "geometry": { "type": "Point", "coordinates": [ 118.026614, 36.833589 ] } },
{ "type": "Feature", "properties": { "类别": "银行", "名称": "中国建设银行(淄博经济开发区支行)", "经度": 118.048475, "纬度": 36.757425, "地址": "花园路与青年公园路交叉口东北20米", "类型": "金融保险服务;银行;中国建设银行", "省": "山东省", "市": "淄博市", "区县": "张店区", "经度_wgs84": 118.047888, "纬度_wgs84": 36.752548, "一级分类": "金融" }, "geometry": { "type": "Point", "coordinates": [ 118.047888, 36.752548 ] } },
{ "type": "Feature", "properties": { "类别": "银行", "名称": "中国农业银行(丽景苑支行)", "经度": 118.037465, "纬度": 36.825341, "地址": "科苑街道北西五路38号甲4号", "类型": "金融保险服务;银行;中国农业银行", "省": "山东省", "市": "淄博市", "区县": "张店区", "经度_wgs84": 118.03685, "纬度_wgs84": 36.820482, "一级分类": "金融" }, "geometry": { "type": "Point", "coordinates": [ 118.03685, 36.820482 ] } },
{ "type": "Feature", "properties": { "类别": "银行", "名称": "中国邮政储蓄银行(淄博市分行)", "经度": 118.040738, "纬度": 36.821586, "地址": "华光路88号远通大厦F1层", "类型": "金融保险服务;银行;中国邮政储蓄银行", "省": "山东省", "市": "淄博市", "区县": "张店区", "经度_wgs84": 118.040117, "纬度_wgs84": 36.816721, "一级分类": "金融" }, "geometry": { "type": "Point", "coordinates": [ 118.040117, 36.816721 ] } },
{ "type": "Feature", "properties": { "类别": "银行", "名称": "济宁银行(淄博张店支行)", "经度": 118.042492, "纬度": 36.80264, "地址": "新村西路158号凤阳大厦附楼一楼", "类型": "金融保险服务;银行;银行", "省": "山东省", "市": "淄博市", "区县": "张店区", "经度_wgs84": 118.041882, "纬度_wgs84": 36.797772, "一级分类": "金融" }, "geometry": { "type": "Point", "coordinates": [ 118.041882, 36.797772 ] } },
{ "type": "Feature", "properties": { "类别": "银行", "名称": "中国工商银行(淄博经开区支行)", "经度": 118.045571, "纬度": 36.753603, "地址": "南定镇花园路23号", "类型": "金融保险服务;银行;中国工商银行", "省": "山东省", "市": "淄博市", "区县": "张店区", "经度_wgs84": 118.044995, "纬度_wgs84": 36.748731, "一级分类": "金融" }, "geometry": { "type": "Point", "coordinates": [ 118.044995, 36.748731 ] } },
{ "type": "Feature", "properties": { "类别": "银行", "名称": "中国建设银行(金晶大道支行)", "经度": 118.065378, "纬度": 36.818012, "地址": "金晶大道170号", "类型": "金融保险服务;银行;中国建设银行", "省": "山东省", "市": "淄博市", "区县": "张店区", "经度_wgs84": 118.0647, "纬度_wgs84": 36.81311, "一级分类": "金融" }, "geometry": { "type": "Point", "coordinates": [ 118.0647, 36.81311 ] } },
{ "type": "Feature", "properties": { "类别": "银行", "名称": "中国建设银行(淄博西七路支行)", "经度": 118.027461, "纬度": 36.808882, "地址": "共青团西路138号金茂大厦A座F1层", "类型": "金融保险服务;银行;中国建设银行", "省": "山东省", "市": "淄博市", "区县": "张店区", "经度_wgs84": 118.026893, "纬度_wgs84": 36.804046, "一级分类": "金融" }, "geometry": { "type": "Point", "coordinates": [ 118.026893, 36.804046 ] } },
{ "type": "Feature", "properties": { "类别": "银行", "名称": "中国工商银行(淄博张店体坛支行)", "经度": 118.032116, "纬度": 36.80306, "地址": "南西六路31号", "类型": "金融保险服务;银行;中国工商银行", "省": "山东省", "市": "淄博市", "区县": "张店区", "经度_wgs84": 118.031538, "纬度_wgs84": 36.798213, "一级分类": "金融" }, "geometry": { "type": "Point", "coordinates": [ 118.031538, 36.798213 ] } },
{ "type": "Feature", "properties": { "类别": "银行", "名称": "中国农业银行(淄博城西支行)", "经度": 117.999063, "纬度": 36.79888, "地址": "和平路131号甲4号", "类型": "金融保险服务;银行;中国农业银行", "省": "山东省", "市": "淄博市", "区县": "张店区", "经度_wgs84": 117.998608, "纬度_wgs84": 36.794115, "一级分类": "金融" }, "geometry": { "type": "Point", "coordinates": [ 117.998608, 36.794115 ] } },
{ "type": "Feature", "properties": { "类别": "银行", "名称": "中国农业银行(淄博名尚银泰支行)", "经度": 118.036586, "纬度": 36.848351, "地址": "鲁泰大道9号银泰·金街1F层", "类型": "金融保险服务;银行;中国农业银行", "省": "山东省", "市": "淄博市", "区县": "张店区", "经度_wgs84": 118.035954, "纬度_wgs84": 36.843494, "一级分类": "金融" }, "geometry": { "type": "Point", "coordinates": [ 118.035954, 36.843494 ] } },
{ "type": "Feature", "properties": { "类别": "银行", "名称": "中国农业银行(淄博理工大学支行)", "经度": 118.006127, "纬度": 36.811187, "地址": "张周路12号山东理工大学校内(博大花园淄博商厦超市旁)", "类型": "金融保险服务;银行;中国农业银行", "省": "山东省", "市": "淄博市", "区县": "张店区", "经度_wgs84": 118.005634, "纬度_wgs84": 36.806404, "一级分类": "金融" }, "geometry": { "type": "Point", "coordinates": [ 118.005634, 36.806404 ] } },
{ "type": "Feature", "properties": { "类别": "银行", "名称": "齐商银行(华侨城支行)", "经度": 118.033659, "纬度": 36.837805, "地址": "中润大道5号5号甲1号", "类型": "金融保险服务;银行;银行", "省": "山东省", "市": "淄博市", "区县": "张店区", "经度_wgs84": 118.033045, "纬度_wgs84": 36.832954, "一级分类": "金融" }, "geometry": { "type": "Point", "coordinates": [ 118.033045, 36.832954 ] } },
{ "type": "Feature", "properties": { "类别": "银行", "名称": "山东张店农村商业银行(世纪路支行)", "经度": 118.024128, "纬度": 36.808525, "地址": "共青团西路181号", "类型": "金融保险服务;银行;农村商业银行", "省": "山东省", "市": "淄博市", "区县": "张店区", "经度_wgs84": 118.023572, "纬度_wgs84": 36.803697, "一级分类": "金融" }, "geometry": { "type": "Point", "coordinates": [ 118.023572, 36.803697 ] } },
{ "type": "Feature", "properties": { "类别": "银行", "名称": "中国农业银行(淄博重庆路支行)", "经度": 118.004764, "纬度": 36.830453, "地址": "联通路266号", "类型": "金融保险服务;银行;中国农业银行", "省": "山东省", "市": "淄博市", "区县": "张店区", "经度_wgs84": 118.004259, "纬度_wgs84": 36.825673, "一级分类": "金融" }, "geometry": { "type": "Point", "coordinates": [ 118.004259, 36.825673 ] } },
{ "type": "Feature", "properties": { "类别": "银行", "名称": "兴业银行(张店支行)", "经度": 118.026103, "纬度": 36.785986, "地址": "首丰大厦南门旁", "类型": "金融保险服务;银行;兴业银行", "省": "山东省", "市": "淄博市", "区县": "张店区", "经度_wgs84": 118.02556, "纬度_wgs84": 36.781154, "一级分类": "金融" }, "geometry": { "type": "Point", "coordinates": [ 118.02556, 36.781154 ] } },
{ "type": "Feature", "properties": { "类别": "银行", "名称": "中国工商银行(淄博张店丽景苑支行)", "经度": 118.037318, "纬度": 36.824632, "地址": "马尚镇北西五路36号", "类型": "金融保险服务;银行;中国工商银行", "省": "山东省", "市": "淄博市", "区县": "张店区", "经度_wgs84": 118.036704, "纬度_wgs84": 36.819774, "一级分类": "金融" }, "geometry": { "type": "Point", "coordinates": [ 118.036704, 36.819774 ] } },
{ "type": "Feature", "properties": { "类别": "银行", "名称": "中国工商银行(淄博张店鑫城支行)", "经度": 118.016158, "纬度": 36.803244, "地址": "马尚街道新村西路179号鑫城中心C座1楼西首", "类型": "金融保险服务;银行;中国工商银行", "省": "山东省", "市": "淄博市", "区县": "张店区", "经度_wgs84": 118.015635, "纬度_wgs84": 36.798435, "一级分类": "金融" }, "geometry": { "type": "Point", "coordinates": [ 118.015635, 36.798435 ] } },
{ "type": "Feature", "properties": { "类别": "银行", "名称": "交通银行(淄博颐丰支行)", "经度": 118.001445, "纬度": 36.841483, "地址": "颐丰花园颐盛园21号楼5号一层", "类型": "金融保险服务;银行;交通银行", "省": "山东省", "市": "淄博市", "区县": "张店区", "经度_wgs84": 118.000943, "纬度_wgs84": 36.836711, "一级分类": "金融" }, "geometry": { "type": "Point", "coordinates": [ 118.000943, 36.836711 ] } },
{ "type": "Feature", "properties": { "类别": "银行", "名称": "中国银行股份有限公司淄博潘南东路支行", "经度": 118.078412, "纬度": 36.811882, "地址": "潘南东路19号甲6甲7甲8号甲9号", "类型": "金融保险服务;银行;中国银行", "省": "山东省", "市": "淄博市", "区县": "张店区", "经度_wgs84": 118.07772, "纬度_wgs84": 36.80697, "一级分类": "金融" }, "geometry": { "type": "Point", "coordinates": [ 118.07772, 36.80697 ] } },
{ "type": "Feature", "properties": { "类别": "银行", "名称": "中国工商银行(淄博高新丰悦支行)", "经度": 118.009708, "纬度": 36.841749, "地址": "丰悦路富力万达广场项目S2号沿街商用房(S107-109、S207-209)", "类型": "金融保险服务;银行;中国工商银行", "省": "山东省", "市": "淄博市", "区县": "张店区", "经度_wgs84": 118.009175, "纬度_wgs84": 36.836955, "一级分类": "金融" }, "geometry": { "type": "Point", "coordinates": [ 118.009175, 36.836955 ] } },
{ "type": "Feature", "properties": { "类别": "银行", "名称": "山东张店农村商业银行(新村西路支行)", "经度": 118.044794, "纬度": 36.801424, "地址": "新村西路150号甲1号", "类型": "金融保险服务;银行;农村商业银行", "省": "山东省", "市": "淄博市", "区县": "张店区", "经度_wgs84": 118.044179, "纬度_wgs84": 36.796552, "一级分类": "金融" }, "geometry": { "type": "Point", "coordinates": [ 118.044179, 36.796552 ] } },
{ "type": "Feature", "properties": { "类别": "银行", "名称": "交通银行(淄博体育馆支行)", "经度": 118.028238, "纬度": 36.803144, "地址": "新村西路186号甲8号(金梦园大酒店东邻)", "类型": "金融保险服务;银行;交通银行", "省": "山东省", "市": "淄博市", "区县": "张店区", "经度_wgs84": 118.027673, "纬度_wgs84": 36.798306, "一级分类": "金融" }, "geometry": { "type": "Point", "coordinates": [ 118.027673, 36.798306 ] } },
{ "type": "Feature", "properties": { "类别": "银行", "名称": "渤海银行(中润大道支行)", "经度": 118.016298, "纬度": 36.838123, "地址": "中润大道与西八路交叉口东150米路北", "类型": "金融保险服务;银行;银行", "省": "山东省", "市": "淄博市", "区县": "张店区", "经度_wgs84": 118.015744, "纬度_wgs84": 36.833313, "一级分类": "金融" }, "geometry": { "type": "Point", "coordinates": [ 118.015744, 36.833313 ] } },
{ "type": "Feature", "properties": { "类别": "银行", "名称": "中国农业银行(淄博南京路分理处)", "经度": 118.011407, "纬度": 36.826725, "地址": "南京路宏程国际广场11号楼101", "类型": "金融保险服务;银行;中国农业银行", "省": "山东省", "市": "淄博市", "区县": "张店区", "经度_wgs84": 118.010881, "纬度_wgs84": 36.821927, "一级分类": "金融" }, "geometry": { "type": "Point", "coordinates": [ 118.010881, 36.821927 ] } },
{ "type": "Feature", "properties": { "类别": "银行", "名称": "中国银行(淄博黄金国际支行)", "经度": 118.027919, "纬度": 36.822268, "地址": "华光路116号德泰智汇广场F1层", "类型": "金融保险服务;银行;中国银行", "省": "山东省", "市": "淄博市", "区县": "张店区", "经度_wgs84": 118.027338, "纬度_wgs84": 36.81743, "一级分类": "金融" }, "geometry": { "type": "Point", "coordinates": [ 118.027338, 36.81743 ] } },
{ "type": "Feature", "properties": { "类别": "银行", "名称": "齐商银行(城中支行)", "经度": 118.058253, "纬度": 36.819981, "地址": "华光路46号甲13号", "类型": "金融保险服务;银行;银行", "省": "山东省", "市": "淄博市", "区县": "张店区", "经度_wgs84": 118.057588, "纬度_wgs84": 36.815087, "一级分类": "金融" }, "geometry": { "type": "Point", "coordinates": [ 118.057588, 36.815087 ] } },
{ "type": "Feature", "properties": { "类别": "银行", "名称": "东营银行(张店支行)", "经度": 118.03208, "纬度": 36.802717, "地址": "南西六路27号", "类型": "金融保险服务;银行;银行", "省": "山东省", "市": "淄博市", "区县": "张店区", "经度_wgs84": 118.031502, "纬度_wgs84": 36.797871, "一级分类": "金融" }, "geometry": { "type": "Point", "coordinates": [ 118.031502, 36.797871 ] } },
{ "type": "Feature", "properties": { "类别": "银行", "名称": "齐商银行(山铝支行)", "经度": 118.042813, "纬度": 36.754503, "地址": "南定镇山铝西山五街1号", "类型": "金融保险服务;银行;银行", "省": "山东省", "市": "淄博市", "区县": "张店区", "经度_wgs84": 118.042244, "纬度_wgs84": 36.749636, "一级分类": "金融" }, "geometry": { "type": "Point", "coordinates": [ 118.042244, 36.749636 ] } },
{ "type": "Feature", "properties": { "类别": "银行", "名称": "齐商银行(通济支行)", "经度": 118.025461, "纬度": 36.802596, "地址": "世纪路44号", "类型": "金融保险服务;银行;银行", "省": "山东省", "市": "淄博市", "区县": "张店区", "经度_wgs84": 118.024906, "纬度_wgs84": 36.797765, "一级分类": "金融" }, "geometry": { "type": "Point", "coordinates": [ 118.024906, 36.797765 ] } },
{ "type": "Feature", "properties": { "类别": "银行", "名称": "齐商银行(共青团支行)", "经度": 118.05796, "纬度": 36.805085, "地址": "共青团西路3号", "类型": "金融保险服务;银行;银行", "省": "山东省", "市": "淄博市", "区县": "张店区", "经度_wgs84": 118.057308, "纬度_wgs84": 36.800192, "一级分类": "金融" }, "geometry": { "type": "Point", "coordinates": [ 118.057308, 36.800192 ] } },
{ "type": "Feature", "properties": { "类别": "银行", "名称": "中国农业银行(柳泉路支行)", "经度": 118.049245, "纬度": 36.806448, "地址": "共青团西路71号园林大厦F1层", "类型": "金融保险服务;银行;中国农业银行", "省": "山东省", "市": "淄博市", "区县": "张店区", "经度_wgs84": 118.048613, "纬度_wgs84": 36.801568, "一级分类": "金融" }, "geometry": { "type": "Point", "coordinates": [ 118.048613, 36.801568 ] } },
{ "type": "Feature", "properties": { "类别": "银行", "名称": "齐商银行(凯瑞园支行)", "经度": 118.015091, "纬度": 36.815435, "地址": "人民西路166号", "类型": "金融保险服务;银行;银行", "省": "山东省", "市": "淄博市", "区县": "张店区", "经度_wgs84": 118.014561, "纬度_wgs84": 36.810628, "一级分类": "金融" }, "geometry": { "type": "Point", "coordinates": [ 118.014561, 36.810628 ] } },
{ "type": "Feature", "properties": { "类别": "银行", "名称": "中国邮政储蓄银行(兴学街营业所)", "经度": 118.047149, "纬度": 36.793986, "地址": "兴学街93号", "类型": "金融保险服务;银行;中国邮政储蓄银行", "省": "山东省", "市": "淄博市", "区县": "张店区", "经度_wgs84": 118.046534, "纬度_wgs84": 36.78911, "一级分类": "金融" }, "geometry": { "type": "Point", "coordinates": [ 118.046534, 36.78911 ] } },
{ "type": "Feature", "properties": { "类别": "银行", "名称": "张店农商银行(中埠支行)", "经度": 118.188753, "纬度": 36.846304, "地址": "中埠镇中埠村南首", "类型": "金融保险服务;银行;农村商业银行", "省": "山东省", "市": "淄博市", "区县": "张店区", "经度_wgs84": 118.18817, "纬度_wgs84": 36.841549, "一级分类": "金融" }, "geometry": { "type": "Point", "coordinates": [ 118.18817, 36.841549 ] } },
{ "type": "Feature", "properties": { "类别": "银行", "名称": "中国建设银行(政务中心支行)", "经度": 118.042525, "纬度": 36.802, "地址": "新村西路与西四路交叉口东北(凤阳大厦一层)", "类型": "金融保险服务;银行;中国建设银行", "省": "山东省", "市": "淄博市", "区县": "张店区", "经度_wgs84": 118.041916, "纬度_wgs84": 36.797132, "一级分类": "金融" }, "geometry": { "type": "Point", "coordinates": [ 118.041916, 36.797132 ] } },
{ "type": "Feature", "properties": { "类别": "银行", "名称": "齐商银行(公园支行)", "经度": 118.04578, "纬度": 36.807539, "地址": "共青团西路84号", "类型": "金融保险服务;银行;银行", "省": "山东省", "市": "淄博市", "区县": "张店区", "经度_wgs84": 118.045157, "纬度_wgs84": 36.802665, "一级分类": "金融" }, "geometry": { "type": "Point", "coordinates": [ 118.045157, 36.802665 ] } },
{ "type": "Feature", "properties": { "类别": "银行", "名称": "张店农村商业银行(西二路支行)", "经度": 118.054951, "纬度": 36.804917, "地址": "西二路175号金丰商务楼F1层", "类型": "金融保险服务;银行;农村商业银行", "省": "山东省", "市": "淄博市", "区县": "张店区", "经度_wgs84": 118.054306, "纬度_wgs84": 36.800028, "一级分类": "金融" }, "geometry": { "type": "Point", "coordinates": [ 118.054306, 36.800028 ] } },
{ "type": "Feature", "properties": { "类别": "银行", "名称": "张店农村商业银行(华光路支行)", "经度": 118.062533, "纬度": 36.819322, "地址": "华光路36号", "类型": "金融保险服务;银行;农村商业银行", "省": "山东省", "市": "淄博市", "区县": "张店区", "经度_wgs84": 118.061859, "纬度_wgs84": 36.814423, "一级分类": "金融" }, "geometry": { "type": "Point", "coordinates": [ 118.061859, 36.814423 ] } },
{ "type": "Feature", "properties": { "类别": "银行", "名称": "中国建设银行(淄博人民西路支行)", "经度": 118.0602, "纬度": 36.811537, "地址": "人民西路1号华润中央公园5号楼", "类型": "金融保险服务;银行;中国建设银行", "省": "山东省", "市": "淄博市", "区县": "张店区", "经度_wgs84": 118.059538, "纬度_wgs84": 36.806641, "一级分类": "金融" }, "geometry": { "type": "Point", "coordinates": [ 118.059538, 36.806641 ] } },
{ "type": "Feature", "properties": { "类别": "银行", "名称": "张店农商银行(高新区支行)", "经度": 118.072134, "纬度": 36.843463, "地址": "中心路271号", "类型": "金融保险服务;银行;农村商业银行|生活服务;生活服务场所;生活服务场所", "省": "山东省", "市": "淄博市", "区县": "张店区", "经度_wgs84": 118.071423, "纬度_wgs84": 36.838554, "一级分类": "金融" }, "geometry": { "type": "Point", "coordinates": [ 118.071423, 36.838554 ] } },
{ "type": "Feature", "properties": { "类别": "银行", "名称": "齐商银行(丽景苑支行)", "经度": 118.03763, "纬度": 36.824871, "地址": "北西五路38甲2丽景苑小区2号综合楼", "类型": "金融保险服务;银行;银行", "省": "山东省", "市": "淄博市", "区县": "张店区", "经度_wgs84": 118.037015, "纬度_wgs84": 36.820012, "一级分类": "金融" }, "geometry": { "type": "Point", "coordinates": [ 118.037015, 36.820012 ] } },
{ "type": "Feature", "properties": { "类别": "银行", "名称": "中国工商银行(张店西城支行)(装修中)", "经度": 118.018275, "纬度": 36.824125, "地址": "义乌商城街47号", "类型": "金融保险服务;银行;中国工商银行", "省": "山东省", "市": "淄博市", "区县": "张店区", "经度_wgs84": 118.017726, "纬度_wgs84": 36.81931, "一级分类": "金融" }, "geometry": { "type": "Point", "coordinates": [ 118.017726, 36.81931 ] } },
{ "type": "Feature", "properties": { "类别": "银行", "名称": "齐商银行(莲池支行)", "经度": 118.032719, "纬度": 36.829156, "地址": "北西六路98号", "类型": "金融保险服务;银行;银行", "省": "山东省", "市": "淄博市", "区县": "张店区", "经度_wgs84": 118.032116, "纬度_wgs84": 36.824307, "一级分类": "金融" }, "geometry": { "type": "Point", "coordinates": [ 118.032116, 36.824307 ] } },
{ "type": "Feature", "properties": { "类别": "银行", "名称": "齐商银行(科学城支行)", "经度": 118.03551, "纬度": 36.864697, "地址": "裕民路与北西六路交汇处南石社区5号沿街房", "类型": "金融保险服务;银行;银行", "省": "山东省", "市": "淄博市", "区县": "张店区", "经度_wgs84": 118.034866, "纬度_wgs84": 36.859841, "一级分类": "金融" }, "geometry": { "type": "Point", "coordinates": [ 118.034866, 36.859841 ] } },
{ "type": "Feature", "properties": { "类别": "银行", "名称": "中国邮政储蓄银行(华光路支行)", "经度": 118.057721, "纬度": 36.820093, "地址": "华光路46号甲23号", "类型": "金融保险服务;银行;中国邮政储蓄银行", "省": "山东省", "市": "淄博市", "区县": "张店区", "经度_wgs84": 118.057057, "纬度_wgs84": 36.8152, "一级分类": "金融" }, "geometry": { "type": "Point", "coordinates": [ 118.057057, 36.8152 ] } },
{ "type": "Feature", "properties": { "类别": "银行", "名称": "齐商银行", "经度": 118.037257, "纬度": 36.810048, "地址": "北西五路6号甲1号", "类型": "金融保险服务;银行;银行", "省": "山东省", "市": "淄博市", "区县": "张店区", "经度_wgs84": 118.036656, "纬度_wgs84": 36.80519, "一级分类": "金融" }, "geometry": { "type": "Point", "coordinates": [ 118.036656, 36.80519 ] } },
{ "type": "Feature", "properties": { "类别": "银行", "名称": "齐商银行(体坛支行)", "经度": 118.046526, "纬度": 36.795888, "地址": "柳泉路13号甲5号", "类型": "金融保险服务;银行;银行", "省": "山东省", "市": "淄博市", "区县": "张店区", "经度_wgs84": 118.045911, "纬度_wgs84": 36.791013, "一级分类": "金融" }, "geometry": { "type": "Point", "coordinates": [ 118.045911, 36.791013 ] } },
{ "type": "Feature", "properties": { "类别": "银行", "名称": "上海浦东发展银行(世纪花园社区支行)", "经度": 118.016778, "纬度": 36.833089, "地址": "世纪花园冬韵园13号楼", "类型": "金融保险服务;银行;上海浦东发展银行|金融保险服务;银行相关;银行相关", "省": "山东省", "市": "淄博市", "区县": "张店区", "经度_wgs84": 118.016227, "纬度_wgs84": 36.828278, "一级分类": "金融" }, "geometry": { "type": "Point", "coordinates": [ 118.016227, 36.828278 ] } },
{ "type": "Feature", "properties": { "类别": "银行", "名称": "齐商银行(和平支行)", "经度": 118.023276, "纬度": 36.780479, "地址": "世纪路与复兴路交叉口西南角", "类型": "金融保险服务;银行;银行", "省": "山东省", "市": "淄博市", "区县": "张店区", "经度_wgs84": 118.022747, "纬度_wgs84": 36.775653, "一级分类": "金融" }, "geometry": { "type": "Point", "coordinates": [ 118.022747, 36.775653 ] } },
{ "type": "Feature", "properties": { "类别": "银行", "名称": "中国工商银行(杏园路支行)", "经度": 118.071983, "纬度": 36.786976, "地址": "杏园东路58号", "类型": "金融保险服务;银行;中国工商银行", "省": "山东省", "市": "淄博市", "区县": "张店区", "经度_wgs84": 118.071321, "纬度_wgs84": 36.782069, "一级分类": "金融" }, "geometry": { "type": "Point", "coordinates": [ 118.071321, 36.782069 ] } },
{ "type": "Feature", "properties": { "类别": "银行", "名称": "中国工商银行(淄博张店车站支行)", "经度": 118.057606, "纬度": 36.792793, "地址": "金晶大道19号泰星大酒店", "类型": "金融保险服务;银行;中国工商银行", "省": "山东省", "市": "淄博市", "区县": "张店区", "经度_wgs84": 118.056966, "纬度_wgs84": 36.787901, "一级分类": "金融" }, "geometry": { "type": "Point", "coordinates": [ 118.056966, 36.787901 ] } },
{ "type": "Feature", "properties": { "类别": "银行", "名称": "齐商银行(科技支行)", "经度": 118.032527, "纬度": 36.811395, "地址": "北西六路5号甲5号山东齐赛创意动漫科技大厦F1层", "类型": "金融保险服务;银行;银行", "省": "山东省", "市": "淄博市", "区县": "张店区", "经度_wgs84": 118.03194, "纬度_wgs84": 36.806547, "一级分类": "金融" }, "geometry": { "type": "Point", "coordinates": [ 118.03194, 36.806547 ] } },
{ "type": "Feature", "properties": { "类别": "银行", "名称": "中国农业银行(淄博先创区支行)", "经度": 118.140554, "纬度": 36.87663, "地址": "傅山村商贸中心西侧", "类型": "金融保险服务;银行;中国农业银行", "省": "山东省", "市": "淄博市", "区县": "张店区", "经度_wgs84": 118.139837, "纬度_wgs84": 36.871769, "一级分类": "金融" }, "geometry": { "type": "Point", "coordinates": [ 118.139837, 36.871769 ] } },
{ "type": "Feature", "properties": { "类别": "银行", "名称": "中国邮政储蓄银行淄博市高新技术产业开发区支行", "经度": 118.035773, "纬度": 36.837717, "地址": "九宏大厦", "类型": "金融保险服务;银行;中国邮政储蓄银行", "省": "山东省", "市": "淄博市", "区县": "张店区", "经度_wgs84": 118.035153, "纬度_wgs84": 36.832862, "一级分类": "金融" }, "geometry": { "type": "Point", "coordinates": [ 118.035153, 36.832862 ] } },
{ "type": "Feature", "properties": { "类别": "银行", "名称": "山东张店农村商业银行(怡海世家支行)", "经度": 118.026715, "纬度": 36.831666, "地址": "科苑街道世纪路170号", "类型": "金融保险服务;银行;农村商业银行", "省": "山东省", "市": "淄博市", "区县": "张店区", "经度_wgs84": 118.02613, "纬度_wgs84": 36.826831, "一级分类": "金融" }, "geometry": { "type": "Point", "coordinates": [ 118.02613, 36.826831 ] } },
{ "type": "Feature", "properties": { "类别": "银行", "名称": "齐商银行(人民路支行)", "经度": 118.044842, "纬度": 36.813905, "地址": "人民西路23号", "类型": "金融保险服务;银行;银行", "省": "山东省", "市": "淄博市", "区县": "张店区", "经度_wgs84": 118.044216, "纬度_wgs84": 36.809033, "一级分类": "金融" }, "geometry": { "type": "Point", "coordinates": [ 118.044216, 36.809033 ] } },
{ "type": "Feature", "properties": { "类别": "银行", "名称": "上海浦东发展银行股份有限公司淄博鲁中家具城小微支行", "经度": 118.042385, "纬度": 36.803451, "地址": "南西四路路东家具城1层西南角", "类型": "金融保险服务;银行;上海浦东发展银行", "省": "山东省", "市": "淄博市", "区县": "张店区", "经度_wgs84": 118.041775, "纬度_wgs84": 36.798583, "一级分类": "金融" }, "geometry": { "type": "Point", "coordinates": [ 118.041775, 36.798583 ] } },
{ "type": "Feature", "properties": { "类别": "银行", "名称": "中国建设银行(联通路分理处)(装修中)", "经度": 118.044856, "纬度": 36.828423, "地址": "联通路62-8号", "类型": "金融保险服务;银行;中国建设银行", "省": "山东省", "市": "淄博市", "区县": "张店区", "经度_wgs84": 118.044217, "纬度_wgs84": 36.82355, "一级分类": "金融" }, "geometry": { "type": "Point", "coordinates": [ 118.044217, 36.82355 ] } },
{ "type": "Feature", "properties": { "类别": "银行", "名称": "张店农商银行(马尚支行)", "经度": 117.992865, "纬度": 36.799286, "地址": "和平路169号甲4号", "类型": "金融保险服务;银行;农村商业银行", "省": "山东省", "市": "淄博市", "区县": "张店区", "经度_wgs84": 117.992433, "纬度_wgs84": 36.794537, "一级分类": "金融" }, "geometry": { "type": "Point", "coordinates": [ 117.992433, 36.794537 ] } },
{ "type": "Feature", "properties": { "类别": "银行", "名称": "张店农商银行(南定支行)", "经度": 118.042332, "纬度": 36.738178, "地址": "南定镇张南路127号", "类型": "金融保险服务;银行;农村商业银行", "省": "山东省", "市": "淄博市", "区县": "张店区", "经度_wgs84": 118.041778, "纬度_wgs84": 36.733312, "一级分类": "金融" }, "geometry": { "type": "Point", "coordinates": [ 118.041778, 36.733312 ] } },
{ "type": "Feature", "properties": { "类别": "银行", "名称": "中国农业银行(黄金国际支行)", "经度": 118.029687, "纬度": 36.828806, "地址": "黄金国际北2门旁", "类型": "金融保险服务;银行;中国农业银行", "省": "山东省", "市": "淄博市", "区县": "张店区", "经度_wgs84": 118.029094, "纬度_wgs84": 36.823964, "一级分类": "金融" }, "geometry": { "type": "Point", "coordinates": [ 118.029094, 36.823964 ] } },
{ "type": "Feature", "properties": { "类别": "银行", "名称": "齐商银行金晶大道支行", "经度": 118.05875, "纬度": 36.799661, "地址": "车站街道金晶大道105号齐商银行信息科技部", "类型": "金融保险服务;银行;银行", "省": "山东省", "市": "淄博市", "区县": "张店区", "经度_wgs84": 118.058102, "纬度_wgs84": 36.794767, "一级分类": "金融" }, "geometry": { "type": "Point", "coordinates": [ 118.058102, 36.794767 ] } },
{ "type": "Feature", "properties": { "类别": "银行", "名称": "中国建设银行(淄博城中支行)", "经度": 118.030458, "纬度": 36.822104, "地址": "华光路116号彩世界精品皮草广场F1层", "类型": "金融保险服务;银行;中国建设银行", "省": "山东省", "市": "淄博市", "区县": "张店区", "经度_wgs84": 118.029869, "纬度_wgs84": 36.817261, "一级分类": "金融" }, "geometry": { "type": "Point", "coordinates": [ 118.029869, 36.817261 ] } },
{ "type": "Feature", "properties": { "类别": "银行", "名称": "中国农业银行(淄博山铝分理处)", "经度": 118.045932, "纬度": 36.752906, "地址": "山铝花园路29号铝城购物中心东邻", "类型": "金融保险服务;银行;中国农业银行", "省": "山东省", "市": "淄博市", "区县": "张店区", "经度_wgs84": 118.045355, "纬度_wgs84": 36.748033, "一级分类": "金融" }, "geometry": { "type": "Point", "coordinates": [ 118.045355, 36.748033 ] } },
{ "type": "Feature", "properties": { "类别": "银行", "名称": "齐商银行(共青团东路支行)", "经度": 118.063229, "纬度": 36.802749, "地址": "凯旋门东门旁", "类型": "金融保险服务;银行;银行", "省": "山东省", "市": "淄博市", "区县": "张店区", "经度_wgs84": 118.062569, "纬度_wgs84": 36.79785, "一级分类": "金融" }, "geometry": { "type": "Point", "coordinates": [ 118.062569, 36.79785 ] } },
{ "type": "Feature", "properties": { "类别": "银行", "名称": "张店农商银行(付家支行)", "经度": 117.99847, "纬度": 36.762456, "地址": "华福大道与重庆路交叉口东北40米", "类型": "金融保险服务;银行;农村商业银行", "省": "山东省", "市": "淄博市", "区县": "张店区", "经度_wgs84": 117.998048, "纬度_wgs84": 36.757694, "一级分类": "金融" }, "geometry": { "type": "Point", "coordinates": [ 117.998048, 36.757694 ] } },
{ "type": "Feature", "properties": { "类别": "银行", "名称": "中国民生银行(淄博齐盛湖社区支行)", "经度": 118.000731, "纬度": 36.836582, "地址": "北重庆路369号方正凤凰国际东区14号楼2号", "类型": "金融保险服务;银行;中国民生银行", "省": "山东省", "市": "淄博市", "区县": "张店区", "经度_wgs84": 118.000236, "纬度_wgs84": 36.831812, "一级分类": "金融" }, "geometry": { "type": "Point", "coordinates": [ 118.000236, 36.831812 ] } },
{ "type": "Feature", "properties": { "类别": "银行", "名称": "齐商银行(义乌商城支行)", "经度": 118.021214, "纬度": 36.82305, "地址": "华光路268号义乌小商品城广场街28-29号", "类型": "金融保险服务;银行;银行", "省": "山东省", "市": "淄博市", "区县": "张店区", "经度_wgs84": 118.020655, "纬度_wgs84": 36.818228, "一级分类": "金融" }, "geometry": { "type": "Point", "coordinates": [ 118.020655, 36.818228 ] } },
{ "type": "Feature", "properties": { "类别": "银行", "名称": "中国农业银行(华侨城支行)", "经度": 118.036189, "纬度": 36.83785, "地址": "中润大道与西五路交叉口西北角九宏大厦一层东首", "类型": "金融保险服务;银行;中国农业银行", "省": "山东省", "市": "淄博市", "区县": "张店区", "经度_wgs84": 118.035567, "纬度_wgs84": 36.832994, "一级分类": "金融" }, "geometry": { "type": "Point", "coordinates": [ 118.035567, 36.832994 ] } },
{ "type": "Feature", "properties": { "类别": "银行", "名称": "张店农村商业银行(城北支行)", "经度": 118.048689, "纬度": 36.837336, "地址": "中润大道99号", "类型": "金融保险服务;银行;农村商业银行", "省": "山东省", "市": "淄博市", "区县": "张店区", "经度_wgs84": 118.048031, "纬度_wgs84": 36.832456, "一级分类": "金融" }, "geometry": { "type": "Point", "coordinates": [ 118.048031, 36.832456 ] } },
{ "type": "Feature", "properties": { "类别": "银行", "名称": "张店区农村商业银行(颐丰苑支行)", "经度": 118.000704, "纬度": 36.84147, "地址": "颐丰花园颐臻园南门东170米", "类型": "金融保险服务;银行;农村商业银行", "省": "山东省", "市": "淄博市", "区县": "张店区", "经度_wgs84": 118.000205, "纬度_wgs84": 36.8367, "一级分类": "金融" }, "geometry": { "type": "Point", "coordinates": [ 118.000205, 36.8367 ] } },
{ "type": "Feature", "properties": { "类别": "银行", "名称": "中国建设银行(世纪路支行)", "经度": 118.024404, "纬度": 36.813927, "地址": "人民西路77号花好园1楼", "类型": "金融保险服务;银行;中国建设银行", "省": "山东省", "市": "淄博市", "区县": "张店区", "经度_wgs84": 118.023842, "纬度_wgs84": 36.809098, "一级分类": "金融" }, "geometry": { "type": "Point", "coordinates": [ 118.023842, 36.809098 ] } },
{ "type": "Feature", "properties": { "类别": "银行", "名称": "兴业银行(世纪花园社区支行)", "经度": 118.018246, "纬度": 36.833111, "地址": "世纪路115号世纪花园中心公园2号1楼", "类型": "金融保险服务;银行;兴业银行", "省": "山东省", "市": "淄博市", "区县": "张店区", "经度_wgs84": 118.017689, "纬度_wgs84": 36.828296, "一级分类": "金融" }, "geometry": { "type": "Point", "coordinates": [ 118.017689, 36.828296 ] } },
{ "type": "Feature", "properties": { "类别": "银行", "名称": "交通银行(华侨城支行)", "经度": 118.035572, "纬度": 36.837721, "地址": "高新区中润大道39甲1一层", "类型": "金融保险服务;银行;交通银行", "省": "山东省", "市": "淄博市", "区县": "张店区", "经度_wgs84": 118.034952, "纬度_wgs84": 36.832866, "一级分类": "金融" }, "geometry": { "type": "Point", "coordinates": [ 118.034952, 36.832866 ] } },
{ "type": "Feature", "properties": { "类别": "银行", "名称": "中国邮政储蓄银行(柳泉路支行)", "经度": 118.048134, "纬度": 36.802208, "地址": "柳泉路与新村西路交叉口西北角时代超市1FA4铺", "类型": "金融保险服务;银行;中国邮政储蓄银行", "省": "山东省", "市": "淄博市", "区县": "张店区", "经度_wgs84": 118.047509, "纬度_wgs84": 36.79733, "一级分类": "金融" }, "geometry": { "type": "Point", "coordinates": [ 118.047509, 36.79733 ] } },
{ "type": "Feature", "properties": { "类别": "银行", "名称": "中国工商银行(高新紫荆苑支行)", "经度": 118.054462, "纬度": 36.832694, "地址": "紫荆路2号甲7号", "类型": "金融保险服务;银行;中国工商银行", "省": "山东省", "市": "淄博市", "区县": "张店区", "经度_wgs84": 118.053794, "纬度_wgs84": 36.827805, "一级分类": "金融" }, "geometry": { "type": "Point", "coordinates": [ 118.053794, 36.827805 ] } },
{ "type": "Feature", "properties": { "类别": "银行", "名称": "齐商银行(张北支行)", "经度": 118.063747, "纬度": 36.815725, "地址": "金晶大道199号甲1号", "类型": "金融保险服务;银行;银行", "省": "山东省", "市": "淄博市", "区县": "张店区", "经度_wgs84": 118.063074, "纬度_wgs84": 36.810825, "一级分类": "金融" }, "geometry": { "type": "Point", "coordinates": [ 118.063074, 36.810825 ] } },
{ "type": "Feature", "properties": { "类别": "银行", "名称": "中国邮政储蓄银行(共青团西路营业所)", "经度": 118.06011, "纬度": 36.804837, "地址": "共青团西路1号", "类型": "金融保险服务;银行;中国邮政储蓄银行", "省": "山东省", "市": "淄博市", "区县": "张店区", "经度_wgs84": 118.059454, "纬度_wgs84": 36.799941, "一级分类": "金融" }, "geometry": { "type": "Point", "coordinates": [ 118.059454, 36.799941 ] } },
{ "type": "Feature", "properties": { "类别": "银行", "名称": "山东张店农村商业银行(莲池支行)", "经度": 118.035635, "纬度": 36.829086, "地址": "联通路80号", "类型": "金融保险服务;银行;农村商业银行", "省": "山东省", "市": "淄博市", "区县": "张店区", "经度_wgs84": 118.035023, "纬度_wgs84": 36.824231, "一级分类": "金融" }, "geometry": { "type": "Point", "coordinates": [ 118.035023, 36.824231 ] } },
{ "type": "Feature", "properties": { "类别": "银行", "名称": "齐商银行(淄博新区支行)", "经度": 117.991578, "纬度": 36.822028, "地址": "心环东路6号润德大厦26、27、28号沿街房", "类型": "金融保险服务;银行;银行", "省": "山东省", "市": "淄博市", "区县": "张店区", "经度_wgs84": 117.991131, "纬度_wgs84": 36.817282, "一级分类": "金融" }, "geometry": { "type": "Point", "coordinates": [ 117.991131, 36.817282 ] } },
{ "type": "Feature", "properties": { "类别": "银行", "名称": "张店农村商业银行(盛世康城分理处)", "经度": 118.023064, "纬度": 36.778546, "地址": "盛世康城23号商住楼", "类型": "金融保险服务;银行;农村商业银行", "省": "山东省", "市": "淄博市", "区县": "张店区", "经度_wgs84": 118.022538, "纬度_wgs84": 36.773721, "一级分类": "金融" }, "geometry": { "type": "Point", "coordinates": [ 118.022538, 36.773721 ] } },
{ "type": "Feature", "properties": { "类别": "银行", "名称": "山东张店农村商业银行(湖田支行)", "经度": 118.12706, "纬度": 36.789352, "地址": "湖光路21号", "类型": "金融保险服务;银行;农村商业银行", "省": "山东省", "市": "淄博市", "区县": "张店区", "经度_wgs84": 118.126398, "纬度_wgs84": 36.78447, "一级分类": "金融" }, "geometry": { "type": "Point", "coordinates": [ 118.126398, 36.78447 ] } },
{ "type": "Feature", "properties": { "类别": "银行", "名称": "兴业银行(淄博凯瑞园社区支行)", "经度": 118.017313, "纬度": 36.814445, "地址": "人民西路215号", "类型": "金融保险服务;银行;兴业银行", "省": "山东省", "市": "淄博市", "区县": "张店区", "经度_wgs84": 118.016776, "纬度_wgs84": 36.809633, "一级分类": "金融" }, "geometry": { "type": "Point", "coordinates": [ 118.016776, 36.809633 ] } },
{ "type": "Feature", "properties": { "类别": "银行", "名称": "山东张店农村商业银行(阳光支行)", "经度": 118.024823, "纬度": 36.841675, "地址": "西七路北首阳光花园28号楼", "类型": "金融保险服务;银行;农村商业银行", "省": "山东省", "市": "淄博市", "区县": "张店区", "经度_wgs84": 118.024235, "纬度_wgs84": 36.836844, "一级分类": "金融" }, "geometry": { "type": "Point", "coordinates": [ 118.024235, 36.836844 ] } },
{ "type": "Feature", "properties": { "类别": "银行", "名称": "中国邮政储蓄银行(明清街营业所)", "经度": 118.044113, "纬度": 36.833966, "地址": "张桓路36号甲20号", "类型": "金融保险服务;银行;中国邮政储蓄银行", "省": "山东省", "市": "淄博市", "区县": "张店区", "经度_wgs84": 118.043471, "纬度_wgs84": 36.829094, "一级分类": "金融" }, "geometry": { "type": "Point", "coordinates": [ 118.043471, 36.829094 ] } },
{ "type": "Feature", "properties": { "类别": "银行", "名称": "齐商银行(华光路支行)", "经度": 118.042497, "纬度": 36.821622, "地址": "华光路82号", "类型": "金融保险服务;银行;银行", "省": "山东省", "市": "淄博市", "区县": "张店区", "经度_wgs84": 118.04187, "纬度_wgs84": 36.816754, "一级分类": "金融" }, "geometry": { "type": "Point", "coordinates": [ 118.04187, 36.816754 ] } },
{ "type": "Feature", "properties": { "类别": "银行", "名称": "山东张店农村商业银行(高铁新城支行)", "经度": 118.031912, "纬度": 36.865857, "地址": "裕民路中国联通西60米", "类型": "金融保险服务;银行;农村商业银行", "省": "山东省", "市": "淄博市", "区县": "张店区", "经度_wgs84": 118.031279, "纬度_wgs84": 36.861009, "一级分类": "金融" }, "geometry": { "type": "Point", "coordinates": [ 118.031279, 36.861009 ] } },
{ "type": "Feature", "properties": { "类别": "银行", "名称": "中国农业银行(淄博城东支行)", "经度": 118.088594, "纬度": 36.752221, "地址": "沣水镇城东路1号(沣水镇政府西邻)", "类型": "金融保险服务;银行;中国农业银行", "省": "山东省", "市": "淄博市", "区县": "张店区", "经度_wgs84": 118.087945, "纬度_wgs84": 36.747309, "一级分类": "金融" }, "geometry": { "type": "Point", "coordinates": [ 118.087945, 36.747309 ] } },
{ "type": "Feature", "properties": { "类别": "银行", "名称": "张店农商银行(西城支行)", "经度": 118.01733, "纬度": 36.822934, "地址": "华光路272号博大广场", "类型": "金融保险服务;银行;农村商业银行", "省": "山东省", "市": "淄博市", "区县": "张店区", "经度_wgs84": 118.016786, "纬度_wgs84": 36.818122, "一级分类": "金融" }, "geometry": { "type": "Point", "coordinates": [ 118.016786, 36.818122 ] } },
{ "type": "Feature", "properties": { "类别": "银行", "名称": "中国工商银行(湖田分理处)", "经度": 118.096499, "纬度": 36.79363, "地址": "新村东路与富裕路交叉口东北40米", "类型": "金融保险服务;银行;中国工商银行", "省": "山东省", "市": "淄博市", "区县": "张店区", "经度_wgs84": 118.095812, "纬度_wgs84": 36.788718, "一级分类": "金融" }, "geometry": { "type": "Point", "coordinates": [ 118.095812, 36.788718 ] } },
{ "type": "Feature", "properties": { "类别": "银行", "名称": "浦发银行(世纪金源小微支行)", "经度": 118.054033, "纬度": 36.825317, "地址": "柳泉路77号世纪新世界广场2号楼F1层", "类型": "金融保险服务;银行;上海浦东发展银行", "省": "山东省", "市": "淄博市", "区县": "张店区", "经度_wgs84": 118.053373, "纬度_wgs84": 36.820429, "一级分类": "金融" }, "geometry": { "type": "Point", "coordinates": [ 118.053373, 36.820429 ] } },
{ "type": "Feature", "properties": { "类别": "银行", "名称": "中国邮政储蓄银行(义乌商品城支行)", "经度": 118.024309, "纬度": 36.822558, "地址": "华光路188号玉龙大厦B座F1层", "类型": "金融保险服务;银行;中国邮政储蓄银行", "省": "山东省", "市": "淄博市", "区县": "张店区", "经度_wgs84": 118.02374, "纬度_wgs84": 36.817729, "一级分类": "金融" }, "geometry": { "type": "Point", "coordinates": [ 118.02374, 36.817729 ] } },
{ "type": "Feature", "properties": { "类别": "银行", "名称": "张店农村商业银行(杏园支行)", "经度": 118.077668, "纬度": 36.773851, "地址": "宝沣路1号", "类型": "金融保险服务;银行;农村商业银行", "省": "山东省", "市": "淄博市", "区县": "张店区", "经度_wgs84": 118.07701, "纬度_wgs84": 36.768941, "一级分类": "金融" }, "geometry": { "type": "Point", "coordinates": [ 118.07701, 36.768941 ] } },
{ "type": "Feature", "properties": { "类别": "银行", "名称": "张店农村商业银行(经开区支行)", "经度": 118.012722, "纬度": 36.7915, "地址": "王舍路与南京路交叉口东280米", "类型": "金融保险服务;银行;农村商业银行", "省": "山东省", "市": "淄博市", "区县": "张店区", "经度_wgs84": 118.012222, "纬度_wgs84": 36.7867, "一级分类": "金融" }, "geometry": { "type": "Point", "coordinates": [ 118.012222, 36.7867 ] } },
{ "type": "Feature", "properties": { "类别": "银行", "名称": "中国农业银行(淄博经济开发区支行)", "经度": 118.049278, "纬度": 36.736613, "地址": "昌盛路36号甲3号", "类型": "金融保险服务;银行;中国农业银行", "省": "山东省", "市": "淄博市", "区县": "张店区", "经度_wgs84": 118.048706, "纬度_wgs84": 36.731735, "一级分类": "金融" }, "geometry": { "type": "Point", "coordinates": [ 118.048706, 36.731735 ] } },
{ "type": "Feature", "properties": { "类别": "银行", "名称": "中国工商银行(工业路支行)", "经度": 118.047475, "纬度": 36.750975, "地址": "南定镇工业路8号", "类型": "金融保险服务;银行;中国工商银行", "省": "山东省", "市": "淄博市", "区县": "张店区", "经度_wgs84": 118.046896, "纬度_wgs84": 36.7461, "一级分类": "金融" }, "geometry": { "type": "Point", "coordinates": [ 118.046896, 36.7461 ] } },
{ "type": "Feature", "properties": { "类别": "银行", "名称": "张店农村商业银行(四宝山支行)", "经度": 118.099512, "纬度": 36.838177, "地址": "宝山路97号", "类型": "金融保险服务;银行;农村商业银行", "省": "山东省", "市": "淄博市", "区县": "张店区", "经度_wgs84": 118.098786, "纬度_wgs84": 36.833265, "一级分类": "金融" }, "geometry": { "type": "Point", "coordinates": [ 118.098786, 36.833265 ] } },
{ "type": "Feature", "properties": { "类别": "银行", "名称": "山东张店农村商业银行(乔庄支行)", "经度": 118.075581, "纬度": 36.812697, "地址": "潘南东路17号", "类型": "金融保险服务;银行;农村商业银行", "省": "山东省", "市": "淄博市", "区县": "张店区", "经度_wgs84": 118.074892, "纬度_wgs84": 36.807787, "一级分类": "金融" }, "geometry": { "type": "Point", "coordinates": [ 118.074892, 36.807787 ] } },
{ "type": "Feature", "properties": { "类别": "银行", "名称": "张店农村商业银行(迎宾路支行)", "经度": 118.020692, "纬度": 36.786624, "地址": "昌国路鑫盛嘉园", "类型": "金融保险服务;银行;农村商业银行", "省": "山东省", "市": "淄博市", "区县": "张店区", "经度_wgs84": 118.020167, "纬度_wgs84": 36.781804, "一级分类": "金融" }, "geometry": { "type": "Point", "coordinates": [ 118.020167, 36.781804 ] } },
{ "type": "Feature", "properties": { "类别": "银行", "名称": "中国建设银行", "经度": 118.031485, "纬度": 36.798748, "地址": "南西六路与和平路交叉口北160米", "类型": "金融保险服务;银行;中国建设银行", "省": "山东省", "市": "淄博市", "区县": "张店区", "经度_wgs84": 118.030913, "纬度_wgs84": 36.793903, "一级分类": "金融" }, "geometry": { "type": "Point", "coordinates": [ 118.030913, 36.793903 ] } },
{ "type": "Feature", "properties": { "类别": "银行", "名称": "张店农村商业银行祥瑞花园支行", "经度": 118.008072, "纬度": 36.824887, "地址": "马尚镇华光路286号祥瑞园", "类型": "金融保险服务;银行;农村商业银行", "省": "山东省", "市": "淄博市", "区县": "张店区", "经度_wgs84": 118.00756, "纬度_wgs84": 36.820098, "一级分类": "金融" }, "geometry": { "type": "Point", "coordinates": [ 118.00756, 36.820098 ] } },
{ "type": "Feature", "properties": { "类别": "银行", "名称": "齐商银行(天齐支行)", "经度": 118.057668, "纬度": 36.801615, "地址": "和平街道美食街13号", "类型": "金融保险服务;银行;银行", "省": "山东省", "市": "淄博市", "区县": "张店区", "经度_wgs84": 118.05702, "纬度_wgs84": 36.796723, "一级分类": "金融" }, "geometry": { "type": "Point", "coordinates": [ 118.05702, 36.796723 ] } },
{ "type": "Feature", "properties": { "类别": "银行", "名称": "中国邮政储蓄银行(西六路营业所)", "经度": 118.031705, "纬度": 36.800855, "地址": "南西六路55号", "类型": "金融保险服务;银行;中国邮政储蓄银行", "省": "山东省", "市": "淄博市", "区县": "张店区", "经度_wgs84": 118.03113, "纬度_wgs84": 36.796009, "一级分类": "金融" }, "geometry": { "type": "Point", "coordinates": [ 118.03113, 36.796009 ] } },
{ "type": "Feature", "properties": { "类别": "银行", "名称": "山东张店农村商业银行(刘东分理处)", "经度": 118.04337, "纬度": 36.849224, "地址": "铭波路3号", "类型": "金融保险服务;银行;农村商业银行", "省": "山东省", "市": "淄博市", "区县": "张店区", "经度_wgs84": 118.042716, "纬度_wgs84": 36.844353, "一级分类": "金融" }, "geometry": { "type": "Point", "coordinates": [ 118.042716, 36.844353 ] } },
{ "type": "Feature", "properties": { "类别": "银行", "名称": "中国邮政储蓄银行(房镇支行)", "经度": 117.968576, "纬度": 36.835506, "地址": "房镇镇齐盛路242号", "类型": "金融保险服务;银行;中国邮政储蓄银行", "省": "山东省", "市": "淄博市", "区县": "张店区", "经度_wgs84": 117.968199, "纬度_wgs84": 36.830816, "一级分类": "金融" }, "geometry": { "type": "Point", "coordinates": [ 117.968199, 36.830816 ] } },
{ "type": "Feature", "properties": { "类别": "银行", "名称": "张店农商银行(王舍支行)", "经度": 118.038376, "纬度": 36.786725, "地址": "王舍路与一区西路交叉口南240米", "类型": "金融保险服务;银行;农村商业银行", "省": "山东省", "市": "淄博市", "区县": "张店区", "经度_wgs84": 118.037792, "纬度_wgs84": 36.781866, "一级分类": "金融" }, "geometry": { "type": "Point", "coordinates": [ 118.037792, 36.781866 ] } },
{ "type": "Feature", "properties": { "类别": "银行", "名称": "张店农商银行房镇支行", "经度": 117.969156, "纬度": 36.835597, "地址": "济南路与齐盛路交叉口西北40米", "类型": "金融保险服务;银行;农村商业银行", "省": "山东省", "市": "淄博市", "区县": "张店区", "经度_wgs84": 117.968777, "纬度_wgs84": 36.830906, "一级分类": "金融" }, "geometry": { "type": "Point", "coordinates": [ 117.968777, 36.830906 ] } },
{ "type": "Feature", "properties": { "类别": "银行", "名称": "张店农商银行(林泽花园支行)", "经度": 117.995934, "纬度": 36.819804, "地址": "浅海牧羊村烧烤东北门东140米", "类型": "金融保险服务;银行;农村商业银行", "省": "山东省", "市": "淄博市", "区县": "张店区", "经度_wgs84": 117.995472, "纬度_wgs84": 36.815047, "一级分类": "金融" }, "geometry": { "type": "Point", "coordinates": [ 117.995472, 36.815047 ] } },
{ "type": "Feature", "properties": { "类别": "银行", "名称": "山东张店农村商业银行(杜科分理处)", "经度": 118.072887, "纬度": 36.803614, "地址": "东三路2号甲1号", "类型": "金融保险服务;银行;农村商业银行", "省": "山东省", "市": "淄博市", "区县": "张店区", "经度_wgs84": 118.07221, "纬度_wgs84": 36.798706, "一级分类": "金融" }, "geometry": { "type": "Point", "coordinates": [ 118.07221, 36.798706 ] } },
{ "type": "Feature", "properties": { "类别": "银行", "名称": "东营银行(淄博经开支行)", "经度": 118.022327, "纬度": 36.775367, "地址": "世纪路与考工路西北角", "类型": "金融保险服务;银行;银行", "省": "山东省", "市": "淄博市", "区县": "张店区", "经度_wgs84": 118.021806, "纬度_wgs84": 36.770544, "一级分类": "金融" }, "geometry": { "type": "Point", "coordinates": [ 118.021806, 36.770544 ] } },
{ "type": "Feature", "properties": { "类别": "银行", "名称": "东营银行(淄博高新支行)", "经度": 118.034256, "纬度": 36.837798, "地址": "中润大道5号甲20号", "类型": "金融保险服务;银行;银行", "省": "山东省", "市": "淄博市", "区县": "张店区", "经度_wgs84": 118.03364, "纬度_wgs84": 36.832946, "一级分类": "金融" }, "geometry": { "type": "Point", "coordinates": [ 118.03364, 36.832946 ] } },
{ "type": "Feature", "properties": { "类别": "银行", "名称": "张店农商银行(卫固支行)", "经度": 118.144935, "纬度": 36.867536, "地址": "卫固镇", "类型": "金融保险服务;银行;农村商业银行", "省": "山东省", "市": "淄博市", "区县": "张店区", "经度_wgs84": 118.144234, "纬度_wgs84": 36.862684, "一级分类": "金融" }, "geometry": { "type": "Point", "coordinates": [ 118.144234, 36.862684 ] } },
{ "type": "Feature", "properties": { "类别": "银行", "名称": "中国邮政储蓄银行(西山营业所)", "经度": 118.036103, "纬度": 36.75278, "地址": "西山四街西巷5号楼33-5号", "类型": "金融保险服务;银行;中国邮政储蓄银行", "省": "山东省", "市": "淄博市", "区县": "张店区", "经度_wgs84": 118.035555, "纬度_wgs84": 36.747926, "一级分类": "金融" }, "geometry": { "type": "Point", "coordinates": [ 118.035555, 36.747926 ] } },
{ "type": "Feature", "properties": { "类别": "银行", "名称": "兴业银行淄博绿城百合花园社区支行", "经度": 117.993758, "纬度": 36.846853, "地址": "房镇镇北北京路77号百合花园桂花园9号楼1层102铺105铺", "类型": "金融保险服务;银行;兴业银行", "省": "山东省", "市": "淄博市", "区县": "张店区", "经度_wgs84": 117.99328, "纬度_wgs84": 36.842101, "一级分类": "金融" }, "geometry": { "type": "Point", "coordinates": [ 117.99328, 36.842101 ] } },
{ "type": "Feature", "properties": { "类别": "银行", "名称": "张店农村商业银行(明清街支行)", "经度": 118.045282, "纬度": 36.821335, "地址": "华光路72号甲16号", "类型": "金融保险服务;银行;农村商业银行", "省": "山东省", "市": "淄博市", "区县": "张店区", "经度_wgs84": 118.044648, "纬度_wgs84": 36.816461, "一级分类": "金融" }, "geometry": { "type": "Point", "coordinates": [ 118.044648, 36.816461 ] } },
{ "type": "Feature", "properties": { "类别": "银行", "名称": "中国邮政储蓄银行(淄博市第三营业所)", "经度": 118.043434, "纬度": 36.808044, "地址": "共青团西路86号", "类型": "金融保险服务;银行;中国邮政储蓄银行", "省": "山东省", "市": "淄博市", "区县": "张店区", "经度_wgs84": 118.042817, "纬度_wgs84": 36.803174, "一级分类": "金融" }, "geometry": { "type": "Point", "coordinates": [ 118.042817, 36.803174 ] } },
{ "type": "Feature", "properties": { "类别": "银行", "名称": "张店农商银行(贾庄分理处)", "经度": 118.053789, "纬度": 36.781798, "地址": "昌国路东首安康佳园2号楼", "类型": "金融保险服务;银行;农村商业银行", "省": "山东省", "市": "淄博市", "区县": "张店区", "经度_wgs84": 118.053167, "纬度_wgs84": 36.776912, "一级分类": "金融" }, "geometry": { "type": "Point", "coordinates": [ 118.053167, 36.776912 ] } },
{ "type": "Feature", "properties": { "类别": "银行", "名称": "张店农商银行(杏园东路支行)", "经度": 118.07492, "纬度": 36.787054, "地址": "杏园东路85号甲14号", "类型": "金融保险服务;银行;农村商业银行", "省": "山东省", "市": "淄博市", "区县": "张店区", "经度_wgs84": 118.074254, "纬度_wgs84": 36.782145, "一级分类": "金融" }, "geometry": { "type": "Point", "coordinates": [ 118.074254, 36.782145 ] } },
{ "type": "Feature", "properties": { "类别": "银行", "名称": "中国邮政储蓄银行(莲池支行)", "经度": 118.034156, "纬度": 36.829091, "地址": "联通路82-4号", "类型": "金融保险服务;银行;中国邮政储蓄银行", "省": "山东省", "市": "淄博市", "区县": "张店区", "经度_wgs84": 118.033548, "纬度_wgs84": 36.824239, "一级分类": "金融" }, "geometry": { "type": "Point", "coordinates": [ 118.033548, 36.824239 ] } },
{ "type": "Feature", "properties": { "类别": "银行", "名称": "中国邮政储蓄银行(马尚营业厅)", "经度": 117.998274, "纬度": 36.79945, "地址": "马尚大街14号甲9号", "类型": "金融保险服务;银行;中国邮政储蓄银行", "省": "山东省", "市": "淄博市", "区县": "张店区", "经度_wgs84": 117.997821, "纬度_wgs84": 36.794687, "一级分类": "金融" }, "geometry": { "type": "Point", "coordinates": [ 117.997821, 36.794687 ] } },
{ "type": "Feature", "properties": { "类别": "银行", "名称": "山东张店农村商业银行(营子分理处)", "经度": 117.989815, "纬度": 36.77867, "地址": "考工路与北京路交叉口东南60米", "类型": "金融保险服务;银行;农村商业银行", "省": "山东省", "市": "淄博市", "区县": "张店区", "经度_wgs84": 117.989412, "纬度_wgs84": 36.77393, "一级分类": "金融" }, "geometry": { "type": "Point", "coordinates": [ 117.989412, 36.77393 ] } },
{ "type": "Feature", "properties": { "类别": "银行", "名称": "中国邮政储蓄银行(商城街支行)", "经度": 118.018734, "纬度": 36.823852, "地址": "义乌路商城街8-104-105", "类型": "金融保险服务;银行;中国邮政储蓄银行", "省": "山东省", "市": "淄博市", "区县": "张店区", "经度_wgs84": 118.018184, "纬度_wgs84": 36.819036, "一级分类": "金融" }, "geometry": { "type": "Point", "coordinates": [ 118.018184, 36.819036 ] } },
{ "type": "Feature", "properties": { "类别": "银行", "名称": "中国邮政储蓄银行(付家营业所)", "经度": 118.002575, "纬度": 36.762198, "地址": "华福大道108号正东方向50米", "类型": "金融保险服务;银行;中国邮政储蓄银行", "省": "山东省", "市": "淄博市", "区县": "张店区", "经度_wgs84": 118.002138, "纬度_wgs84": 36.757425, "一级分类": "金融" }, "geometry": { "type": "Point", "coordinates": [ 118.002138, 36.757425 ] } },
{ "type": "Feature", "properties": { "类别": "银行", "名称": "齐商银行(淄博华侨城小微支行)", "经度": 118.03204, "纬度": 36.846577, "地址": "中润·华侨城北区东北门旁", "类型": "金融保险服务;银行;银行", "省": "山东省", "市": "淄博市", "区县": "张店区", "经度_wgs84": 118.031424, "纬度_wgs84": 36.841729, "一级分类": "金融" }, "geometry": { "type": "Point", "coordinates": [ 118.031424, 36.841729 ] } },
{ "type": "Feature", "properties": { "类别": "银行", "名称": "张店农商银行(凯瑞园支行)", "经度": 118.0209, "纬度": 36.814143, "地址": "人民西路165号光彩大厦F1层", "类型": "金融保险服务;银行;农村商业银行", "省": "山东省", "市": "淄博市", "区县": "张店区", "经度_wgs84": 118.02035, "纬度_wgs84": 36.809322, "一级分类": "金融" }, "geometry": { "type": "Point", "coordinates": [ 118.02035, 36.809322 ] } },
{ "type": "Feature", "properties": { "类别": "银行", "名称": "中国邮政储蓄银行(淄博市工业路营业所)", "经度": 118.047061, "纬度": 36.750883, "地址": "工业路6号", "类型": "金融保险服务;银行;中国邮政储蓄银行", "省": "山东省", "市": "淄博市", "区县": "张店区", "经度_wgs84": 118.046483, "纬度_wgs84": 36.746008, "一级分类": "金融" }, "geometry": { "type": "Point", "coordinates": [ 118.046483, 36.746008 ] } },
{ "type": "Feature", "properties": { "类别": "银行", "名称": "张店农商银行天津路分理处", "经度": 117.970475, "纬度": 36.810775, "地址": "天津路与共青团西路交叉口南180米", "类型": "金融保险服务;银行;农村商业银行", "省": "山东省", "市": "淄博市", "区县": "张店区", "经度_wgs84": 117.970113, "纬度_wgs84": 36.806081, "一级分类": "金融" }, "geometry": { "type": "Point", "coordinates": [ 117.970113, 36.806081 ] } },
{ "type": "Feature", "properties": { "类别": "银行", "名称": "中国农业银行(淄博东方支行)", "经度": 118.05479, "纬度": 36.828499, "地址": "柳泉路91甲7(东方之珠大厦1层)", "类型": "金融保险服务;银行;中国农业银行", "省": "山东省", "市": "淄博市", "区县": "张店区", "经度_wgs84": 118.054125, "纬度_wgs84": 36.82361, "一级分类": "金融" }, "geometry": { "type": "Point", "coordinates": [ 118.054125, 36.82361 ] } },
{ "type": "Feature", "properties": { "类别": "银行", "名称": "中国人寿财险经开区支公司", "经度": 118.030829, "纬度": 36.755105, "地址": "山泉路241号", "类型": "金融保险服务;银行;银行", "省": "山东省", "市": "淄博市", "区县": "张店区", "经度_wgs84": 118.030296, "纬度_wgs84": 36.750263, "一级分类": "金融" }, "geometry": { "type": "Point", "coordinates": [ 118.030296, 36.750263 ] } },
{ "type": "Feature", "properties": { "类别": "银行", "名称": "中国农业银行淄博洪沟支行", "经度": 118.068693, "纬度": 36.791737, "地址": "洪沟路21号院", "类型": "金融保险服务;银行;中国农业银行", "省": "山东省", "市": "淄博市", "区县": "张店区", "经度_wgs84": 118.068032, "纬度_wgs84": 36.786832, "一级分类": "金融" }, "geometry": { "type": "Point", "coordinates": [ 118.068032, 36.786832 ] } },
{ "type": "Feature", "properties": { "类别": "银行", "名称": "张店农商银行(金都花园分理处)", "经度": 118.068638, "纬度": 36.882656, "地址": "四宝山街道金都花园柳泉路247号", "类型": "金融保险服务;银行;农村商业银行", "省": "山东省", "市": "淄博市", "区县": "张店区", "经度_wgs84": 118.067897, "纬度_wgs84": 36.877749, "一级分类": "金融" }, "geometry": { "type": "Point", "coordinates": [ 118.067897, 36.877749 ] } },
{ "type": "Feature", "properties": { "类别": "银行", "名称": "张店农商银行(天乙支行)", "经度": 117.99995, "纬度": 36.844169, "地址": "开发区中路房镇镇政府1层", "类型": "金融保险服务;银行;农村商业银行", "省": "山东省", "市": "淄博市", "区县": "张店区", "经度_wgs84": 117.999452, "纬度_wgs84": 36.839401, "一级分类": "金融" }, "geometry": { "type": "Point", "coordinates": [ 117.999452, 36.839401 ] } },
{ "type": "Feature", "properties": { "类别": "银行", "名称": "中国民生银行(淄博分行营业部)", "经度": 118.055149, "纬度": 36.825806, "地址": "柳泉路238号潘成国际大厦", "类型": "金融保险服务;银行;中国民生银行", "省": "山东省", "市": "淄博市", "区县": "张店区", "经度_wgs84": 118.054486, "纬度_wgs84": 36.820916, "一级分类": "金融" }, "geometry": { "type": "Point", "coordinates": [ 118.054486, 36.820916 ] } },
{ "type": "Feature", "properties": { "类别": "银行", "名称": "山东张店农村商业银行(傅山支行)", "经度": 118.135688, "纬度": 36.879895, "地址": "淄博高新区卫固镇傅山村", "类型": "金融保险服务;银行;农村商业银行", "省": "山东省", "市": "淄博市", "区县": "张店区", "经度_wgs84": 118.134959, "纬度_wgs84": 36.875025, "一级分类": "金融" }, "geometry": { "type": "Point", "coordinates": [ 118.134959, 36.875025 ] } },
{ "type": "Feature", "properties": { "类别": "银行", "名称": "山东张店农村商业银行(宝山支行)", "经度": 118.094938, "纬度": 36.821917, "地址": "张店开发区宝鑫路9号", "类型": "金融保险服务;银行;农村商业银行", "省": "山东省", "市": "淄博市", "区县": "张店区", "经度_wgs84": 118.094227, "纬度_wgs84": 36.817003, "一级分类": "金融" }, "geometry": { "type": "Point", "coordinates": [ 118.094227, 36.817003 ] } },
{ "type": "Feature", "properties": { "类别": "银行", "名称": "山东张店农村商业银行(城东支行)", "经度": 118.091539, "纬度": 36.762581, "地址": "城东路36号甲2号", "类型": "金融保险服务;银行;农村商业银行", "省": "山东省", "市": "淄博市", "区县": "张店区", "经度_wgs84": 118.09088, "纬度_wgs84": 36.757669, "一级分类": "金融" }, "geometry": { "type": "Point", "coordinates": [ 118.09088, 36.757669 ] } },
{ "type": "Feature", "properties": { "类别": "银行", "名称": "张店农商银行(尚文苑分理处)", "经度": 118.004991, "纬度": 36.804231, "地址": "世源大厦东南门西南50米", "类型": "金融保险服务;银行;农村商业银行", "省": "山东省", "市": "淄博市", "区县": "张店区", "经度_wgs84": 118.004509, "纬度_wgs84": 36.799451, "一级分类": "金融" }, "geometry": { "type": "Point", "coordinates": [ 118.004509, 36.799451 ] } },
{ "type": "Feature", "properties": { "类别": "银行", "名称": "中国邮政储蓄银行(湖田营业所)", "经度": 118.126473, "纬度": 36.789781, "地址": "湖田镇湖光路19号", "类型": "金融保险服务;银行;中国邮政储蓄银行", "省": "山东省", "市": "淄博市", "区县": "张店区", "经度_wgs84": 118.12581, "纬度_wgs84": 36.784898, "一级分类": "金融" }, "geometry": { "type": "Point", "coordinates": [ 118.12581, 36.784898 ] } },
{ "type": "Feature", "properties": { "类别": "银行", "名称": "农村商业银行(王庄分理处)", "经度": 118.076725, "纬度": 36.873125, "地址": "怡海云锦东南门旁", "类型": "金融保险服务;银行;农村商业银行", "省": "山东省", "市": "淄博市", "区县": "张店区", "经度_wgs84": 118.075981, "纬度_wgs84": 36.868212, "一级分类": "金融" }, "geometry": { "type": "Point", "coordinates": [ 118.075981, 36.868212 ] } },
{ "type": "Feature", "properties": { "类别": "银行", "名称": "中国邮政储蓄银行淄博经济开发区支行", "经度": 118.012907, "纬度": 36.79148, "地址": "王舍路与南京路交叉口东280米", "类型": "金融保险服务;银行;中国邮政储蓄银行", "省": "山东省", "市": "淄博市", "区县": "张店区", "经度_wgs84": 118.012406, "纬度_wgs84": 36.78668, "一级分类": "金融" }, "geometry": { "type": "Point", "coordinates": [ 118.012406, 36.78668 ] } },
{ "type": "Feature", "properties": { "类别": "银行", "名称": "张店农村商业银行(商家分理处)", "经度": 118.099152, "纬度": 36.789979, "地址": "洪沟路与富裕路交叉口东320米", "类型": "金融保险服务;银行;农村商业银行", "省": "山东省", "市": "淄博市", "区县": "张店区", "经度_wgs84": 118.098469, "纬度_wgs84": 36.785068, "一级分类": "金融" }, "geometry": { "type": "Point", "coordinates": [ 118.098469, 36.785068 ] } },
{ "type": "Feature", "properties": { "类别": "银行", "名称": "淄博市农行", "经度": 118.055975, "纬度": 36.811175, "地址": "西二路与味中味北街交叉口北60米", "类型": "金融保险服务;银行;中国农业银行", "省": "山东省", "市": "淄博市", "区县": "张店区", "经度_wgs84": 118.055323, "纬度_wgs84": 36.806285, "一级分类": "金融" }, "geometry": { "type": "Point", "coordinates": [ 118.055323, 36.806285 ] } },
{ "type": "Feature", "properties": { "类别": "银行", "名称": "中国邮政储蓄银行(卫固营业所)", "经度": 118.144223, "纬度": 36.867604, "地址": "卫固镇卫生院对过", "类型": "金融保险服务;银行;中国邮政储蓄银行", "省": "山东省", "市": "淄博市", "区县": "张店区", "经度_wgs84": 118.143521, "纬度_wgs84": 36.86275, "一级分类": "金融" }, "geometry": { "type": "Point", "coordinates": [ 118.143521, 36.86275 ] } }
]
}
