{
"type": "FeatureCollection",
"name": "poi_学校_cleaned",
"crs": { "type": "name", "properties": { "name": "urn:ogc:def:crs:OGC:1.3:CRS84" } },
"features": [
{ "type": "Feature", "properties": { "类别": "学校", "名称": "淄博中学", "经度": 118.120439, "纬度": 36.831177, "地址": "中润大道东首295号", "类型": "科教文化服务;学校;中学", "省": "山东省", "市": "淄博市", "区县": "张店区", "经度_wgs84": 118.119732, "纬度_wgs84": 36.826284, "一级分类": "教育" }, "geometry": { "type": "Point", "coordinates": [ 118.119732, 36.826284 ] } },
{ "type": "Feature", "properties": { "类别": "学校", "名称": "山东淄博实验中学", "经度": 118.008153, "纬度": 36.801282, "地址": "张周路11号", "类型": "科教文化服务;学校;中学", "省": "山东省", "市": "淄博市", "区县": "张店区", "经度_wgs84": 118.007661, "纬度_wgs84": 36.796494, "一级分类": "教育" }, "geometry": { "type": "Point", "coordinates": [ 118.007661, 36.796494 ] } },
{ "type": "Feature", "properties": { "类别": "学校", "名称": "山东省淄博第十一中学", "经度": 118.058347, "纬度": 36.850701, "地址": "柳泉路北首119号", "类型": "科教文化服务;学校;中学", "省": "山东省", "市": "淄博市", "区县": "张店区", "经度_wgs84": 118.057654, "纬度_wgs84": 36.845806, "一级分类": "教育" }, "geometry": { "type": "Point", "coordinates": [ 118.057654, 36.845806 ] } },
{ "type": "Feature", "properties": { "类别": "学校", "名称": "山东省淄博第五中学", "经度": 118.063129, "纬度": 36.791132, "地址": "洪沟路6号", "类型": "科教文化服务;学校;中学", "省": "山东省", "市": "淄博市", "区县": "张店区", "经度_wgs84": 118.062479, "纬度_wgs84": 36.786233, "一级分类": "教育" }, "geometry": { "type": "Point", "coordinates": [ 118.062479, 36.786233 ] } },
{ "type": "Feature", "properties": { "类别": "学校", "名称": "淄博齐盛高级中学", "经度": 117.976779, "纬度": 36.852334, "地址": "房镇镇南范路淄博新区", "类型": "科教文化服务;学校;中学", "省": "山东省", "市": "淄博市", "区县": "张店区", "经度_wgs84": 117.976359, "纬度_wgs84": 36.847624, "一级分类": "教育" }, "geometry": { "type": "Point", "coordinates": [ 117.976359, 36.847624 ] } },
{ "type": "Feature", "properties": { "类别": "学校", "名称": "张店区第八中学", "经度": 117.996954, "纬度": 36.825344, "地址": "华光路298号", "类型": "科教文化服务;学校;中学", "省": "山东省", "市": "淄博市", "区县": "张店区", "经度_wgs84": 117.996484, "纬度_wgs84": 36.820584, "一级分类": "教育" }, "geometry": { "type": "Point", "coordinates": [ 117.996484, 36.820584 ] } },
{ "type": "Feature", "properties": { "类别": "学校", "名称": "山东省淄博第十七中学", "经度": 118.035688, "纬度": 36.810232, "地址": "十七中北街1号", "类型": "科教文化服务;学校;中学", "省": "山东省", "市": "淄博市", "区县": "张店区", "经度_wgs84": 118.035092, "纬度_wgs84": 36.805378, "一级分类": "教育" }, "geometry": { "type": "Point", "coordinates": [ 118.035092, 36.805378 ] } },
{ "type": "Feature", "properties": { "类别": "学校", "名称": "淄博高新区实验中学", "经度": 118.128522, "纬度": 36.830556, "地址": "张店区高新区中润大道299号", "类型": "科教文化服务;学校;中学", "省": "山东省", "市": "淄博市", "区县": "张店区", "经度_wgs84": 118.127826, "纬度_wgs84": 36.825675, "一级分类": "教育" }, "geometry": { "type": "Point", "coordinates": [ 118.127826, 36.825675 ] } },
{ "type": "Feature", "properties": { "类别": "学校", "名称": "淄博市张店区齐盛学校", "经度": 117.97533, "纬度": 36.836168, "地址": "中润大道南", "类型": "科教文化服务;学校;中学", "省": "山东省", "市": "淄博市", "区县": "张店区", "经度_wgs84": 117.974929, "纬度_wgs84": 36.831462, "一级分类": "教育" }, "geometry": { "type": "Point", "coordinates": [ 117.974929, 36.831462 ] } },
{ "type": "Feature", "properties": { "类别": "学校", "名称": "淄博柳泉中学", "经度": 117.977727, "纬度": 36.819203, "地址": "人民西路", "类型": "科教文化服务;学校;中学", "省": "山东省", "市": "淄博市", "区县": "张店区", "经度_wgs84": 117.977333, "纬度_wgs84": 36.814492, "一级分类": "教育" }, "geometry": { "type": "Point", "coordinates": [ 117.977333, 36.814492 ] } },
{ "type": "Feature", "properties": { "类别": "学校", "名称": "张店区第一中学", "经度": 118.043795, "纬度": 36.795111, "地址": "和平路7号", "类型": "科教文化服务;学校;中学", "省": "山东省", "市": "淄博市", "区县": "张店区", "经度_wgs84": 118.043188, "纬度_wgs84": 36.790241, "一级分类": "教育" }, "geometry": { "type": "Point", "coordinates": [ 118.043188, 36.790241 ] } },
{ "type": "Feature", "properties": { "类别": "学校", "名称": "山东省淄博第十八中学", "经度": 118.055517, "纬度": 36.818262, "地址": "潘南西路18号", "类型": "科教文化服务;学校;中学", "省": "山东省", "市": "淄博市", "区县": "张店区", "经度_wgs84": 118.054859, "纬度_wgs84": 36.813372, "一级分类": "教育" }, "geometry": { "type": "Point", "coordinates": [ 118.054859, 36.813372 ] } },
{ "type": "Feature", "properties": { "类别": "学校", "名称": "张店区第二中学", "经度": 118.070757, "纬度": 36.808516, "地址": "人民东路14号", "类型": "科教文化服务;学校;中学", "省": "山东省", "市": "淄博市", "区县": "张店区", "经度_wgs84": 118.070079, "纬度_wgs84": 36.803609, "一级分类": "教育" }, "geometry": { "type": "Point", "coordinates": [ 118.070079, 36.803609 ] } },
{ "type": "Feature", "properties": { "类别": "学校", "名称": "淄博市张店区实验中学", "经度": 118.025832, "纬度": 36.799455, "地址": "世纪路36号", "类型": "科教文化服务;学校;中学", "省": "山东省", "市": "淄博市", "区县": "张店区", "经度_wgs84": 118.025278, "纬度_wgs84": 36.794623, "一级分类": "教育" }, "geometry": { "type": "Point", "coordinates": [ 118.025278, 36.794623 ] } },
{ "type": "Feature", "properties": { "类别": "学校", "名称": "张店区第七中学", "经度": 118.03144, "纬度": 36.818856, "地址": "北西六路57号", "类型": "科教文化服务;学校;中学", "省": "山东省", "市": "淄博市", "区县": "张店区", "经度_wgs84": 118.03085, "纬度_wgs84": 36.81401, "一级分类": "教育" }, "geometry": { "type": "Point", "coordinates": [ 118.03085, 36.81401 ] } },
{ "type": "Feature", "properties": { "类别": "学校", "名称": "张店区第九中学", "经度": 118.022021, "纬度": 36.815689, "地址": "人民西路126号", "类型": "科教文化服务;学校;中学", "省": "山东省", "市": "淄博市", "区县": "张店区", "经度_wgs84": 118.021466, "纬度_wgs84": 36.810865, "一级分类": "教育" }, "geometry": { "type": "Point", "coordinates": [ 118.021466, 36.810865 ] } },
{ "type": "Feature", "properties": { "类别": "学校", "名称": "张店区第三中学", "经度": 118.05725, "纬度": 36.807199, "地址": "金晶大道西4巷3号", "类型": "科教文化服务;学校;中学", "省": "山东省", "市": "淄博市", "区县": "张店区", "经度_wgs84": 118.056598, "纬度_wgs84": 36.802307, "一级分类": "教育" }, "geometry": { "type": "Point", "coordinates": [ 118.056598, 36.802307 ] } },
{ "type": "Feature", "properties": { "类别": "学校", "名称": "淄博市张店区铝城第一中学", "经度": 118.040937, "纬度": 36.748754, "地址": "花园路30号", "类型": "科教文化服务;学校;中学", "省": "山东省", "市": "淄博市", "区县": "张店区", "经度_wgs84": 118.040378, "纬度_wgs84": 36.743891, "一级分类": "教育" }, "geometry": { "type": "Point", "coordinates": [ 118.040378, 36.743891 ] } },
{ "type": "Feature", "properties": { "类别": "学校", "名称": "龙凤苑中学", "经度": 118.006056, "纬度": 36.834279, "地址": "重庆路与齐盛路交叉口东北260米", "类型": "科教文化服务;学校;中学", "省": "山东省", "市": "淄博市", "区县": "张店区", "经度_wgs84": 118.005543, "纬度_wgs84": 36.829495, "一级分类": "教育" }, "geometry": { "type": "Point", "coordinates": [ 118.005543, 36.829495 ] } },
{ "type": "Feature", "properties": { "类别": "学校", "名称": "淄博市高新区第一中学", "经度": 118.036423, "纬度": 36.855487, "地址": "兰雁大道", "类型": "科教文化服务;学校;中学", "省": "山东省", "市": "淄博市", "区县": "张店区", "经度_wgs84": 118.035785, "纬度_wgs84": 36.85063, "一级分类": "教育" }, "geometry": { "type": "Point", "coordinates": [ 118.035785, 36.85063 ] } },
{ "type": "Feature", "properties": { "类别": "学校", "名称": "淄博修文外国语学校", "经度": 117.975357, "纬度": 36.837448, "地址": "中润大道与香港路交叉口南100米", "类型": "科教文化服务;学校;中学|科教文化服务;学校;小学", "省": "山东省", "市": "淄博市", "区县": "张店区", "经度_wgs84": 117.974955, "纬度_wgs84": 36.832742, "一级分类": "教育" }, "geometry": { "type": "Point", "coordinates": [ 117.974955, 36.832742 ] } },
{ "type": "Feature", "properties": { "类别": "学校", "名称": "潘庄高级中学", "经度": 118.060365, "纬度": 36.823397, "地址": "迎春街与联通路交叉口南360米", "类型": "科教文化服务;学校;中学", "省": "山东省", "市": "淄博市", "区县": "张店区", "经度_wgs84": 118.059692, "纬度_wgs84": 36.8185, "一级分类": "教育" }, "geometry": { "type": "Point", "coordinates": [ 118.059692, 36.8185 ] } },
{ "type": "Feature", "properties": { "类别": "学校", "名称": "张店区科技苑中学", "经度": 118.050969, "纬度": 36.828994, "地址": "联通路与橙香路交叉口东北160米", "类型": "科教文化服务;学校;中学", "省": "山东省", "市": "淄博市", "区县": "张店区", "经度_wgs84": 118.050313, "纬度_wgs84": 36.824111, "一级分类": "教育" }, "geometry": { "type": "Point", "coordinates": [ 118.050313, 36.824111 ] } },
{ "type": "Feature", "properties": { "类别": "学校", "名称": "淄博世纪英才外语学校", "经度": 118.065, "纬度": 36.842399, "地址": "万杰路116号", "类型": "科教文化服务;学校;中学", "省": "山东省", "市": "淄博市", "区县": "张店区", "经度_wgs84": 118.064301, "纬度_wgs84": 36.837497, "一级分类": "教育" }, "geometry": { "type": "Point", "coordinates": [ 118.064301, 36.837497 ] } },
{ "type": "Feature", "properties": { "类别": "学校", "名称": "淄博市张店区第六中学", "经度": 117.99802, "纬度": 36.769038, "地址": "南重庆路166号", "类型": "科教文化服务;学校;中学", "省": "山东省", "市": "淄博市", "区县": "张店区", "经度_wgs84": 117.997594, "纬度_wgs84": 36.764277, "一级分类": "教育" }, "geometry": { "type": "Point", "coordinates": [ 117.997594, 36.764277 ] } },
{ "type": "Feature", "properties": { "类别": "学校", "名称": "山东淄博新元学校", "经度": 118.053855, "纬度": 36.819376, "地址": "柳泉路224号", "类型": "科教文化服务;学校;中学", "省": "山东省", "市": "淄博市", "区县": "张店区", "经度_wgs84": 118.0532, "纬度_wgs84": 36.814488, "一级分类": "教育" }, "geometry": { "type": "Point", "coordinates": [ 118.0532, 36.814488 ] } },
{ "type": "Feature", "properties": { "类别": "学校", "名称": "淄博高新区科学城实验中学", "经度": 118.032822, "纬度": 36.887442, "地址": "陶韵路与齐祥路交叉口", "类型": "科教文化服务;学校;中学", "省": "山东省", "市": "淄博市", "区县": "张店区", "经度_wgs84": 118.032166, "纬度_wgs84": 36.882591, "一级分类": "教育" }, "geometry": { "type": "Point", "coordinates": [ 118.032166, 36.882591 ] } },
{ "type": "Feature", "properties": { "类别": "学校", "名称": "张店区世纪中学", "经度": 118.025401, "纬度": 36.796467, "地址": "世纪路与和平路交叉口东南180米", "类型": "科教文化服务;学校;中学", "省": "山东省", "市": "淄博市", "区县": "张店区", "经度_wgs84": 118.024851, "纬度_wgs84": 36.791636, "一级分类": "教育" }, "geometry": { "type": "Point", "coordinates": [ 118.024851, 36.791636 ] } },
{ "type": "Feature", "properties": { "类别": "学校", "名称": "淄博黉门中学", "经度": 118.052253, "纬度": 36.856867, "地址": "规划路11号", "类型": "科教文化服务;学校;中学", "省": "山东省", "市": "淄博市", "区县": "张店区", "经度_wgs84": 118.051569, "纬度_wgs84": 36.851981, "一级分类": "教育" }, "geometry": { "type": "Point", "coordinates": [ 118.051569, 36.851981 ] } },
{ "type": "Feature", "properties": { "类别": "学校", "名称": "淄博市张店区建桥中学", "经度": 118.031465, "纬度": 36.820234, "地址": "北西六路59号", "类型": "科教文化服务;学校;中学", "省": "山东省", "市": "淄博市", "区县": "张店区", "经度_wgs84": 118.030874, "纬度_wgs84": 36.815388, "一级分类": "教育" }, "geometry": { "type": "Point", "coordinates": [ 118.030874, 36.815388 ] } },
{ "type": "Feature", "properties": { "类别": "学校", "名称": "淄博市张店区第四中学", "经度": 118.088207, "纬度": 36.753633, "地址": "沣水镇城东路1号淄博市张店区沣水中学附近", "类型": "科教文化服务;学校;中学", "省": "山东省", "市": "淄博市", "区县": "张店区", "经度_wgs84": 118.087557, "纬度_wgs84": 36.748721, "一级分类": "教育" }, "geometry": { "type": "Point", "coordinates": [ 118.087557, 36.748721 ] } },
{ "type": "Feature", "properties": { "类别": "学校", "名称": "淄博市张店区南定中学", "经度": 118.046504, "纬度": 36.742334, "地址": "崔军南定中学", "类型": "科教文化服务;学校;中学", "省": "山东省", "市": "淄博市", "区县": "张店区", "经度_wgs84": 118.045934, "纬度_wgs84": 36.737461, "一级分类": "教育" }, "geometry": { "type": "Point", "coordinates": [ 118.045934, 36.737461 ] } },
{ "type": "Feature", "properties": { "类别": "学校", "名称": "淄博市美达菲双语高级中学", "经度": 117.966026, "纬度": 36.815861, "地址": "人民西路与济南路交叉口西南100米", "类型": "科教文化服务;学校;中学", "省": "山东省", "市": "淄博市", "区县": "张店区", "经度_wgs84": 117.965674, "纬度_wgs84": 36.811177, "一级分类": "教育" }, "geometry": { "type": "Point", "coordinates": [ 117.965674, 36.811177 ] } },
{ "type": "Feature", "properties": { "类别": "学校", "名称": "张店区文苑学校", "经度": 118.057396, "纬度": 36.770116, "地址": "南定镇朝阳路9号", "类型": "科教文化服务;学校;中学", "省": "山东省", "市": "淄博市", "区县": "张店区", "经度_wgs84": 118.056776, "纬度_wgs84": 36.765225, "一级分类": "教育" }, "geometry": { "type": "Point", "coordinates": [ 118.056776, 36.765225 ] } },
{ "type": "Feature", "properties": { "类别": "学校", "名称": "淄博黉门科技高中", "经度": 118.052404, "纬度": 36.856963, "地址": "泰美路211号", "类型": "科教文化服务;学校;中学", "省": "山东省", "市": "淄博市", "区县": "张店区", "经度_wgs84": 118.051719, "纬度_wgs84": 36.852077, "一级分类": "教育" }, "geometry": { "type": "Point", "coordinates": [ 118.051719, 36.852077 ] } },
{ "type": "Feature", "properties": { "类别": "学校", "名称": "淄博市张店区第十二中学", "经度": 118.114856, "纬度": 36.790903, "地址": "杏园街道办事处湖光路3号", "类型": "科教文化服务;学校;中学", "省": "山东省", "市": "淄博市", "区县": "张店区", "经度_wgs84": 118.114179, "纬度_wgs84": 36.786004, "一级分类": "教育" }, "geometry": { "type": "Point", "coordinates": [ 118.114179, 36.786004 ] } },
{ "type": "Feature", "properties": { "类别": "学校", "名称": "淄博宝鑫新经典中学", "经度": 118.100135, "纬度": 36.818183, "地址": "尚庄路与春风路交叉口西北160米", "类型": "科教文化服务;学校;中学", "省": "山东省", "市": "淄博市", "区县": "张店区", "经度_wgs84": 118.099427, "纬度_wgs84": 36.813272, "一级分类": "教育" }, "geometry": { "type": "Point", "coordinates": [ 118.099427, 36.813272 ] } },
{ "type": "Feature", "properties": { "类别": "学校", "名称": "张店区汇智中学", "经度": 118.034798, "纬度": 36.78726, "地址": "王舍路83号", "类型": "科教文化服务;学校;中学", "省": "山东省", "市": "淄博市", "区县": "张店区", "经度_wgs84": 118.034225, "纬度_wgs84": 36.782408, "一级分类": "教育" }, "geometry": { "type": "Point", "coordinates": [ 118.034225, 36.782408 ] } },
{ "type": "Feature", "properties": { "类别": "学校", "名称": "山东理工大学(西校区)", "经度": 118.000702, "纬度": 36.81037, "地址": "新村西路266号", "类型": "科教文化服务;学校;高等院校", "省": "山东省", "市": "淄博市", "区县": "张店区", "经度_wgs84": 118.000231, "纬度_wgs84": 36.805601, "一级分类": "教育" }, "geometry": { "type": "Point", "coordinates": [ 118.000231, 36.805601 ] } },
{ "type": "Feature", "properties": { "类别": "学校", "名称": "山东理工大学东校区", "经度": 118.039909, "纬度": 36.811461, "地址": "共青团西路88号", "类型": "科教文化服务;学校;高等院校", "省": "山东省", "市": "淄博市", "区县": "张店区", "经度_wgs84": 118.039299, "纬度_wgs84": 36.806598, "一级分类": "教育" }, "geometry": { "type": "Point", "coordinates": [ 118.039299, 36.806598 ] } },
{ "type": "Feature", "properties": { "类别": "学校", "名称": "张店区第七中学(东校区)", "经度": 118.049725, "纬度": 36.828725, "地址": "橙香路与联通路交叉口北80米", "类型": "科教文化服务;学校;中学", "省": "山东省", "市": "淄博市", "区县": "张店区", "经度_wgs84": 118.049072, "纬度_wgs84": 36.823844, "一级分类": "教育" }, "geometry": { "type": "Point", "coordinates": [ 118.049072, 36.823844 ] } },
{ "type": "Feature", "properties": { "类别": "学校", "名称": "鸿成八中校区", "经度": 117.999495, "纬度": 36.825989, "地址": "华光路300号", "类型": "科教文化服务;学校;中学", "省": "山东省", "市": "淄博市", "区县": "张店区", "经度_wgs84": 117.999014, "纬度_wgs84": 36.821222, "一级分类": "教育" }, "geometry": { "type": "Point", "coordinates": [ 117.999014, 36.821222 ] } },
{ "type": "Feature", "properties": { "类别": "学校", "名称": "淄博张店美术中学", "经度": 118.051318, "纬度": 36.833698, "地址": "科技苑庭兰村南1门东120米", "类型": "科教文化服务;学校;中学", "省": "山东省", "市": "淄博市", "区县": "张店区", "经度_wgs84": 118.050657, "纬度_wgs84": 36.828814, "一级分类": "教育" }, "geometry": { "type": "Point", "coordinates": [ 118.050657, 36.828814 ] } },
{ "type": "Feature", "properties": { "类别": "学校", "名称": "山东理工大学东校区商学院", "经度": 118.03951, "纬度": 36.813249, "地址": "共青团西路86号甲27号山东理工大学东校区", "类型": "科教文化服务;学校;高等院校", "省": "山东省", "市": "淄博市", "区县": "张店区", "经度_wgs84": 118.0389, "纬度_wgs84": 36.808387, "一级分类": "教育" }, "geometry": { "type": "Point", "coordinates": [ 118.0389, 36.808387 ] } },
{ "type": "Feature", "properties": { "类别": "学校", "名称": "山东理工大学国际学术交流中心", "经度": 118.042084, "纬度": 36.810257, "地址": "新世界商业街36号", "类型": "科教文化服务;学校;高等院校", "省": "山东省", "市": "淄博市", "区县": "张店区", "经度_wgs84": 118.041469, "纬度_wgs84": 36.80539, "一级分类": "教育" }, "geometry": { "type": "Point", "coordinates": [ 118.041469, 36.80539 ] } },
{ "type": "Feature", "properties": { "类别": "学校", "名称": "山东理工大学机械交通实验中心", "经度": 117.994954, "纬度": 36.806875, "地址": "新村西路266号山东理工大学", "类型": "科教文化服务;学校;高等院校", "省": "山东省", "市": "淄博市", "区县": "张店区", "经度_wgs84": 117.994507, "纬度_wgs84": 36.802121, "一级分类": "教育" }, "geometry": { "type": "Point", "coordinates": [ 117.994507, 36.802121 ] } },
{ "type": "Feature", "properties": { "类别": "学校", "名称": "山东理工大学(西校区)-建筑工程学院大学生学习发展指导中心", "经度": 117.996859, "纬度": 36.808628, "地址": "绿岛西路山东理工大学教学楼12号楼", "类型": "科教文化服务;学校;高等院校", "省": "山东省", "市": "淄博市", "区县": "张店区", "经度_wgs84": 117.996404, "纬度_wgs84": 36.803869, "一级分类": "教育" }, "geometry": { "type": "Point", "coordinates": [ 117.996404, 36.803869 ] } },
{ "type": "Feature", "properties": { "类别": "学校", "名称": "中国人民大学少年新闻学院(淄博分院)", "经度": 118.02444, "纬度": 36.84188, "地址": "世纪路阳光国际B座601室", "类型": "科教文化服务;学校;成人教育|科教文化服务;学校;高等院校", "省": "山东省", "市": "淄博市", "区县": "张店区", "经度_wgs84": 118.023853, "纬度_wgs84": 36.83705, "一级分类": "教育" }, "geometry": { "type": "Point", "coordinates": [ 118.023853, 36.83705 ] } },
{ "type": "Feature", "properties": { "类别": "学校", "名称": "山东理工大学商学院农业推广硕士教育中心", "经度": 118.037803, "纬度": 36.812962, "地址": "共青团西路86号甲27号山东理工大学东校区", "类型": "科教文化服务;学校;高等院校", "省": "山东省", "市": "淄博市", "区县": "张店区", "经度_wgs84": 118.037198, "纬度_wgs84": 36.808103, "一级分类": "教育" }, "geometry": { "type": "Point", "coordinates": [ 118.037198, 36.808103 ] } },
{ "type": "Feature", "properties": { "类别": "学校", "名称": "山东理工大学EDP教育中心", "经度": 118.037803, "纬度": 36.812963, "地址": "共青团西路86号甲27号山东理工大学东校区", "类型": "科教文化服务;学校;高等院校", "省": "山东省", "市": "淄博市", "区县": "张店区", "经度_wgs84": 118.037198, "纬度_wgs84": 36.808104, "一级分类": "教育" }, "geometry": { "type": "Point", "coordinates": [ 118.037198, 36.808104 ] } },
{ "type": "Feature", "properties": { "类别": "学校", "名称": "山东理工大学商学院学生学习与发展指导中心", "经度": 118.041525, "纬度": 36.812975, "地址": "共青团西路86号甲27号山东理工大学东校区", "类型": "科教文化服务;学校;高等院校", "省": "山东省", "市": "淄博市", "区县": "张店区", "经度_wgs84": 118.040909, "纬度_wgs84": 36.808109, "一级分类": "教育" }, "geometry": { "type": "Point", "coordinates": [ 118.040909, 36.808109 ] } },
{ "type": "Feature", "properties": { "类别": "学校", "名称": "山东理工大学农业工程与食品科学学院党团服务中心", "经度": 117.996609, "纬度": 36.814923, "地址": "新村西路266号山东理工大学学生公寓15号楼", "类型": "科教文化服务;学校;高等院校", "省": "山东省", "市": "淄博市", "区县": "张店区", "经度_wgs84": 117.996149, "纬度_wgs84": 36.810164, "一级分类": "教育" }, "geometry": { "type": "Point", "coordinates": [ 117.996149, 36.810164 ] } },
{ "type": "Feature", "properties": { "类别": "学校", "名称": "山东理工大学商学院工程硕士教育中心", "经度": 118.037803, "纬度": 36.812962, "地址": "共青团西路86号甲27号山东理工大学东校区", "类型": "科教文化服务;学校;高等院校", "省": "山东省", "市": "淄博市", "区县": "张店区", "经度_wgs84": 118.037198, "纬度_wgs84": 36.808103, "一级分类": "教育" }, "geometry": { "type": "Point", "coordinates": [ 118.037198, 36.808103 ] } },
{ "type": "Feature", "properties": { "类别": "学校", "名称": "中国音乐学院全国音乐家协会(南定)考级报名点", "经度": 118.050247, "纬度": 36.770471, "地址": "张南路与朝阳路交叉口北80米", "类型": "科教文化服务;学校;高等院校", "省": "山东省", "市": "淄博市", "区县": "张店区", "经度_wgs84": 118.049644, "纬度_wgs84": 36.76559, "一级分类": "教育" }, "geometry": { "type": "Point", "coordinates": [ 118.049644, 36.76559 ] } },
{ "type": "Feature", "properties": { "类别": "学校", "名称": "山东大学齐鲁医学院淄博临床学院", "经度": 118.106044, "纬度": 36.829363, "地址": "中润大道世博高新医院", "类型": "科教文化服务;学校;高等院校", "省": "山东省", "市": "淄博市", "区县": "张店区", "经度_wgs84": 118.105327, "纬度_wgs84": 36.824455, "一级分类": "教育" }, "geometry": { "type": "Point", "coordinates": [ 118.105327, 36.824455 ] } },
{ "type": "Feature", "properties": { "类别": "学校", "名称": "山东理工大学新型聚氨酯材料研究院科技成果展示厅", "经度": 117.993976, "纬度": 36.810664, "地址": "山东理工大学物业管理中心西门旁", "类型": "科教文化服务;学校;高等院校", "省": "山东省", "市": "淄博市", "区县": "张店区", "经度_wgs84": 117.99353, "纬度_wgs84": 36.805912, "一级分类": "教育" }, "geometry": { "type": "Point", "coordinates": [ 117.99353, 36.805912 ] } },
{ "type": "Feature", "properties": { "类别": "学校", "名称": "淄博十七中新校区(建设中)", "经度": 117.997909, "纬度": 36.776304, "地址": "考工路与重庆路交叉口西南角", "类型": "科教文化服务;学校;中学", "省": "山东省", "市": "淄博市", "区县": "张店区", "经度_wgs84": 117.997478, "纬度_wgs84": 36.771543, "一级分类": "教育" }, "geometry": { "type": "Point", "coordinates": [ 117.997478, 36.771543 ] } },
{ "type": "Feature", "properties": { "类别": "学校", "名称": "淄博第三十一中学(建设中)", "经度": 118.190451, "纬度": 36.854098, "地址": "中埠镇铁山路 76 号", "类型": "科教文化服务;学校;中学", "省": "山东省", "市": "淄博市", "区县": "张店区", "经度_wgs84": 118.189864, "纬度_wgs84": 36.849347, "一级分类": "教育" }, "geometry": { "type": "Point", "coordinates": [ 118.189864, 36.849347 ] } },
{ "type": "Feature", "properties": { "类别": "学校", "名称": "新城建工绿城北中学项目(建设中)", "经度": 117.980425, "纬度": 36.855275, "地址": "绿城北中学项目(建设中)", "类型": "科教文化服务;学校;中学|商务住宅;住宅区;住宅小区", "省": "山东省", "市": "淄博市", "区县": "张店区", "经度_wgs84": 117.979989, "纬度_wgs84": 36.850556, "一级分类": "教育" }, "geometry": { "type": "Point", "coordinates": [ 117.979989, 36.850556 ] } }
]
}
